<?xml version="1.0" encoding="utf-8"?>
<kml xmlns="http://www.opengis.net/kml/2.2">
  <Document>
  <name>Erik Martinsson: Grövelsjöorienteringen - prologen (2018-08-01)</name>
    <Folder>
      <GroundOverlay>
        <Icon>
          <href>http://www.lid1.se/erik/doma/map_images/433.jpg</href>
        </Icon>
        <LatLonBox>
          <north>62.011991066178</north>
          <south>61.985741241778</south>
          <east>12.371439428701</east>
          <west>12.293758390592</west>
          <rotation>2.3435023156619</rotation>
        </LatLonBox>
      </GroundOverlay>
    </Folder>
  </Document>
</kml>
