<?xml version="1.0" encoding="utf-8"?>
<kml xmlns="http://www.opengis.net/kml/2.2">
  <Document>
  <name>Erik Martinsson: Sprint-SM, kval (2018-06-01)</name>
    <Folder>
      <GroundOverlay>
        <Icon>
          <href>http://www.lid1.se/erik/doma/map_images/419.jpg</href>
        </Icon>
        <LatLonBox>
          <north>57.781718582625</north>
          <south>57.770727648854</south>
          <east>14.15654664562</east>
          <west>14.128264825841</west>
          <rotation>-3.9370339443027</rotation>
        </LatLonBox>
      </GroundOverlay>
    </Folder>
  </Document>
</kml>
