<?xml version="1.0" encoding="utf-8"?>
<kml xmlns="http://www.opengis.net/kml/2.2">
  <Document>
  <name>Erik Martinsson: Stråkensprinten, E2 (2018-05-25)</name>
    <Folder>
      <GroundOverlay>
        <Icon>
          <href>http://www.lid1.se/erik/doma/map_images/417.jpg</href>
        </Icon>
        <LatLonBox>
          <north>57.895496401021</north>
          <south>57.887861947158</south>
          <east>13.860461313868</east>
          <west>13.840791885898</west>
          <rotation>0.76670655558398</rotation>
        </LatLonBox>
      </GroundOverlay>
    </Folder>
  </Document>
</kml>
