<?xml version="1.0" encoding="utf-8"?>
<kml xmlns="http://www.opengis.net/kml/2.2">
  <Document>
  <name>Erik Martinsson: Närkekvartetten, dag 4 (2018-05-12)</name>
    <Folder>
      <GroundOverlay>
        <Icon>
          <href>http://www.lid1.se/erik/doma/map_images/411.jpg</href>
        </Icon>
        <LatLonBox>
          <north>59.2924852561</north>
          <south>59.251495694798</south>
          <east>14.879785778338</east>
          <west>14.794008954272</west>
          <rotation>0.25577921458725</rotation>
        </LatLonBox>
      </GroundOverlay>
    </Folder>
  </Document>
</kml>
