<?xml version="1.0" encoding="utf-8"?>
<kml xmlns="http://www.opengis.net/kml/2.2">
  <Document>
  <name>Erik Martinsson: Smålandskavlen (2018-10-26)</name>
    <Folder>
      <GroundOverlay>
        <Icon>
          <href>http://www.lid1.se/erik/doma/map_images/450.jpg</href>
        </Icon>
        <LatLonBox>
          <north>57.168841024334</north>
          <south>57.13620760748</south>
          <east>14.790599790508</east>
          <west>14.743067588236</west>
          <rotation>0.10443795980388</rotation>
        </LatLonBox>
      </GroundOverlay>
    </Folder>
  </Document>
</kml>
