<?xml version="1.0" encoding="utf-8"?>
<kml xmlns="http://www.opengis.net/kml/2.2">
  <Document>
  <name>Erik Martinsson: Lång-DM (2018-09-22)</name>
    <Folder>
      <GroundOverlay>
        <Icon>
          <href>http://www.lid1.se/erik/doma/map_images/448.jpg</href>
        </Icon>
        <LatLonBox>
          <north>58.069646408372</north>
          <south>58.030911566362</south>
          <east>14.834755369235</east>
          <west>14.783978317281</west>
          <rotation>-4.5161355818149</rotation>
        </LatLonBox>
      </GroundOverlay>
    </Folder>
  </Document>
</kml>
