<?xml version="1.0" encoding="utf-8"?>
<kml xmlns="http://www.opengis.net/kml/2.2">
  <Document>
  <name>Erik Martinsson: Pekingduon. sprint (2018-05-19)</name>
    <Folder>
      <GroundOverlay>
        <Icon>
          <href>http://www.lid1.se/erik/doma/map_images/414.jpg</href>
        </Icon>
        <LatLonBox>
          <north>58.56884281546</north>
          <south>58.561377179507</south>
          <east>16.176867766017</east>
          <west>16.156914915735</west>
          <rotation>-0.26001643421945</rotation>
        </LatLonBox>
      </GroundOverlay>
    </Folder>
  </Document>
</kml>
