<?xml version="1.0" encoding="utf-8"?>
<kml xmlns="http://www.opengis.net/kml/2.2">
  <Document>
  <name>Erik Martinsson: O-ringen E1 H21L (2018-07-21)</name>
    <Folder>
      <GroundOverlay>
        <Icon>
          <href>http://www.lid1.se/erik/doma/map_images/428.jpg</href>
        </Icon>
        <LatLonBox>
          <north>63.285562642155</north>
          <south>63.244581337607</south>
          <east>18.70395064011</east>
          <west>18.578311180137</west>
          <rotation>-7.0665215745723</rotation>
        </LatLonBox>
      </GroundOverlay>
    </Folder>
  </Document>
</kml>
