<?xml version="1.0" encoding="utf-8"?>
<kml xmlns="http://www.opengis.net/kml/2.2">
  <Document>
  <name>Erik Martinsson: 10Mila (2018-04-28)</name>
    <Folder>
      <GroundOverlay>
        <Icon>
          <href>http://www.lid1.se/erik/doma/map_images/405.jpg</href>
        </Icon>
        <LatLonBox>
          <north>58.930253126692</north>
          <south>58.884778265303</south>
          <east>17.922103649074</east>
          <west>17.862792254815</west>
          <rotation>-5.2743922414037</rotation>
        </LatLonBox>
      </GroundOverlay>
    </Folder>
  </Document>
</kml>
