<?xml version="1.0" encoding="utf-8"?>
<kml xmlns="http://www.opengis.net/kml/2.2">
  <Document>
  <name>Erik Martinsson: Stråkensprinten, E1 (2018-05-25)</name>
    <Folder>
      <GroundOverlay>
        <Icon>
          <href>http://www.lid1.se/erik/doma/map_images/416.jpg</href>
        </Icon>
        <LatLonBox>
          <north>57.927989872532</north>
          <south>57.916869567726</south>
          <east>13.893042375017</east>
          <west>13.878567634881</west>
          <rotation>-0.20117251731375</rotation>
        </LatLonBox>
      </GroundOverlay>
    </Folder>
  </Document>
</kml>
