<?xml version="1.0" encoding="utf-8"?>
<kml xmlns="http://www.opengis.net/kml/2.2">
  <Document>
  <name>Erik Martinsson: Närkekvartetten, dag 2 (2018-05-10)</name>
    <Folder>
      <GroundOverlay>
        <Icon>
          <href>http://www.lid1.se/erik/doma/map_images/409.jpg</href>
        </Icon>
        <LatLonBox>
          <north>59.418110951102</north>
          <south>59.399367446312</south>
          <east>15.018328696465</east>
          <west>14.967270705212</west>
          <rotation>0.51094368101452</rotation>
        </LatLonBox>
      </GroundOverlay>
    </Folder>
  </Document>
</kml>
