<?xml version="1.0" encoding="utf-8"?>
<kml xmlns="http://www.opengis.net/kml/2.2">
  <Document>
  <name>Erik Martinsson: Pekingduon, medel (2018-05-19)</name>
    <Folder>
      <GroundOverlay>
        <Icon>
          <href>http://www.lid1.se/erik/doma/map_images/415.jpg</href>
        </Icon>
        <LatLonBox>
          <north>58.567786173093</north>
          <south>58.555305432142</south>
          <east>16.171995970642</east>
          <west>16.139671996979</west>
          <rotation>-1.1715357357877</rotation>
        </LatLonBox>
      </GroundOverlay>
    </Folder>
  </Document>
</kml>
