<?xml version="1.0" encoding="utf-8"?>
<kml xmlns="http://www.opengis.net/kml/2.2">
  <Document>
  <name>Erik Martinsson: Sprint-SM, stafett (2018-06-02)</name>
    <Folder>
      <GroundOverlay>
        <Icon>
          <href>http://www.lid1.se/erik/doma/map_images/421.jpg</href>
        </Icon>
        <LatLonBox>
          <north>57.780177096459</north>
          <south>57.771138118897</south>
          <east>14.160322036561</east>
          <west>14.144323773079</west>
          <rotation>-3.302007325851</rotation>
        </LatLonBox>
      </GroundOverlay>
    </Folder>
  </Document>
</kml>
