<?xml version="1.0" encoding="utf-8"?>
<kml xmlns="http://www.opengis.net/kml/2.2">
  <Document>
  <name>Erik Martinsson: O-ringen E5 H21L (2018-07-26)</name>
    <Folder>
      <GroundOverlay>
        <Icon>
          <href>http://www.lid1.se/erik/doma/map_images/432.jpg</href>
        </Icon>
        <LatLonBox>
          <north>63.307524633754</north>
          <south>63.266497255858</south>
          <east>18.822487661476</east>
          <west>18.696611067861</west>
          <rotation>-6.851006020915</rotation>
        </LatLonBox>
      </GroundOverlay>
    </Folder>
  </Document>
</kml>
