<?xml version="1.0" encoding="utf-8"?>
<kml xmlns="http://www.opengis.net/kml/2.2">
  <Document>
  <name>Erik Martinsson: Kolmårdsträffen, lång (2018-08-18)</name>
    <Folder>
      <GroundOverlay>
        <Icon>
          <href>http://www.lid1.se/erik/doma/map_images/439.jpg</href>
        </Icon>
        <LatLonBox>
          <north>58.723882713713</north>
          <south>58.68601422311</south>
          <east>16.210354630028</east>
          <west>16.160285890784</west>
          <rotation>-0.030891743799312</rotation>
        </LatLonBox>
      </GroundOverlay>
    </Folder>
  </Document>
</kml>
