<?xml version="1.0" encoding="utf-8"?>
<kml xmlns="http://www.opengis.net/kml/2.2">
  <Document>
  <name>Erik Martinsson: Staffans minne (2018-05-14)</name>
    <Folder>
      <GroundOverlay>
        <Icon>
          <href>http://www.lid1.se/erik/doma/map_images/412.jpg</href>
        </Icon>
        <LatLonBox>
          <north>58.454113011637</north>
          <south>58.440237551974</south>
          <east>14.900407720855</east>
          <west>14.87958556432</west>
          <rotation>0.21520540116818</rotation>
        </LatLonBox>
      </GroundOverlay>
    </Folder>
  </Document>
</kml>
