<?xml version="1.0" encoding="utf-8"?>
<kml xmlns="http://www.opengis.net/kml/2.2">
  <Document>
  <name>Erik Martinsson: Eskilstuna Weekend E3 (2018-07-07)</name>
    <Folder>
      <GroundOverlay>
        <Icon>
          <href>http://www.lid1.se/erik/doma/map_images/427.jpg</href>
        </Icon>
        <LatLonBox>
          <north>59.230617475403</north>
          <south>59.203263452742</south>
          <east>16.707011939849</east>
          <west>16.669859483782</west>
          <rotation>-1.3593687115854</rotation>
        </LatLonBox>
      </GroundOverlay>
    </Folder>
  </Document>
</kml>
