<?xml version="1.0" encoding="utf-8"?>
<kml xmlns="http://www.opengis.net/kml/2.2">
  <Document>
  <name>Erik Martinsson: Kolmårdsdubbeln, medel (2022-04-16)</name>
    <Folder>
      <GroundOverlay>
        <Icon>
          <href>http://www.lid1.se/erik/doma/map_images/519.jpg</href>
        </Icon>
        <LatLonBox>
          <north>58.693666112754</north>
          <south>58.673437313955</south>
          <east>16.141095997613</east>
          <west>16.091422920665</west>
          <rotation>-5.6561256627753</rotation>
        </LatLonBox>
      </GroundOverlay>
    </Folder>
  </Document>
</kml>
