<?xml version="1.0" encoding="utf-8"?>
<kml xmlns="http://www.opengis.net/kml/2.2">
  <Document>
  <name>Erik Martinsson: Jukola (2022-06-18)</name>
    <Folder>
      <GroundOverlay>
        <Icon>
          <href>http://www.lid1.se/erik/doma/map_images/524.jpg</href>
        </Icon>
        <LatLonBox>
          <north>60.66758189998</north>
          <south>60.627453412063</south>
          <east>22.050553212547</east>
          <west>21.996944937769</west>
          <rotation>-7.2033587234986</rotation>
        </LatLonBox>
      </GroundOverlay>
    </Folder>
  </Document>
</kml>
