<?xml version="1.0" encoding="utf-8"?>
<kml xmlns="http://www.opengis.net/kml/2.2">
  <Document>
  <name>Erik Martinsson: Kolmårdsdubbeln, stafett (2022-04-17)</name>
    <Folder>
      <GroundOverlay>
        <Icon>
          <href>http://www.lid1.se/erik/doma/map_images/520.jpg</href>
        </Icon>
        <LatLonBox>
          <north>58.697145080067</north>
          <south>58.673457853115</south>
          <east>16.141490483605</east>
          <west>16.091945270222</west>
          <rotation>-6.1823156723037</rotation>
        </LatLonBox>
      </GroundOverlay>
    </Folder>
  </Document>
</kml>
