<?xml version="1.0" encoding="utf-8"?>
<kml xmlns="http://www.opengis.net/kml/2.2">
  <Document>
  <name>Erik Martinsson: O-ringen H35 E4 (2022-07-28)</name>
    <Folder>
      <GroundOverlay>
        <Icon>
          <href>http://www.lid1.se/erik/doma/map_images/530.jpg</href>
        </Icon>
        <LatLonBox>
          <north>59.791039302761</north>
          <south>59.752385931887</south>
          <east>17.70631063743</east>
          <west>17.653343274356</west>
          <rotation>-6.044232948416</rotation>
        </LatLonBox>
      </GroundOverlay>
    </Folder>
  </Document>
</kml>
