<?xml version="1.0" encoding="utf-8"?>
<kml xmlns="http://www.opengis.net/kml/2.2">
  <Document>
  <name>Erik Martinsson: Bredaryds SOK, Långdistans (2022-04-09)</name>
    <Folder>
      <GroundOverlay>
        <Icon>
          <href>http://www.lid1.se/erik/doma/map_images/517.jpg</href>
        </Icon>
        <LatLonBox>
          <north>57.215612707931</north>
          <south>57.189024190628</south>
          <east>13.852620036184</east>
          <west>13.818887684932</west>
          <rotation>-5.0216798128659</rotation>
        </LatLonBox>
      </GroundOverlay>
    </Folder>
  </Document>
</kml>
