<?xml version="1.0" encoding="utf-8"?>
<kml xmlns="http://www.opengis.net/kml/2.2">
  <Document>
  <name>Erik Martinsson: Smålandskavlen (2019-10-25)</name>
    <Folder>
      <GroundOverlay>
        <Icon>
          <href>http://www.lid1.se/erik/doma/map_images/481.jpg</href>
        </Icon>
        <LatLonBox>
          <north>57.207665578891</north>
          <south>57.168719250783</south>
          <east>15.383319629086</east>
          <west>15.333559190666</west>
          <rotation>-2.8542435546072</rotation>
        </LatLonBox>
      </GroundOverlay>
    </Folder>
  </Document>
</kml>
