<?xml version="1.0" encoding="utf-8"?>
<kml xmlns="http://www.opengis.net/kml/2.2">
  <Document>
  <name>Erik Martinsson: Hallands 3-dagars E2 (2019-07-12)</name>
    <Folder>
      <GroundOverlay>
        <Icon>
          <href>http://www.lid1.se/erik/doma/map_images/467.jpg</href>
        </Icon>
        <LatLonBox>
          <north>57.174906822973</north>
          <south>57.15245410808</south>
          <east>12.549247810542</east>
          <west>12.486195094384</west>
          <rotation>2.0711641129311</rotation>
        </LatLonBox>
      </GroundOverlay>
    </Folder>
  </Document>
</kml>
