<?xml version="1.0" encoding="utf-8"?>
<kml xmlns="http://www.opengis.net/kml/2.2">
  <Document>
  <name>Erik Martinsson: Smålandskavlen (2021-10-29)</name>
    <Folder>
      <GroundOverlay>
        <Icon>
          <href>http://www.lid1.se/erik/doma/map_images/515.jpg</href>
        </Icon>
        <LatLonBox>
          <north>58.025497185899</north>
          <south>57.999010702046</south>
          <east>14.524739242887</east>
          <west>14.457325984282</west>
          <rotation>0.47795187303054</rotation>
        </LatLonBox>
      </GroundOverlay>
    </Folder>
  </Document>
</kml>
