<?xml version="1.0" encoding="utf-8"?>
<kml xmlns="http://www.opengis.net/kml/2.2">
  <Document>
  <name>Erik Martinsson: Grövelsjönorienteringen E4 (2021-08-10)</name>
    <Folder>
      <GroundOverlay>
        <Icon>
          <href>http://www.lid1.se/erik/doma/map_images/506.jpg</href>
        </Icon>
        <LatLonBox>
          <north>62.07057328548</north>
          <south>62.043041346294</south>
          <east>12.271780869818</east>
          <west>12.231389916305</west>
          <rotation>-4.16620395429</rotation>
        </LatLonBox>
      </GroundOverlay>
    </Folder>
  </Document>
</kml>
