<?xml version="1.0" encoding="utf-8"?>
<kml xmlns="http://www.opengis.net/kml/2.2">
  <Document>
  <name>Erik Martinsson: Ramundernatten (2021-10-25)</name>
    <Folder>
      <GroundOverlay>
        <Icon>
          <href>http://www.lid1.se/erik/doma/map_images/514.jpg</href>
        </Icon>
        <LatLonBox>
          <north>58.470035096855</north>
          <south>58.451852858333</south>
          <east>16.353343276108</east>
          <west>16.320161849426</west>
          <rotation>-1.2742290936534</rotation>
        </LatLonBox>
      </GroundOverlay>
    </Folder>
  </Document>
</kml>
