<?xml version="1.0" encoding="utf-8"?>
<kml xmlns="http://www.opengis.net/kml/2.2">
  <Document>
  <name>Erik Martinsson: O-ringen E5 H21L (2014-07-24)</name>
    <Folder>
      <GroundOverlay>
        <Icon>
          <href>http://www.lid1.se/erik/doma/map_images/233.jpg</href>
        </Icon>
        <LatLonBox>
          <north>55.762055065552</north>
          <south>55.723304874105</south>
          <east>14.173899720466</east>
          <west>14.121740408243</west>
          <rotation>0.86121655346743</rotation>
        </LatLonBox>
      </GroundOverlay>
    </Folder>
  </Document>
</kml>
