<?xml version="1.0" encoding="utf-8"?>
<kml xmlns="http://www.opengis.net/kml/2.2">
  <Document>
  <name>Erik Martinsson: Tibrotrippeln Medel (2014-04-05)</name>
    <Folder>
      <GroundOverlay>
        <Icon>
          <href>http://www.lid1.se/erik/doma/map_images/207.jpg</href>
        </Icon>
        <LatLonBox>
          <north>58.418956657704</north>
          <south>58.404642304657</south>
          <east>14.296493510643</east>
          <west>14.246253025849</west>
          <rotation>0.78567867230851</rotation>
        </LatLonBox>
      </GroundOverlay>
    </Folder>
  </Document>
</kml>
