<?xml version="1.0" encoding="utf-8"?>
<kml xmlns="http://www.opengis.net/kml/2.2">
  <Document>
  <name>Erik Martinsson: Idre 3-dagars Etapp 2 (2014-06-24)</name>
    <Folder>
      <GroundOverlay>
        <Icon>
          <href>http://www.lid1.se/erik/doma/map_images/222.jpg</href>
        </Icon>
        <LatLonBox>
          <north>61.953644228948</north>
          <south>61.933039608323</south>
          <east>12.837886201346</east>
          <west>12.802191753834</west>
          <rotation>2.3299826800676</rotation>
        </LatLonBox>
      </GroundOverlay>
    </Folder>
  </Document>
</kml>
