<?xml version="1.0" encoding="utf-8"?>
<kml xmlns="http://www.opengis.net/kml/2.2">
  <Document>
  <name>Erik Martinsson: O-ringen E1 H21L (2014-07-19)</name>
    <Folder>
      <GroundOverlay>
        <Icon>
          <href>http://www.lid1.se/erik/doma/map_images/229.jpg</href>
        </Icon>
        <LatLonBox>
          <north>56.199185419019</north>
          <south>56.16508193329</south>
          <east>14.429143771181</east>
          <west>14.380708492181</west>
          <rotation>0.62566483773619</rotation>
        </LatLonBox>
      </GroundOverlay>
    </Folder>
  </Document>
</kml>
