<?xml version="1.0" encoding="utf-8"?>
<kml xmlns="http://www.opengis.net/kml/2.2">
  <Document>
  <name>Erik Martinsson: Peking-Duon - Sprint (2014-05-24)</name>
    <Folder>
      <GroundOverlay>
        <Icon>
          <href>http://www.lid1.se/erik/doma/map_images/216.jpg</href>
        </Icon>
        <LatLonBox>
          <north>58.565041691921</north>
          <south>58.554037758513</south>
          <east>16.226397160776</east>
          <west>16.211880409429</west>
          <rotation>0.2893776753004</rotation>
        </LatLonBox>
      </GroundOverlay>
    </Folder>
  </Document>
</kml>
