<?xml version="1.0" encoding="utf-8"?>
<kml xmlns="http://www.opengis.net/kml/2.2">
  <Document>
  <name>Erik Martinsson: Medel-DM (2014-09-13)</name>
    <Folder>
      <GroundOverlay>
        <Icon>
          <href>http://www.lid1.se/erik/doma/map_images/243.jpg</href>
        </Icon>
        <LatLonBox>
          <north>58.621198911511</north>
          <south>58.593843465831</south>
          <east>15.363738911709</east>
          <west>15.327473893433</west>
          <rotation>-0.94296500259822</rotation>
        </LatLonBox>
      </GroundOverlay>
    </Folder>
  </Document>
</kml>
