<?xml version="1.0" encoding="UTF-8" ?>
<gpx xmlns="http://www.topografix.com/GPX/1/1" version="1.1" creator="Attackpoint - http://www.attackpoint.org" xmlns:xsi="http://www.w3.org/2001/XMLSchema-instance" xmlns:tp1="http://www.garmin.com/xmlschemas/TrackPointExtension/v1" xsi:schemaLocation="http://www.topografix.com/GPX/1/1 http://www.topografix.com/GPX/1/1/gpx.xsd http://www.garmin.com/xmlschemas/TrackPointExtension/v1 http://www.garmin.com/xmlschemas/TrackPointExtensionv1.xsd">
<trk>
<trkseg>
<trkpt lat="58.43152944" lon="15.78174141">
<ele>59.5</ele>
<time>2025-05-18T08:40:01Z</time>
<extensions>
<tp1:TrackPointExtension>
<tp1:hr>76</tp1:hr>
</tp1:TrackPointExtension>
</extensions>
</trkpt>
<trkpt lat="58.43153019" lon="15.78177603">
<ele>59.3</ele>
<time>2025-05-18T08:40:02Z</time>
<extensions>
<tp1:TrackPointExtension>
<tp1:hr>79</tp1:hr>
</tp1:TrackPointExtension>
</extensions>
</trkpt>
<trkpt lat="58.43151117" lon="15.78191928">
<ele>60.1</ele>
<time>2025-05-18T08:40:04Z</time>
<extensions>
<tp1:TrackPointExtension>
<tp1:hr>78</tp1:hr>
</tp1:TrackPointExtension>
</extensions>
</trkpt>
<trkpt lat="58.43149616" lon="15.78207736">
<ele>57.9</ele>
<time>2025-05-18T08:40:05Z</time>
<extensions>
<tp1:TrackPointExtension>
<tp1:hr>81</tp1:hr>
</tp1:TrackPointExtension>
</extensions>
</trkpt>
<trkpt lat="58.43140765" lon="15.78214953">
<ele>58.8</ele>
<time>2025-05-18T08:40:08Z</time>
<extensions>
<tp1:TrackPointExtension>
<tp1:hr>82</tp1:hr>
</tp1:TrackPointExtension>
</extensions>
</trkpt>
<trkpt lat="58.43126365" lon="15.78215355">
<ele>58.8</ele>
<time>2025-05-18T08:40:11Z</time>
<extensions>
<tp1:TrackPointExtension>
<tp1:hr>83</tp1:hr>
</tp1:TrackPointExtension>
</extensions>
</trkpt>
<trkpt lat="58.43120137" lon="15.78217166">
<ele>58.8</ele>
<time>2025-05-18T08:40:12Z</time>
<extensions>
<tp1:TrackPointExtension>
<tp1:hr>82</tp1:hr>
</tp1:TrackPointExtension>
</extensions>
</trkpt>
<trkpt lat="58.43116994" lon="15.78220091">
<ele>58.6</ele>
<time>2025-05-18T08:40:13Z</time>
<extensions>
<tp1:TrackPointExtension>
<tp1:hr>83</tp1:hr>
</tp1:TrackPointExtension>
</extensions>
</trkpt>
<trkpt lat="58.43114873" lon="15.78238489">
<ele>57.8</ele>
<time>2025-05-18T08:40:15Z</time>
<extensions>
<tp1:TrackPointExtension>
<tp1:hr>85</tp1:hr>
</tp1:TrackPointExtension>
</extensions>
</trkpt>
<trkpt lat="58.43114848" lon="15.78248614">
<ele>57.6</ele>
<time>2025-05-18T08:40:16Z</time>
<extensions>
<tp1:TrackPointExtension>
<tp1:hr>83</tp1:hr>
</tp1:TrackPointExtension>
</extensions>
</trkpt>
<trkpt lat="58.4311437" lon="15.78281555">
<ele>57.1</ele>
<time>2025-05-18T08:40:19Z</time>
<extensions>
<tp1:TrackPointExtension>
<tp1:hr>85</tp1:hr>
</tp1:TrackPointExtension>
</extensions>
</trkpt>
<trkpt lat="58.43112677" lon="15.7829153">
<ele>56.9</ele>
<time>2025-05-18T08:40:20Z</time>
<extensions>
<tp1:TrackPointExtension>
<tp1:hr>85</tp1:hr>
</tp1:TrackPointExtension>
</extensions>
</trkpt>
<trkpt lat="58.43110431" lon="15.78300599">
<ele>56.9</ele>
<time>2025-05-18T08:40:21Z</time>
<extensions>
<tp1:TrackPointExtension>
<tp1:hr>84</tp1:hr>
</tp1:TrackPointExtension>
</extensions>
</trkpt>
<trkpt lat="58.43104094" lon="15.78318201">
<ele>57.9</ele>
<time>2025-05-18T08:40:23Z</time>
<extensions>
<tp1:TrackPointExtension>
<tp1:hr>84</tp1:hr>
</tp1:TrackPointExtension>
</extensions>
</trkpt>
<trkpt lat="58.43100322" lon="15.78326038">
<ele>57.9</ele>
<time>2025-05-18T08:40:24Z</time>
<extensions>
<tp1:TrackPointExtension>
<tp1:hr>84</tp1:hr>
</tp1:TrackPointExtension>
</extensions>
</trkpt>
<trkpt lat="58.43092678" lon="15.78340773">
<ele>58.1</ele>
<time>2025-05-18T08:40:26Z</time>
<extensions>
<tp1:TrackPointExtension>
<tp1:hr>83</tp1:hr>
</tp1:TrackPointExtension>
</extensions>
</trkpt>
<trkpt lat="58.43082435" lon="15.78361779">
<ele>57.9</ele>
<time>2025-05-18T08:40:29Z</time>
<extensions>
<tp1:TrackPointExtension>
<tp1:hr>85</tp1:hr>
</tp1:TrackPointExtension>
</extensions>
</trkpt>
<trkpt lat="58.4307371" lon="15.78375609">
<ele>57.6</ele>
<time>2025-05-18T08:40:31Z</time>
<extensions>
<tp1:TrackPointExtension>
<tp1:hr>89</tp1:hr>
</tp1:TrackPointExtension>
</extensions>
</trkpt>
<trkpt lat="58.43070081" lon="15.78382222">
<ele>57.6</ele>
<time>2025-05-18T08:40:32Z</time>
<extensions>
<tp1:TrackPointExtension>
<tp1:hr>95</tp1:hr>
</tp1:TrackPointExtension>
</extensions>
</trkpt>
<trkpt lat="58.43066812" lon="15.78389305">
<ele>57.6</ele>
<time>2025-05-18T08:40:33Z</time>
<extensions>
<tp1:TrackPointExtension>
<tp1:hr>98</tp1:hr>
</tp1:TrackPointExtension>
</extensions>
</trkpt>
<trkpt lat="58.43064079" lon="15.78396949">
<ele>57.6</ele>
<time>2025-05-18T08:40:34Z</time>
<extensions>
<tp1:TrackPointExtension>
<tp1:hr>101</tp1:hr>
</tp1:TrackPointExtension>
</extensions>
</trkpt>
<trkpt lat="58.43061757" lon="15.78404719">
<ele>57.4</ele>
<time>2025-05-18T08:40:35Z</time>
<extensions>
<tp1:TrackPointExtension>
<tp1:hr>103</tp1:hr>
</tp1:TrackPointExtension>
</extensions>
</trkpt>
<trkpt lat="58.43059461" lon="15.78412632">
<ele>57.2</ele>
<time>2025-05-18T08:40:36Z</time>
<extensions>
<tp1:TrackPointExtension>
<tp1:hr>106</tp1:hr>
</tp1:TrackPointExtension>
</extensions>
</trkpt>
<trkpt lat="58.43056636" lon="15.78435179">
<ele>56.8</ele>
<time>2025-05-18T08:40:39Z</time>
<extensions>
<tp1:TrackPointExtension>
<tp1:hr>109</tp1:hr>
</tp1:TrackPointExtension>
</extensions>
</trkpt>
<trkpt lat="58.43066426" lon="15.78453795">
<ele>55.8</ele>
<time>2025-05-18T08:40:42Z</time>
<extensions>
<tp1:TrackPointExtension>
<tp1:hr>113</tp1:hr>
</tp1:TrackPointExtension>
</extensions>
</trkpt>
<trkpt lat="58.43070843" lon="15.78458858">
<ele>55.8</ele>
<time>2025-05-18T08:40:43Z</time>
<extensions>
<tp1:TrackPointExtension>
<tp1:hr>116</tp1:hr>
</tp1:TrackPointExtension>
</extensions>
</trkpt>
<trkpt lat="58.43074716" lon="15.78464423">
<ele>55.5</ele>
<time>2025-05-18T08:40:44Z</time>
<extensions>
<tp1:TrackPointExtension>
<tp1:hr>119</tp1:hr>
</tp1:TrackPointExtension>
</extensions>
</trkpt>
<trkpt lat="58.43081756" lon="15.78477549">
<ele>54.9</ele>
<time>2025-05-18T08:40:46Z</time>
<extensions>
<tp1:TrackPointExtension>
<tp1:hr>122</tp1:hr>
</tp1:TrackPointExtension>
</extensions>
</trkpt>
<trkpt lat="58.43085218" lon="15.78485437">
<ele>54.7</ele>
<time>2025-05-18T08:40:47Z</time>
<extensions>
<tp1:TrackPointExtension>
<tp1:hr>123</tp1:hr>
</tp1:TrackPointExtension>
</extensions>
</trkpt>
<trkpt lat="58.4309065" lon="15.78501086">
<ele>55.3</ele>
<time>2025-05-18T08:40:49Z</time>
<extensions>
<tp1:TrackPointExtension>
<tp1:hr>122</tp1:hr>
</tp1:TrackPointExtension>
</extensions>
</trkpt>
<trkpt lat="58.43095436" lon="15.78516785">
<ele>55.1</ele>
<time>2025-05-18T08:40:51Z</time>
<extensions>
<tp1:TrackPointExtension>
<tp1:hr>122</tp1:hr>
</tp1:TrackPointExtension>
</extensions>
</trkpt>
<trkpt lat="58.43097179" lon="15.78525175">
<ele>55.1</ele>
<time>2025-05-18T08:40:52Z</time>
<extensions>
<tp1:TrackPointExtension>
<tp1:hr>124</tp1:hr>
</tp1:TrackPointExtension>
</extensions>
</trkpt>
<trkpt lat="58.43095" lon="15.78542216">
<ele>55.1</ele>
<time>2025-05-18T08:40:54Z</time>
<extensions>
<tp1:TrackPointExtension>
<tp1:hr>125</tp1:hr>
</tp1:TrackPointExtension>
</extensions>
</trkpt>
<trkpt lat="58.43088797" lon="15.78556825">
<ele>55.2</ele>
<time>2025-05-18T08:40:56Z</time>
<extensions>
<tp1:TrackPointExtension>
<tp1:hr>127</tp1:hr>
</tp1:TrackPointExtension>
</extensions>
</trkpt>
<trkpt lat="58.43082033" lon="15.78571376">
<ele>55.2</ele>
<time>2025-05-18T08:40:58Z</time>
<extensions>
<tp1:TrackPointExtension>
<tp1:hr>128</tp1:hr>
</tp1:TrackPointExtension>
</extensions>
</trkpt>
<trkpt lat="58.4307842" lon="15.78578375">
<ele>55.2</ele>
<time>2025-05-18T08:40:59Z</time>
<extensions>
<tp1:TrackPointExtension>
<tp1:hr>129</tp1:hr>
</tp1:TrackPointExtension>
</extensions>
</trkpt>
<trkpt lat="58.43070097" lon="15.78592859">
<ele>55.2</ele>
<time>2025-05-18T08:41:01Z</time>
<extensions>
<tp1:TrackPointExtension>
<tp1:hr>130</tp1:hr>
</tp1:TrackPointExtension>
</extensions>
</trkpt>
<trkpt lat="58.43060031" lon="15.78601526">
<ele>55.2</ele>
<time>2025-05-18T08:41:03Z</time>
<extensions>
<tp1:TrackPointExtension>
<tp1:hr>130</tp1:hr>
</tp1:TrackPointExtension>
</extensions>
</trkpt>
<trkpt lat="58.43041289" lon="15.78608257">
<ele>55.4</ele>
<time>2025-05-18T08:41:07Z</time>
<extensions>
<tp1:TrackPointExtension>
<tp1:hr>129</tp1:hr>
</tp1:TrackPointExtension>
</extensions>
</trkpt>
<trkpt lat="58.43037567" lon="15.78610218">
<ele>55.3</ele>
<time>2025-05-18T08:41:08Z</time>
<extensions>
<tp1:TrackPointExtension>
<tp1:hr>128</tp1:hr>
</tp1:TrackPointExtension>
</extensions>
</trkpt>
<trkpt lat="58.4303367" lon="15.78631072">
<ele>55.5</ele>
<time>2025-05-18T08:41:11Z</time>
<extensions>
<tp1:TrackPointExtension>
<tp1:hr>129</tp1:hr>
</tp1:TrackPointExtension>
</extensions>
</trkpt>
<trkpt lat="58.43033225" lon="15.78640393">
<ele>55.5</ele>
<time>2025-05-18T08:41:12Z</time>
<extensions>
<tp1:TrackPointExtension>
<tp1:hr>126</tp1:hr>
</tp1:TrackPointExtension>
</extensions>
</trkpt>
<trkpt lat="58.43031851" lon="15.78649571">
<ele>55.5</ele>
<time>2025-05-18T08:41:13Z</time>
<extensions>
<tp1:TrackPointExtension>
<tp1:hr>126</tp1:hr>
</tp1:TrackPointExtension>
</extensions>
</trkpt>
<trkpt lat="58.43024776" lon="15.7866144">
<ele>55.7</ele>
<time>2025-05-18T08:41:15Z</time>
<extensions>
<tp1:TrackPointExtension>
<tp1:hr>126</tp1:hr>
</tp1:TrackPointExtension>
</extensions>
</trkpt>
<trkpt lat="58.43011164" lon="15.78670593">
<ele>55.7</ele>
<time>2025-05-18T08:41:18Z</time>
<extensions>
<tp1:TrackPointExtension>
<tp1:hr>129</tp1:hr>
</tp1:TrackPointExtension>
</extensions>
</trkpt>
<trkpt lat="58.43007795" lon="15.7867418">
<ele>55.9</ele>
<time>2025-05-18T08:41:19Z</time>
<extensions>
<tp1:TrackPointExtension>
<tp1:hr>129</tp1:hr>
</tp1:TrackPointExtension>
</extensions>
</trkpt>
<trkpt lat="58.43005414" lon="15.78679872">
<ele>55.9</ele>
<time>2025-05-18T08:41:20Z</time>
<extensions>
<tp1:TrackPointExtension>
<tp1:hr>129</tp1:hr>
</tp1:TrackPointExtension>
</extensions>
</trkpt>
<trkpt lat="58.43004559" lon="15.7868822">
<ele>55.8</ele>
<time>2025-05-18T08:41:21Z</time>
<extensions>
<tp1:TrackPointExtension>
<tp1:hr>128</tp1:hr>
</tp1:TrackPointExtension>
</extensions>
</trkpt>
<trkpt lat="58.43004249" lon="15.78705604">
<ele>55.8</ele>
<time>2025-05-18T08:41:23Z</time>
<extensions>
<tp1:TrackPointExtension>
<tp1:hr>127</tp1:hr>
</tp1:TrackPointExtension>
</extensions>
</trkpt>
<trkpt lat="58.43005389" lon="15.78713768">
<ele>55.8</ele>
<time>2025-05-18T08:41:24Z</time>
<extensions>
<tp1:TrackPointExtension>
<tp1:hr>128</tp1:hr>
</tp1:TrackPointExtension>
</extensions>
</trkpt>
<trkpt lat="58.43008817" lon="15.78738746">
<ele>55.8</ele>
<time>2025-05-18T08:41:27Z</time>
<extensions>
<tp1:TrackPointExtension>
<tp1:hr>127</tp1:hr>
</tp1:TrackPointExtension>
</extensions>
</trkpt>
<trkpt lat="58.43011131" lon="15.78755409">
<ele>56.0</ele>
<time>2025-05-18T08:41:29Z</time>
<extensions>
<tp1:TrackPointExtension>
<tp1:hr>128</tp1:hr>
</tp1:TrackPointExtension>
</extensions>
</trkpt>
<trkpt lat="58.43013343" lon="15.78788342">
<ele>55.9</ele>
<time>2025-05-18T08:41:33Z</time>
<extensions>
<tp1:TrackPointExtension>
<tp1:hr>126</tp1:hr>
</tp1:TrackPointExtension>
</extensions>
</trkpt>
<trkpt lat="58.43013838" lon="15.78796254">
<ele>55.9</ele>
<time>2025-05-18T08:41:34Z</time>
<extensions>
<tp1:TrackPointExtension>
<tp1:hr>126</tp1:hr>
</tp1:TrackPointExtension>
</extensions>
</trkpt>
<trkpt lat="58.43015288" lon="15.78820059">
<ele>56.1</ele>
<time>2025-05-18T08:41:37Z</time>
<extensions>
<tp1:TrackPointExtension>
<tp1:hr>128</tp1:hr>
</tp1:TrackPointExtension>
</extensions>
</trkpt>
<trkpt lat="58.43017308" lon="15.78845968">
<ele>56.1</ele>
<time>2025-05-18T08:41:40Z</time>
<extensions>
<tp1:TrackPointExtension>
<tp1:hr>128</tp1:hr>
</tp1:TrackPointExtension>
</extensions>
</trkpt>
<trkpt lat="58.43020636" lon="15.78886033">
<ele>56.0</ele>
<time>2025-05-18T08:41:45Z</time>
<extensions>
<tp1:TrackPointExtension>
<tp1:hr>126</tp1:hr>
</tp1:TrackPointExtension>
</extensions>
</trkpt>
<trkpt lat="58.43022882" lon="15.78910693">
<ele>56.0</ele>
<time>2025-05-18T08:41:48Z</time>
<extensions>
<tp1:TrackPointExtension>
<tp1:hr>127</tp1:hr>
</tp1:TrackPointExtension>
</extensions>
</trkpt>
<trkpt lat="58.43026713" lon="15.78940348">
<ele>56.2</ele>
<time>2025-05-18T08:41:52Z</time>
<extensions>
<tp1:TrackPointExtension>
<tp1:hr>129</tp1:hr>
</tp1:TrackPointExtension>
</extensions>
</trkpt>
<trkpt lat="58.43029395" lon="15.78955762">
<ele>56.2</ele>
<time>2025-05-18T08:41:54Z</time>
<extensions>
<tp1:TrackPointExtension>
<tp1:hr>129</tp1:hr>
</tp1:TrackPointExtension>
</extensions>
</trkpt>
<trkpt lat="58.43030979" lon="15.78963733">
<ele>56.2</ele>
<time>2025-05-18T08:41:55Z</time>
<extensions>
<tp1:TrackPointExtension>
<tp1:hr>129</tp1:hr>
</tp1:TrackPointExtension>
</extensions>
</trkpt>
<trkpt lat="58.43035472" lon="15.78977362">
<ele>56.3</ele>
<time>2025-05-18T08:41:57Z</time>
<extensions>
<tp1:TrackPointExtension>
<tp1:hr>128</tp1:hr>
</tp1:TrackPointExtension>
</extensions>
</trkpt>
<trkpt lat="58.43038808" lon="15.78981905">
<ele>56.3</ele>
<time>2025-05-18T08:41:58Z</time>
<extensions>
<tp1:TrackPointExtension>
<tp1:hr>128</tp1:hr>
</tp1:TrackPointExtension>
</extensions>
</trkpt>
<trkpt lat="58.43042747" lon="15.78985191">
<ele>56.3</ele>
<time>2025-05-18T08:41:59Z</time>
<extensions>
<tp1:TrackPointExtension>
<tp1:hr>129</tp1:hr>
</tp1:TrackPointExtension>
</extensions>
</trkpt>
<trkpt lat="58.43053761" lon="15.7898996">
<ele>56.3</ele>
<time>2025-05-18T08:42:02Z</time>
<extensions>
<tp1:TrackPointExtension>
<tp1:hr>128</tp1:hr>
</tp1:TrackPointExtension>
</extensions>
</trkpt>
<trkpt lat="58.43055957" lon="15.78991964">
<ele>56.5</ele>
<time>2025-05-18T08:42:03Z</time>
<extensions>
<tp1:TrackPointExtension>
<tp1:hr>130</tp1:hr>
</tp1:TrackPointExtension>
</extensions>
</trkpt>
<trkpt lat="58.43056795" lon="15.78992634">
<ele>56.5</ele>
<time>2025-05-18T08:42:04Z</time>
<extensions>
<tp1:TrackPointExtension>
<tp1:hr>134</tp1:hr>
</tp1:TrackPointExtension>
</extensions>
</trkpt>
<trkpt lat="58.43055496" lon="15.78992265">
<ele>56.5</ele>
<time>2025-05-18T08:42:05Z</time>
<extensions>
<tp1:TrackPointExtension>
<tp1:hr>135</tp1:hr>
</tp1:TrackPointExtension>
</extensions>
</trkpt>
<trkpt lat="58.43041305" lon="15.78990773">
<ele>56.5</ele>
<time>2025-05-18T08:42:08Z</time>
<extensions>
<tp1:TrackPointExtension>
<tp1:hr>136</tp1:hr>
</tp1:TrackPointExtension>
</extensions>
</trkpt>
<trkpt lat="58.43030769" lon="15.78991695">
<ele>56.6</ele>
<time>2025-05-18T08:42:10Z</time>
<extensions>
<tp1:TrackPointExtension>
<tp1:hr>136</tp1:hr>
</tp1:TrackPointExtension>
</extensions>
</trkpt>
<trkpt lat="58.43020661" lon="15.78988778">
<ele>56.6</ele>
<time>2025-05-18T08:42:12Z</time>
<extensions>
<tp1:TrackPointExtension>
<tp1:hr>135</tp1:hr>
</tp1:TrackPointExtension>
</extensions>
</trkpt>
<trkpt lat="58.43010929" lon="15.78986892">
<ele>56.6</ele>
<time>2025-05-18T08:42:14Z</time>
<extensions>
<tp1:TrackPointExtension>
<tp1:hr>137</tp1:hr>
</tp1:TrackPointExtension>
</extensions>
</trkpt>
<trkpt lat="58.43005875" lon="15.78986004">
<ele>56.6</ele>
<time>2025-05-18T08:42:15Z</time>
<extensions>
<tp1:TrackPointExtension>
<tp1:hr>138</tp1:hr>
</tp1:TrackPointExtension>
</extensions>
</trkpt>
<trkpt lat="58.42995909" lon="15.7898618">
<ele>56.6</ele>
<time>2025-05-18T08:42:17Z</time>
<extensions>
<tp1:TrackPointExtension>
<tp1:hr>138</tp1:hr>
</tp1:TrackPointExtension>
</extensions>
</trkpt>
<trkpt lat="58.42991098" lon="15.78987035">
<ele>56.6</ele>
<time>2025-05-18T08:42:18Z</time>
<extensions>
<tp1:TrackPointExtension>
<tp1:hr>138</tp1:hr>
</tp1:TrackPointExtension>
</extensions>
</trkpt>
<trkpt lat="58.42978667" lon="15.78993715">
<ele>56.8</ele>
<time>2025-05-18T08:42:21Z</time>
<extensions>
<tp1:TrackPointExtension>
<tp1:hr>137</tp1:hr>
</tp1:TrackPointExtension>
</extensions>
</trkpt>
<trkpt lat="58.42971216" lon="15.78999708">
<ele>56.7</ele>
<time>2025-05-18T08:42:23Z</time>
<extensions>
<tp1:TrackPointExtension>
<tp1:hr>139</tp1:hr>
</tp1:TrackPointExtension>
</extensions>
</trkpt>
<trkpt lat="58.4296767" lon="15.79002516">
<ele>56.7</ele>
<time>2025-05-18T08:42:24Z</time>
<extensions>
<tp1:TrackPointExtension>
<tp1:hr>139</tp1:hr>
</tp1:TrackPointExtension>
</extensions>
</trkpt>
<trkpt lat="58.42960428" lon="15.79002583">
<ele>56.9</ele>
<time>2025-05-18T08:42:26Z</time>
<extensions>
<tp1:TrackPointExtension>
<tp1:hr>137</tp1:hr>
</tp1:TrackPointExtension>
</extensions>
</trkpt>
<trkpt lat="58.42958249" lon="15.79001561">
<ele>56.9</ele>
<time>2025-05-18T08:42:27Z</time>
<extensions>
<tp1:TrackPointExtension>
<tp1:hr>134</tp1:hr>
</tp1:TrackPointExtension>
</extensions>
</trkpt>
<trkpt lat="58.42956397" lon="15.78999641">
<ele>56.9</ele>
<time>2025-05-18T08:42:28Z</time>
<extensions>
<tp1:TrackPointExtension>
<tp1:hr>133</tp1:hr>
</tp1:TrackPointExtension>
</extensions>
</trkpt>
<trkpt lat="58.42953455" lon="15.78998242">
<ele>56.9</ele>
<time>2025-05-18T08:42:30Z</time>
<extensions>
<tp1:TrackPointExtension>
<tp1:hr>130</tp1:hr>
</tp1:TrackPointExtension>
</extensions>
</trkpt>
<trkpt lat="58.42952264" lon="15.78998661">
<ele>57.1</ele>
<time>2025-05-18T08:42:31Z</time>
<extensions>
<tp1:TrackPointExtension>
<tp1:hr>130</tp1:hr>
</tp1:TrackPointExtension>
</extensions>
</trkpt>
<trkpt lat="58.42950907" lon="15.78998971">
<ele>57.1</ele>
<time>2025-05-18T08:42:32Z</time>
<extensions>
<tp1:TrackPointExtension>
<tp1:hr>129</tp1:hr>
</tp1:TrackPointExtension>
</extensions>
</trkpt>
<trkpt lat="58.42947034" lon="15.7899447">
<ele>57.0</ele>
<time>2025-05-18T08:42:35Z</time>
<extensions>
<tp1:TrackPointExtension>
<tp1:hr>129</tp1:hr>
</tp1:TrackPointExtension>
</extensions>
</trkpt>
<trkpt lat="58.42943078" lon="15.78974462">
<ele>57.2</ele>
<time>2025-05-18T08:42:39Z</time>
<extensions>
<tp1:TrackPointExtension>
<tp1:hr>130</tp1:hr>
</tp1:TrackPointExtension>
</extensions>
</trkpt>
<trkpt lat="58.42928887" lon="15.78948948">
<ele>57.4</ele>
<time>2025-05-18T08:42:44Z</time>
<extensions>
<tp1:TrackPointExtension>
<tp1:hr>128</tp1:hr>
</tp1:TrackPointExtension>
</extensions>
</trkpt>
<trkpt lat="58.42914931" lon="15.78929292">
<ele>57.5</ele>
<time>2025-05-18T08:42:49Z</time>
<extensions>
<tp1:TrackPointExtension>
<tp1:hr>129</tp1:hr>
</tp1:TrackPointExtension>
</extensions>
</trkpt>
<trkpt lat="58.42908871" lon="15.78906066">
<ele>57.7</ele>
<time>2025-05-18T08:42:54Z</time>
<extensions>
<tp1:TrackPointExtension>
<tp1:hr>129</tp1:hr>
</tp1:TrackPointExtension>
</extensions>
</trkpt>
<trkpt lat="58.42902007" lon="15.7889434">
<ele>57.9</ele>
<time>2025-05-18T08:42:57Z</time>
<extensions>
<tp1:TrackPointExtension>
<tp1:hr>128</tp1:hr>
</tp1:TrackPointExtension>
</extensions>
</trkpt>
<trkpt lat="58.42893717" lon="15.78885932">
<ele>58.0</ele>
<time>2025-05-18T08:43:00Z</time>
<extensions>
<tp1:TrackPointExtension>
<tp1:hr>130</tp1:hr>
</tp1:TrackPointExtension>
</extensions>
</trkpt>
<trkpt lat="58.42876065" lon="15.78883552">
<ele>58.2</ele>
<time>2025-05-18T08:43:05Z</time>
<extensions>
<tp1:TrackPointExtension>
<tp1:hr>129</tp1:hr>
</tp1:TrackPointExtension>
</extensions>
</trkpt>
<trkpt lat="58.42856317" lon="15.78895329">
<ele>58.4</ele>
<time>2025-05-18T08:43:10Z</time>
<extensions>
<tp1:TrackPointExtension>
<tp1:hr>131</tp1:hr>
</tp1:TrackPointExtension>
</extensions>
</trkpt>
<trkpt lat="58.42838237" lon="15.78907072">
<ele>58.5</ele>
<time>2025-05-18T08:43:14Z</time>
<extensions>
<tp1:TrackPointExtension>
<tp1:hr>129</tp1:hr>
</tp1:TrackPointExtension>
</extensions>
</trkpt>
<trkpt lat="58.42833518" lon="15.78910181">
<ele>58.5</ele>
<time>2025-05-18T08:43:15Z</time>
<extensions>
<tp1:TrackPointExtension>
<tp1:hr>129</tp1:hr>
</tp1:TrackPointExtension>
</extensions>
</trkpt>
<trkpt lat="58.42824072" lon="15.78914842">
<ele>58.5</ele>
<time>2025-05-18T08:43:17Z</time>
<extensions>
<tp1:TrackPointExtension>
<tp1:hr>132</tp1:hr>
</tp1:TrackPointExtension>
</extensions>
</trkpt>
<trkpt lat="58.42810451" lon="15.78918966">
<ele>58.5</ele>
<time>2025-05-18T08:43:20Z</time>
<extensions>
<tp1:TrackPointExtension>
<tp1:hr>132</tp1:hr>
</tp1:TrackPointExtension>
</extensions>
</trkpt>
<trkpt lat="58.42801105" lon="15.78924179">
<ele>58.5</ele>
<time>2025-05-18T08:43:22Z</time>
<extensions>
<tp1:TrackPointExtension>
<tp1:hr>135</tp1:hr>
</tp1:TrackPointExtension>
</extensions>
</trkpt>
<trkpt lat="58.4279652" lon="15.78927482">
<ele>58.2</ele>
<time>2025-05-18T08:43:23Z</time>
<extensions>
<tp1:TrackPointExtension>
<tp1:hr>134</tp1:hr>
</tp1:TrackPointExtension>
</extensions>
</trkpt>
<trkpt lat="58.42792371" lon="15.78931438">
<ele>58.2</ele>
<time>2025-05-18T08:43:24Z</time>
<extensions>
<tp1:TrackPointExtension>
<tp1:hr>136</tp1:hr>
</tp1:TrackPointExtension>
</extensions>
</trkpt>
<trkpt lat="58.42788323" lon="15.78936601">
<ele>58.2</ele>
<time>2025-05-18T08:43:25Z</time>
<extensions>
<tp1:TrackPointExtension>
<tp1:hr>136</tp1:hr>
</tp1:TrackPointExtension>
</extensions>
</trkpt>
<trkpt lat="58.42777242" lon="15.78953222">
<ele>58.2</ele>
<time>2025-05-18T08:43:28Z</time>
<extensions>
<tp1:TrackPointExtension>
<tp1:hr>136</tp1:hr>
</tp1:TrackPointExtension>
</extensions>
</trkpt>
<trkpt lat="58.42766656" lon="15.78968964">
<ele>58.2</ele>
<time>2025-05-18T08:43:31Z</time>
<extensions>
<tp1:TrackPointExtension>
<tp1:hr>139</tp1:hr>
</tp1:TrackPointExtension>
</extensions>
</trkpt>
<trkpt lat="58.4276285" lon="15.78974236">
<ele>58.2</ele>
<time>2025-05-18T08:43:32Z</time>
<extensions>
<tp1:TrackPointExtension>
<tp1:hr>139</tp1:hr>
</tp1:TrackPointExtension>
</extensions>
</trkpt>
<trkpt lat="58.42758525" lon="15.7897732">
<ele>58.2</ele>
<time>2025-05-18T08:43:33Z</time>
<extensions>
<tp1:TrackPointExtension>
<tp1:hr>137</tp1:hr>
</tp1:TrackPointExtension>
</extensions>
</trkpt>
<trkpt lat="58.4275394" lon="15.78978117">
<ele>58.2</ele>
<time>2025-05-18T08:43:34Z</time>
<extensions>
<tp1:TrackPointExtension>
<tp1:hr>136</tp1:hr>
</tp1:TrackPointExtension>
</extensions>
</trkpt>
<trkpt lat="58.42745977" lon="15.78970833">
<ele>58.1</ele>
<time>2025-05-18T08:43:36Z</time>
<extensions>
<tp1:TrackPointExtension>
<tp1:hr>132</tp1:hr>
</tp1:TrackPointExtension>
</extensions>
</trkpt>
<trkpt lat="58.42733497" lon="15.7895681">
<ele>58.1</ele>
<time>2025-05-18T08:43:39Z</time>
<extensions>
<tp1:TrackPointExtension>
<tp1:hr>127</tp1:hr>
</tp1:TrackPointExtension>
</extensions>
</trkpt>
<trkpt lat="58.42729272" lon="15.78952661">
<ele>58.1</ele>
<time>2025-05-18T08:43:40Z</time>
<extensions>
<tp1:TrackPointExtension>
<tp1:hr>127</tp1:hr>
</tp1:TrackPointExtension>
</extensions>
</trkpt>
<trkpt lat="58.42715115" lon="15.78941831">
<ele>58.1</ele>
<time>2025-05-18T08:43:43Z</time>
<extensions>
<tp1:TrackPointExtension>
<tp1:hr>126</tp1:hr>
</tp1:TrackPointExtension>
</extensions>
</trkpt>
<trkpt lat="58.42697505" lon="15.78922922">
<ele>57.9</ele>
<time>2025-05-18T08:43:47Z</time>
<extensions>
<tp1:TrackPointExtension>
<tp1:hr>127</tp1:hr>
</tp1:TrackPointExtension>
</extensions>
</trkpt>
<trkpt lat="58.42694588" lon="15.78913869">
<ele>57.8</ele>
<time>2025-05-18T08:43:48Z</time>
<extensions>
<tp1:TrackPointExtension>
<tp1:hr>126</tp1:hr>
</tp1:TrackPointExtension>
</extensions>
</trkpt>
<trkpt lat="58.4269499" lon="15.78892076">
<ele>57.8</ele>
<time>2025-05-18T08:43:50Z</time>
<extensions>
<tp1:TrackPointExtension>
<tp1:hr>128</tp1:hr>
</tp1:TrackPointExtension>
</extensions>
</trkpt>
<trkpt lat="58.42696122" lon="15.78882881">
<ele>57.8</ele>
<time>2025-05-18T08:43:51Z</time>
<extensions>
<tp1:TrackPointExtension>
<tp1:hr>129</tp1:hr>
</tp1:TrackPointExtension>
</extensions>
</trkpt>
<trkpt lat="58.42700807" lon="15.78858431">
<ele>57.8</ele>
<time>2025-05-18T08:43:54Z</time>
<extensions>
<tp1:TrackPointExtension>
<tp1:hr>126</tp1:hr>
</tp1:TrackPointExtension>
</extensions>
</trkpt>
<trkpt lat="58.42702375" lon="15.78851751">
<ele>57.6</ele>
<time>2025-05-18T08:43:55Z</time>
<extensions>
<tp1:TrackPointExtension>
<tp1:hr>127</tp1:hr>
</tp1:TrackPointExtension>
</extensions>
</trkpt>
<trkpt lat="58.42705535" lon="15.78838013">
<ele>57.6</ele>
<time>2025-05-18T08:43:57Z</time>
<extensions>
<tp1:TrackPointExtension>
<tp1:hr>128</tp1:hr>
</tp1:TrackPointExtension>
</extensions>
</trkpt>
<trkpt lat="58.42708225" lon="15.78824837">
<ele>57.6</ele>
<time>2025-05-18T08:43:59Z</time>
<extensions>
<tp1:TrackPointExtension>
<tp1:hr>127</tp1:hr>
</tp1:TrackPointExtension>
</extensions>
</trkpt>
<trkpt lat="58.42713799" lon="15.78821124">
<ele>57.5</ele>
<time>2025-05-18T08:44:01Z</time>
<extensions>
<tp1:TrackPointExtension>
<tp1:hr>126</tp1:hr>
</tp1:TrackPointExtension>
</extensions>
</trkpt>
<trkpt lat="58.42728057" lon="15.78832598">
<ele>57.3</ele>
<time>2025-05-18T08:44:04Z</time>
<extensions>
<tp1:TrackPointExtension>
<tp1:hr>124</tp1:hr>
</tp1:TrackPointExtension>
</extensions>
</trkpt>
<trkpt lat="58.42731787" lon="15.78839849">
<ele>57.3</ele>
<time>2025-05-18T08:44:05Z</time>
<extensions>
<tp1:TrackPointExtension>
<tp1:hr>124</tp1:hr>
</tp1:TrackPointExtension>
</extensions>
</trkpt>
<trkpt lat="58.42734192" lon="15.78847501">
<ele>57.3</ele>
<time>2025-05-18T08:44:06Z</time>
<extensions>
<tp1:TrackPointExtension>
<tp1:hr>124</tp1:hr>
</tp1:TrackPointExtension>
</extensions>
</trkpt>
<trkpt lat="58.42731921" lon="15.78865824">
<ele>57.3</ele>
<time>2025-05-18T08:44:08Z</time>
<extensions>
<tp1:TrackPointExtension>
<tp1:hr>123</tp1:hr>
</tp1:TrackPointExtension>
</extensions>
</trkpt>
<trkpt lat="58.42729096" lon="15.7888377">
<ele>57.3</ele>
<time>2025-05-18T08:44:10Z</time>
<extensions>
<tp1:TrackPointExtension>
<tp1:hr>123</tp1:hr>
</tp1:TrackPointExtension>
</extensions>
</trkpt>
<trkpt lat="58.42727227" lon="15.78895605">
<ele>57.2</ele>
<time>2025-05-18T08:44:12Z</time>
<extensions>
<tp1:TrackPointExtension>
<tp1:hr>122</tp1:hr>
</tp1:TrackPointExtension>
</extensions>
</trkpt>
<trkpt lat="58.42730463" lon="15.78893032">
<ele>57.2</ele>
<time>2025-05-18T08:44:15Z</time>
<extensions>
<tp1:TrackPointExtension>
<tp1:hr>122</tp1:hr>
</tp1:TrackPointExtension>
</extensions>
</trkpt>
<trkpt lat="58.42732742" lon="15.78881163">
<ele>57.2</ele>
<time>2025-05-18T08:44:17Z</time>
<extensions>
<tp1:TrackPointExtension>
<tp1:hr>125</tp1:hr>
</tp1:TrackPointExtension>
</extensions>
</trkpt>
<trkpt lat="58.42736347" lon="15.78864835">
<ele>57.2</ele>
<time>2025-05-18T08:44:19Z</time>
<extensions>
<tp1:TrackPointExtension>
<tp1:hr>125</tp1:hr>
</tp1:TrackPointExtension>
</extensions>
</trkpt>
<trkpt lat="58.42737244" lon="15.78854727">
<ele>57.0</ele>
<time>2025-05-18T08:44:20Z</time>
<extensions>
<tp1:TrackPointExtension>
<tp1:hr>124</tp1:hr>
</tp1:TrackPointExtension>
</extensions>
</trkpt>
<trkpt lat="58.42733195" lon="15.78837527">
<ele>57.0</ele>
<time>2025-05-18T08:44:22Z</time>
<extensions>
<tp1:TrackPointExtension>
<tp1:hr>123</tp1:hr>
</tp1:TrackPointExtension>
</extensions>
</trkpt>
<trkpt lat="58.42728962" lon="15.7883145">
<ele>57.0</ele>
<time>2025-05-18T08:44:23Z</time>
<extensions>
<tp1:TrackPointExtension>
<tp1:hr>123</tp1:hr>
</tp1:TrackPointExtension>
</extensions>
</trkpt>
<trkpt lat="58.42723975" lon="15.78827091">
<ele>57.0</ele>
<time>2025-05-18T08:44:24Z</time>
<extensions>
<tp1:TrackPointExtension>
<tp1:hr>122</tp1:hr>
</tp1:TrackPointExtension>
</extensions>
</trkpt>
<trkpt lat="58.42715912" lon="15.78825843">
<ele>56.9</ele>
<time>2025-05-18T08:44:26Z</time>
<extensions>
<tp1:TrackPointExtension>
<tp1:hr>121</tp1:hr>
</tp1:TrackPointExtension>
</extensions>
</trkpt>
<trkpt lat="58.42711553" lon="15.78835079">
<ele>56.9</ele>
<time>2025-05-18T08:44:28Z</time>
<extensions>
<tp1:TrackPointExtension>
<tp1:hr>121</tp1:hr>
</tp1:TrackPointExtension>
</extensions>
</trkpt>
<trkpt lat="58.42709952" lon="15.7884316">
<ele>56.9</ele>
<time>2025-05-18T08:44:29Z</time>
<extensions>
<tp1:TrackPointExtension>
<tp1:hr>121</tp1:hr>
</tp1:TrackPointExtension>
</extensions>
</trkpt>
<trkpt lat="58.42705409" lon="15.78859454">
<ele>56.9</ele>
<time>2025-05-18T08:44:31Z</time>
<extensions>
<tp1:TrackPointExtension>
<tp1:hr>122</tp1:hr>
</tp1:TrackPointExtension>
</extensions>
</trkpt>
<trkpt lat="58.42700279" lon="15.7887652">
<ele>56.7</ele>
<time>2025-05-18T08:44:33Z</time>
<extensions>
<tp1:TrackPointExtension>
<tp1:hr>122</tp1:hr>
</tp1:TrackPointExtension>
</extensions>
</trkpt>
<trkpt lat="58.42695686" lon="15.78893761">
<ele>56.7</ele>
<time>2025-05-18T08:44:36Z</time>
<extensions>
<tp1:TrackPointExtension>
<tp1:hr>118</tp1:hr>
</tp1:TrackPointExtension>
</extensions>
</trkpt>
<trkpt lat="58.42689383" lon="15.78919074">
<ele>56.6</ele>
<time>2025-05-18T08:44:39Z</time>
<extensions>
<tp1:TrackPointExtension>
<tp1:hr>119</tp1:hr>
</tp1:TrackPointExtension>
</extensions>
</trkpt>
<trkpt lat="58.42685007" lon="15.78934724">
<ele>56.6</ele>
<time>2025-05-18T08:44:41Z</time>
<extensions>
<tp1:TrackPointExtension>
<tp1:hr>118</tp1:hr>
</tp1:TrackPointExtension>
</extensions>
</trkpt>
<trkpt lat="58.42677757" lon="15.78954924">
<ele>56.6</ele>
<time>2025-05-18T08:44:44Z</time>
<extensions>
<tp1:TrackPointExtension>
<tp1:hr>115</tp1:hr>
</tp1:TrackPointExtension>
</extensions>
</trkpt>
<trkpt lat="58.42672267" lon="15.78968058">
<ele>56.6</ele>
<time>2025-05-18T08:44:46Z</time>
<extensions>
<tp1:TrackPointExtension>
<tp1:hr>114</tp1:hr>
</tp1:TrackPointExtension>
</extensions>
</trkpt>
<trkpt lat="58.42664723" lon="15.78977748">
<ele>56.6</ele>
<time>2025-05-18T08:44:48Z</time>
<extensions>
<tp1:TrackPointExtension>
<tp1:hr>113</tp1:hr>
</tp1:TrackPointExtension>
</extensions>
</trkpt>
<trkpt lat="58.42655445" lon="15.78978837">
<ele>56.5</ele>
<time>2025-05-18T08:44:50Z</time>
<extensions>
<tp1:TrackPointExtension>
<tp1:hr>113</tp1:hr>
</tp1:TrackPointExtension>
</extensions>
</trkpt>
<trkpt lat="58.42645822" lon="15.78976239">
<ele>56.5</ele>
<time>2025-05-18T08:44:52Z</time>
<extensions>
<tp1:TrackPointExtension>
<tp1:hr>117</tp1:hr>
</tp1:TrackPointExtension>
</extensions>
</trkpt>
<trkpt lat="58.42626343" lon="15.78965183">
<ele>56.5</ele>
<time>2025-05-18T08:44:56Z</time>
<extensions>
<tp1:TrackPointExtension>
<tp1:hr>119</tp1:hr>
</tp1:TrackPointExtension>
</extensions>
</trkpt>
<trkpt lat="58.42621565" lon="15.78963909">
<ele>56.5</ele>
<time>2025-05-18T08:44:57Z</time>
<extensions>
<tp1:TrackPointExtension>
<tp1:hr>119</tp1:hr>
</tp1:TrackPointExtension>
</extensions>
</trkpt>
<trkpt lat="58.42614155" lon="15.78964613">
<ele>56.7</ele>
<time>2025-05-18T08:44:59Z</time>
<extensions>
<tp1:TrackPointExtension>
<tp1:hr>115</tp1:hr>
</tp1:TrackPointExtension>
</extensions>
</trkpt>
<trkpt lat="58.42612454" lon="15.78968343">
<ele>56.7</ele>
<time>2025-05-18T08:45:00Z</time>
<extensions>
<tp1:TrackPointExtension>
<tp1:hr>115</tp1:hr>
</tp1:TrackPointExtension>
</extensions>
</trkpt>
<trkpt lat="58.42611171" lon="15.78988996">
<ele>56.6</ele>
<time>2025-05-18T08:45:04Z</time>
<extensions>
<tp1:TrackPointExtension>
<tp1:hr>118</tp1:hr>
</tp1:TrackPointExtension>
</extensions>
</trkpt>
<trkpt lat="58.42610274" lon="15.78988896">
<ele>56.6</ele>
<time>2025-05-18T08:45:05Z</time>
<extensions>
<tp1:TrackPointExtension>
<tp1:hr>119</tp1:hr>
</tp1:TrackPointExtension>
</extensions>
</trkpt>
<trkpt lat="58.42607534" lon="15.78973305">
<ele>56.8</ele>
<time>2025-05-18T08:45:08Z</time>
<extensions>
<tp1:TrackPointExtension>
<tp1:hr>119</tp1:hr>
</tp1:TrackPointExtension>
</extensions>
</trkpt>
<trkpt lat="58.42606033" lon="15.78958587">
<ele>56.8</ele>
<time>2025-05-18T08:45:10Z</time>
<extensions>
<tp1:TrackPointExtension>
<tp1:hr>119</tp1:hr>
</tp1:TrackPointExtension>
</extensions>
</trkpt>
<trkpt lat="58.42602588" lon="15.78952485">
<ele>56.8</ele>
<time>2025-05-18T08:45:11Z</time>
<extensions>
<tp1:TrackPointExtension>
<tp1:hr>120</tp1:hr>
</tp1:TrackPointExtension>
</extensions>
</trkpt>
<trkpt lat="58.42598414" lon="15.78949995">
<ele>56.8</ele>
<time>2025-05-18T08:45:12Z</time>
<extensions>
<tp1:TrackPointExtension>
<tp1:hr>120</tp1:hr>
</tp1:TrackPointExtension>
</extensions>
</trkpt>
<trkpt lat="58.42588456" lon="15.78948009">
<ele>56.7</ele>
<time>2025-05-18T08:45:14Z</time>
<extensions>
<tp1:TrackPointExtension>
<tp1:hr>123</tp1:hr>
</tp1:TrackPointExtension>
</extensions>
</trkpt>
<trkpt lat="58.42579069" lon="15.78947405">
<ele>56.7</ele>
<time>2025-05-18T08:45:16Z</time>
<extensions>
<tp1:TrackPointExtension>
<tp1:hr>123</tp1:hr>
</tp1:TrackPointExtension>
</extensions>
</trkpt>
<trkpt lat="58.42574048" lon="15.78937674">
<ele>56.7</ele>
<time>2025-05-18T08:45:18Z</time>
<extensions>
<tp1:TrackPointExtension>
<tp1:hr>121</tp1:hr>
</tp1:TrackPointExtension>
</extensions>
</trkpt>
<trkpt lat="58.42580586" lon="15.78916552">
<ele>56.9</ele>
<time>2025-05-18T08:45:21Z</time>
<extensions>
<tp1:TrackPointExtension>
<tp1:hr>121</tp1:hr>
</tp1:TrackPointExtension>
</extensions>
</trkpt>
<trkpt lat="58.42594449" lon="15.78884784">
<ele>56.8</ele>
<time>2025-05-18T08:45:26Z</time>
<extensions>
<tp1:TrackPointExtension>
<tp1:hr>122</tp1:hr>
</tp1:TrackPointExtension>
</extensions>
</trkpt>
<trkpt lat="58.42595237" lon="15.78877358">
<ele>57.0</ele>
<time>2025-05-18T08:45:27Z</time>
<extensions>
<tp1:TrackPointExtension>
<tp1:hr>120</tp1:hr>
</tp1:TrackPointExtension>
</extensions>
</trkpt>
<trkpt lat="58.42589973" lon="15.78856093">
<ele>57.0</ele>
<time>2025-05-18T08:45:30Z</time>
<extensions>
<tp1:TrackPointExtension>
<tp1:hr>118</tp1:hr>
</tp1:TrackPointExtension>
</extensions>
</trkpt>
<trkpt lat="58.42575397" lon="15.78834526">
<ele>57.2</ele>
<time>2025-05-18T08:45:34Z</time>
<extensions>
<tp1:TrackPointExtension>
<tp1:hr>118</tp1:hr>
</tp1:TrackPointExtension>
</extensions>
</trkpt>
<trkpt lat="58.42562372" lon="15.78830369">
<ele>57.4</ele>
<time>2025-05-18T08:45:37Z</time>
<extensions>
<tp1:TrackPointExtension>
<tp1:hr>120</tp1:hr>
</tp1:TrackPointExtension>
</extensions>
</trkpt>
<trkpt lat="58.42554795" lon="15.78829338">
<ele>57.3</ele>
<time>2025-05-18T08:45:39Z</time>
<extensions>
<tp1:TrackPointExtension>
<tp1:hr>120</tp1:hr>
</tp1:TrackPointExtension>
</extensions>
</trkpt>
<trkpt lat="58.42549615" lon="15.78820487">
<ele>57.5</ele>
<time>2025-05-18T08:45:41Z</time>
<extensions>
<tp1:TrackPointExtension>
<tp1:hr>121</tp1:hr>
</tp1:TrackPointExtension>
</extensions>
</trkpt>
<trkpt lat="58.42547259" lon="15.7881472">
<ele>57.5</ele>
<time>2025-05-18T08:45:42Z</time>
<extensions>
<tp1:TrackPointExtension>
<tp1:hr>121</tp1:hr>
</tp1:TrackPointExtension>
</extensions>
</trkpt>
<trkpt lat="58.42543471" lon="15.78810152">
<ele>57.5</ele>
<time>2025-05-18T08:45:43Z</time>
<extensions>
<tp1:TrackPointExtension>
<tp1:hr>121</tp1:hr>
</tp1:TrackPointExtension>
</extensions>
</trkpt>
<trkpt lat="58.42534368" lon="15.78810495">
<ele>57.5</ele>
<time>2025-05-18T08:45:45Z</time>
<extensions>
<tp1:TrackPointExtension>
<tp1:hr>123</tp1:hr>
</tp1:TrackPointExtension>
</extensions>
</trkpt>
<trkpt lat="58.42512793" lon="15.78820403">
<ele>57.7</ele>
<time>2025-05-18T08:45:50Z</time>
<extensions>
<tp1:TrackPointExtension>
<tp1:hr>123</tp1:hr>
</tp1:TrackPointExtension>
</extensions>
</trkpt>
<trkpt lat="58.42508703" lon="15.78822649">
<ele>57.6</ele>
<time>2025-05-18T08:45:51Z</time>
<extensions>
<tp1:TrackPointExtension>
<tp1:hr>123</tp1:hr>
</tp1:TrackPointExtension>
</extensions>
</trkpt>
<trkpt lat="58.42491964" lon="15.7883264">
<ele>57.6</ele>
<time>2025-05-18T08:45:55Z</time>
<extensions>
<tp1:TrackPointExtension>
<tp1:hr>126</tp1:hr>
</tp1:TrackPointExtension>
</extensions>
</trkpt>
<trkpt lat="58.42483247" lon="15.78836421">
<ele>57.6</ele>
<time>2025-05-18T08:45:57Z</time>
<extensions>
<tp1:TrackPointExtension>
<tp1:hr>125</tp1:hr>
</tp1:TrackPointExtension>
</extensions>
</trkpt>
<trkpt lat="58.42464865" lon="15.78843495">
<ele>57.8</ele>
<time>2025-05-18T08:46:01Z</time>
<extensions>
<tp1:TrackPointExtension>
<tp1:hr>127</tp1:hr>
</tp1:TrackPointExtension>
</extensions>
</trkpt>
<trkpt lat="58.42455897" lon="15.78845741">
<ele>57.7</ele>
<time>2025-05-18T08:46:03Z</time>
<extensions>
<tp1:TrackPointExtension>
<tp1:hr>125</tp1:hr>
</tp1:TrackPointExtension>
</extensions>
</trkpt>
<trkpt lat="58.42451546" lon="15.78844283">
<ele>57.7</ele>
<time>2025-05-18T08:46:04Z</time>
<extensions>
<tp1:TrackPointExtension>
<tp1:hr>125</tp1:hr>
</tp1:TrackPointExtension>
</extensions>
</trkpt>
<trkpt lat="58.42444246" lon="15.78834669">
<ele>57.9</ele>
<time>2025-05-18T08:46:06Z</time>
<extensions>
<tp1:TrackPointExtension>
<tp1:hr>124</tp1:hr>
</tp1:TrackPointExtension>
</extensions>
</trkpt>
<trkpt lat="58.42441404" lon="15.78827167">
<ele>57.9</ele>
<time>2025-05-18T08:46:07Z</time>
<extensions>
<tp1:TrackPointExtension>
<tp1:hr>124</tp1:hr>
</tp1:TrackPointExtension>
</extensions>
</trkpt>
<trkpt lat="58.42440113" lon="15.78817729">
<ele>57.9</ele>
<time>2025-05-18T08:46:08Z</time>
<extensions>
<tp1:TrackPointExtension>
<tp1:hr>124</tp1:hr>
</tp1:TrackPointExtension>
</extensions>
</trkpt>
<trkpt lat="58.4244013" lon="15.78797135">
<ele>57.9</ele>
<time>2025-05-18T08:46:10Z</time>
<extensions>
<tp1:TrackPointExtension>
<tp1:hr>124</tp1:hr>
</tp1:TrackPointExtension>
</extensions>
</trkpt>
<trkpt lat="58.42440474" lon="15.78755485">
<ele>58.1</ele>
<time>2025-05-18T08:46:14Z</time>
<extensions>
<tp1:TrackPointExtension>
<tp1:hr>124</tp1:hr>
</tp1:TrackPointExtension>
</extensions>
</trkpt>
<trkpt lat="58.42441094" lon="15.78725335">
<ele>58.0</ele>
<time>2025-05-18T08:46:17Z</time>
<extensions>
<tp1:TrackPointExtension>
<tp1:hr>123</tp1:hr>
</tp1:TrackPointExtension>
</extensions>
</trkpt>
<trkpt lat="58.42441941" lon="15.78706216">
<ele>58.2</ele>
<time>2025-05-18T08:46:19Z</time>
<extensions>
<tp1:TrackPointExtension>
<tp1:hr>126</tp1:hr>
</tp1:TrackPointExtension>
</extensions>
</trkpt>
<trkpt lat="58.42442854" lon="15.78678765">
<ele>58.2</ele>
<time>2025-05-18T08:46:22Z</time>
<extensions>
<tp1:TrackPointExtension>
<tp1:hr>126</tp1:hr>
</tp1:TrackPointExtension>
</extensions>
</trkpt>
<trkpt lat="58.42442754" lon="15.78669998">
<ele>58.2</ele>
<time>2025-05-18T08:46:23Z</time>
<extensions>
<tp1:TrackPointExtension>
<tp1:hr>127</tp1:hr>
</tp1:TrackPointExtension>
</extensions>
</trkpt>
<trkpt lat="58.42442335" lon="15.78645129">
<ele>58.4</ele>
<time>2025-05-18T08:46:26Z</time>
<extensions>
<tp1:TrackPointExtension>
<tp1:hr>126</tp1:hr>
</tp1:TrackPointExtension>
</extensions>
</trkpt>
<trkpt lat="58.42439828" lon="15.78621718">
<ele>58.3</ele>
<time>2025-05-18T08:46:29Z</time>
<extensions>
<tp1:TrackPointExtension>
<tp1:hr>126</tp1:hr>
</tp1:TrackPointExtension>
</extensions>
</trkpt>
<trkpt lat="58.4243889" lon="15.78614091">
<ele>58.5</ele>
<time>2025-05-18T08:46:30Z</time>
<extensions>
<tp1:TrackPointExtension>
<tp1:hr>124</tp1:hr>
</tp1:TrackPointExtension>
</extensions>
</trkpt>
<trkpt lat="58.42439745" lon="15.78604485">
<ele>58.5</ele>
<time>2025-05-18T08:46:32Z</time>
<extensions>
<tp1:TrackPointExtension>
<tp1:hr>123</tp1:hr>
</tp1:TrackPointExtension>
</extensions>
</trkpt>
<trkpt lat="58.42437884" lon="15.78598458">
<ele>58.5</ele>
<time>2025-05-18T08:46:34Z</time>
<extensions>
<tp1:TrackPointExtension>
<tp1:hr>127</tp1:hr>
</tp1:TrackPointExtension>
</extensions>
</trkpt>
<trkpt lat="58.42434833" lon="15.78588534">
<ele>58.7</ele>
<time>2025-05-18T08:46:36Z</time>
<extensions>
<tp1:TrackPointExtension>
<tp1:hr>129</tp1:hr>
</tp1:TrackPointExtension>
</extensions>
</trkpt>
<trkpt lat="58.42435562" lon="15.78563665">
<ele>58.9</ele>
<time>2025-05-18T08:46:39Z</time>
<extensions>
<tp1:TrackPointExtension>
<tp1:hr>130</tp1:hr>
</tp1:TrackPointExtension>
</extensions>
</trkpt>
<trkpt lat="58.42437381" lon="15.78555543">
<ele>58.8</ele>
<time>2025-05-18T08:46:40Z</time>
<extensions>
<tp1:TrackPointExtension>
<tp1:hr>130</tp1:hr>
</tp1:TrackPointExtension>
</extensions>
</trkpt>
<trkpt lat="58.42442335" lon="15.78543507">
<ele>58.8</ele>
<time>2025-05-18T08:46:42Z</time>
<extensions>
<tp1:TrackPointExtension>
<tp1:hr>128</tp1:hr>
</tp1:TrackPointExtension>
</extensions>
</trkpt>
<trkpt lat="58.42451546" lon="15.78525804">
<ele>59.0</ele>
<time>2025-05-18T08:46:45Z</time>
<extensions>
<tp1:TrackPointExtension>
<tp1:hr>125</tp1:hr>
</tp1:TrackPointExtension>
</extensions>
</trkpt>
<trkpt lat="58.42458461" lon="15.78510934">
<ele>59.0</ele>
<time>2025-05-18T08:46:47Z</time>
<extensions>
<tp1:TrackPointExtension>
<tp1:hr>126</tp1:hr>
</tp1:TrackPointExtension>
</extensions>
</trkpt>
<trkpt lat="58.42461755" lon="15.78504045">
<ele>59.0</ele>
<time>2025-05-18T08:46:48Z</time>
<extensions>
<tp1:TrackPointExtension>
<tp1:hr>125</tp1:hr>
</tp1:TrackPointExtension>
</extensions>
</trkpt>
<trkpt lat="58.42468855" lon="15.78492452">
<ele>59.0</ele>
<time>2025-05-18T08:46:50Z</time>
<extensions>
<tp1:TrackPointExtension>
<tp1:hr>125</tp1:hr>
</tp1:TrackPointExtension>
</extensions>
</trkpt>
<trkpt lat="58.42476399" lon="15.78482076">
<ele>59.1</ele>
<time>2025-05-18T08:46:52Z</time>
<extensions>
<tp1:TrackPointExtension>
<tp1:hr>124</tp1:hr>
</tp1:TrackPointExtension>
</extensions>
</trkpt>
<trkpt lat="58.42484672" lon="15.78472093">
<ele>59.1</ele>
<time>2025-05-18T08:46:54Z</time>
<extensions>
<tp1:TrackPointExtension>
<tp1:hr>120</tp1:hr>
</tp1:TrackPointExtension>
</extensions>
</trkpt>
<trkpt lat="58.42491645" lon="15.78460844">
<ele>59.1</ele>
<time>2025-05-18T08:46:56Z</time>
<extensions>
<tp1:TrackPointExtension>
<tp1:hr>121</tp1:hr>
</tp1:TrackPointExtension>
</extensions>
</trkpt>
<trkpt lat="58.42502458" lon="15.78442412">
<ele>59.1</ele>
<time>2025-05-18T08:46:59Z</time>
<extensions>
<tp1:TrackPointExtension>
<tp1:hr>123</tp1:hr>
</tp1:TrackPointExtension>
</extensions>
</trkpt>
<trkpt lat="58.42507638" lon="15.78428968">
<ele>59.1</ele>
<time>2025-05-18T08:47:01Z</time>
<extensions>
<tp1:TrackPointExtension>
<tp1:hr>123</tp1:hr>
</tp1:TrackPointExtension>
</extensions>
</trkpt>
<trkpt lat="58.42514436" lon="15.78420519">
<ele>59.1</ele>
<time>2025-05-18T08:47:03Z</time>
<extensions>
<tp1:TrackPointExtension>
<tp1:hr>123</tp1:hr>
</tp1:TrackPointExtension>
</extensions>
</trkpt>
<trkpt lat="58.42518358" lon="15.78419731">
<ele>59.0</ele>
<time>2025-05-18T08:47:04Z</time>
<extensions>
<tp1:TrackPointExtension>
<tp1:hr>124</tp1:hr>
</tp1:TrackPointExtension>
</extensions>
</trkpt>
<trkpt lat="58.42536053" lon="15.78420745">
<ele>59.0</ele>
<time>2025-05-18T08:47:08Z</time>
<extensions>
<tp1:TrackPointExtension>
<tp1:hr>127</tp1:hr>
</tp1:TrackPointExtension>
</extensions>
</trkpt>
<trkpt lat="58.4254047" lon="15.78421131">
<ele>59.0</ele>
<time>2025-05-18T08:47:09Z</time>
<extensions>
<tp1:TrackPointExtension>
<tp1:hr>126</tp1:hr>
</tp1:TrackPointExtension>
</extensions>
</trkpt>
<trkpt lat="58.42558558" lon="15.7842046">
<ele>59.0</ele>
<time>2025-05-18T08:47:13Z</time>
<extensions>
<tp1:TrackPointExtension>
<tp1:hr>123</tp1:hr>
</tp1:TrackPointExtension>
</extensions>
</trkpt>
<trkpt lat="58.42566554" lon="15.78420955">
<ele>59.2</ele>
<time>2025-05-18T08:47:15Z</time>
<extensions>
<tp1:TrackPointExtension>
<tp1:hr>124</tp1:hr>
</tp1:TrackPointExtension>
</extensions>
</trkpt>
<trkpt lat="58.42574886" lon="15.7842005">
<ele>59.1</ele>
<time>2025-05-18T08:47:17Z</time>
<extensions>
<tp1:TrackPointExtension>
<tp1:hr>123</tp1:hr>
</tp1:TrackPointExtension>
</extensions>
</trkpt>
<trkpt lat="58.42579454" lon="15.78415473">
<ele>59.1</ele>
<time>2025-05-18T08:47:19Z</time>
<extensions>
<tp1:TrackPointExtension>
<tp1:hr>125</tp1:hr>
</tp1:TrackPointExtension>
</extensions>
</trkpt>
<trkpt lat="58.42582388" lon="15.78385642">
<ele>59.1</ele>
<time>2025-05-18T08:47:23Z</time>
<extensions>
<tp1:TrackPointExtension>
<tp1:hr>126</tp1:hr>
</tp1:TrackPointExtension>
</extensions>
</trkpt>
<trkpt lat="58.42582354" lon="15.78377914">
<ele>59.1</ele>
<time>2025-05-18T08:47:24Z</time>
<extensions>
<tp1:TrackPointExtension>
<tp1:hr>124</tp1:hr>
</tp1:TrackPointExtension>
</extensions>
</trkpt>
<trkpt lat="58.42581231" lon="15.78372331">
<ele>59.1</ele>
<time>2025-05-18T08:47:25Z</time>
<extensions>
<tp1:TrackPointExtension>
<tp1:hr>124</tp1:hr>
</tp1:TrackPointExtension>
</extensions>
</trkpt>
<trkpt lat="58.42573696" lon="15.7837011">
<ele>59.1</ele>
<time>2025-05-18T08:47:27Z</time>
<extensions>
<tp1:TrackPointExtension>
<tp1:hr>124</tp1:hr>
</tp1:TrackPointExtension>
</extensions>
</trkpt>
<trkpt lat="58.42563746" lon="15.78372968">
<ele>59.0</ele>
<time>2025-05-18T08:47:30Z</time>
<extensions>
<tp1:TrackPointExtension>
<tp1:hr>125</tp1:hr>
</tp1:TrackPointExtension>
</extensions>
</trkpt>
<trkpt lat="58.42562674" lon="15.78369331">
<ele>59.0</ele>
<time>2025-05-18T08:47:31Z</time>
<extensions>
<tp1:TrackPointExtension>
<tp1:hr>127</tp1:hr>
</tp1:TrackPointExtension>
</extensions>
</trkpt>
<trkpt lat="58.42568968" lon="15.78350698">
<ele>59.2</ele>
<time>2025-05-18T08:47:34Z</time>
<extensions>
<tp1:TrackPointExtension>
<tp1:hr>127</tp1:hr>
</tp1:TrackPointExtension>
</extensions>
</trkpt>
<trkpt lat="58.42572665" lon="15.78345434">
<ele>59.2</ele>
<time>2025-05-18T08:47:35Z</time>
<extensions>
<tp1:TrackPointExtension>
<tp1:hr>127</tp1:hr>
</tp1:TrackPointExtension>
</extensions>
</trkpt>
<trkpt lat="58.42578926" lon="15.78335476">
<ele>59.2</ele>
<time>2025-05-18T08:47:37Z</time>
<extensions>
<tp1:TrackPointExtension>
<tp1:hr>126</tp1:hr>
</tp1:TrackPointExtension>
</extensions>
</trkpt>
<trkpt lat="58.42587006" lon="15.78329978">
<ele>59.2</ele>
<time>2025-05-18T08:47:39Z</time>
<extensions>
<tp1:TrackPointExtension>
<tp1:hr>125</tp1:hr>
</tp1:TrackPointExtension>
</extensions>
</trkpt>
<trkpt lat="58.42603686" lon="15.78326776">
<ele>59.1</ele>
<time>2025-05-18T08:47:43Z</time>
<extensions>
<tp1:TrackPointExtension>
<tp1:hr>124</tp1:hr>
</tp1:TrackPointExtension>
</extensions>
</trkpt>
<trkpt lat="58.42612613" lon="15.78327572">
<ele>58.9</ele>
<time>2025-05-18T08:47:45Z</time>
<extensions>
<tp1:TrackPointExtension>
<tp1:hr>124</tp1:hr>
</tp1:TrackPointExtension>
</extensions>
</trkpt>
<trkpt lat="58.42630357" lon="15.7832701">
<ele>58.9</ele>
<time>2025-05-18T08:47:49Z</time>
<extensions>
<tp1:TrackPointExtension>
<tp1:hr>121</tp1:hr>
</tp1:TrackPointExtension>
</extensions>
</trkpt>
<trkpt lat="58.42634289" lon="15.78326633">
<ele>58.9</ele>
<time>2025-05-18T08:47:50Z</time>
<extensions>
<tp1:TrackPointExtension>
<tp1:hr>124</tp1:hr>
</tp1:TrackPointExtension>
</extensions>
</trkpt>
<trkpt lat="58.42641464" lon="15.78320053">
<ele>58.9</ele>
<time>2025-05-18T08:47:52Z</time>
<extensions>
<tp1:TrackPointExtension>
<tp1:hr>122</tp1:hr>
</tp1:TrackPointExtension>
</extensions>
</trkpt>
<trkpt lat="58.42644615" lon="15.78313909">
<ele>58.8</ele>
<time>2025-05-18T08:47:53Z</time>
<extensions>
<tp1:TrackPointExtension>
<tp1:hr>122</tp1:hr>
</tp1:TrackPointExtension>
</extensions>
</trkpt>
<trkpt lat="58.42646912" lon="15.78305">
<ele>58.8</ele>
<time>2025-05-18T08:47:54Z</time>
<extensions>
<tp1:TrackPointExtension>
<tp1:hr>121</tp1:hr>
</tp1:TrackPointExtension>
</extensions>
</trkpt>
<trkpt lat="58.42651706" lon="15.78289652">
<ele>58.8</ele>
<time>2025-05-18T08:47:56Z</time>
<extensions>
<tp1:TrackPointExtension>
<tp1:hr>121</tp1:hr>
</tp1:TrackPointExtension>
</extensions>
</trkpt>
<trkpt lat="58.42655662" lon="15.78284967">
<ele>58.8</ele>
<time>2025-05-18T08:47:57Z</time>
<extensions>
<tp1:TrackPointExtension>
<tp1:hr>123</tp1:hr>
</tp1:TrackPointExtension>
</extensions>
</trkpt>
<trkpt lat="58.42659895" lon="15.78282754">
<ele>58.8</ele>
<time>2025-05-18T08:47:58Z</time>
<extensions>
<tp1:TrackPointExtension>
<tp1:hr>124</tp1:hr>
</tp1:TrackPointExtension>
</extensions>
</trkpt>
<trkpt lat="58.42669409" lon="15.78284472">
<ele>58.8</ele>
<time>2025-05-18T08:48:00Z</time>
<extensions>
<tp1:TrackPointExtension>
<tp1:hr>123</tp1:hr>
</tp1:TrackPointExtension>
</extensions>
</trkpt>
<trkpt lat="58.42676475" lon="15.78296953">
<ele>58.8</ele>
<time>2025-05-18T08:48:02Z</time>
<extensions>
<tp1:TrackPointExtension>
<tp1:hr>126</tp1:hr>
</tp1:TrackPointExtension>
</extensions>
</trkpt>
<trkpt lat="58.42678612" lon="15.78305033">
<ele>58.8</ele>
<time>2025-05-18T08:48:03Z</time>
<extensions>
<tp1:TrackPointExtension>
<tp1:hr>126</tp1:hr>
</tp1:TrackPointExtension>
</extensions>
</trkpt>
<trkpt lat="58.42679693" lon="15.78313222">
<ele>58.8</ele>
<time>2025-05-18T08:48:04Z</time>
<extensions>
<tp1:TrackPointExtension>
<tp1:hr>126</tp1:hr>
</tp1:TrackPointExtension>
</extensions>
</trkpt>
<trkpt lat="58.42680305" lon="15.78329324">
<ele>58.7</ele>
<time>2025-05-18T08:48:06Z</time>
<extensions>
<tp1:TrackPointExtension>
<tp1:hr>119</tp1:hr>
</tp1:TrackPointExtension>
</extensions>
</trkpt>
<trkpt lat="58.42680146" lon="15.78337203">
<ele>58.7</ele>
<time>2025-05-18T08:48:07Z</time>
<extensions>
<tp1:TrackPointExtension>
<tp1:hr>119</tp1:hr>
</tp1:TrackPointExtension>
</extensions>
</trkpt>
<trkpt lat="58.42681085" lon="15.7837353">
<ele>58.5</ele>
<time>2025-05-18T08:48:12Z</time>
<extensions>
<tp1:TrackPointExtension>
<tp1:hr>118</tp1:hr>
</tp1:TrackPointExtension>
</extensions>
</trkpt>
<trkpt lat="58.42681973" lon="15.78379523">
<ele>58.5</ele>
<time>2025-05-18T08:48:13Z</time>
<extensions>
<tp1:TrackPointExtension>
<tp1:hr>118</tp1:hr>
</tp1:TrackPointExtension>
</extensions>
</trkpt>
<trkpt lat="58.42685821" lon="15.7839943">
<ele>58.5</ele>
<time>2025-05-18T08:48:16Z</time>
<extensions>
<tp1:TrackPointExtension>
<tp1:hr>120</tp1:hr>
</tp1:TrackPointExtension>
</extensions>
</trkpt>
<trkpt lat="58.42688553" lon="15.78423159">
<ele>58.2</ele>
<time>2025-05-18T08:48:19Z</time>
<extensions>
<tp1:TrackPointExtension>
<tp1:hr>122</tp1:hr>
</tp1:TrackPointExtension>
</extensions>
</trkpt>
<trkpt lat="58.42689727" lon="15.78446939">
<ele>58.2</ele>
<time>2025-05-18T08:48:22Z</time>
<extensions>
<tp1:TrackPointExtension>
<tp1:hr>124</tp1:hr>
</tp1:TrackPointExtension>
</extensions>
</trkpt>
<trkpt lat="58.42690162" lon="15.78455044">
<ele>58.2</ele>
<time>2025-05-18T08:48:23Z</time>
<extensions>
<tp1:TrackPointExtension>
<tp1:hr>123</tp1:hr>
</tp1:TrackPointExtension>
</extensions>
</trkpt>
<trkpt lat="58.4269142" lon="15.7846268">
<ele>58.2</ele>
<time>2025-05-18T08:48:24Z</time>
<extensions>
<tp1:TrackPointExtension>
<tp1:hr>123</tp1:hr>
</tp1:TrackPointExtension>
</extensions>
</trkpt>
<trkpt lat="58.42697664" lon="15.7848029">
<ele>58.2</ele>
<time>2025-05-18T08:48:27Z</time>
<extensions>
<tp1:TrackPointExtension>
<tp1:hr>122</tp1:hr>
</tp1:TrackPointExtension>
</extensions>
</trkpt>
<trkpt lat="58.42699911" lon="15.78484573">
<ele>58.2</ele>
<time>2025-05-18T08:48:28Z</time>
<extensions>
<tp1:TrackPointExtension>
<tp1:hr>122</tp1:hr>
</tp1:TrackPointExtension>
</extensions>
</trkpt>
<trkpt lat="58.42712735" lon="15.78503022">
<ele>58.1</ele>
<time>2025-05-18T08:48:32Z</time>
<extensions>
<tp1:TrackPointExtension>
<tp1:hr>121</tp1:hr>
</tp1:TrackPointExtension>
</extensions>
</trkpt>
<trkpt lat="58.42718728" lon="15.78512955">
<ele>58.1</ele>
<time>2025-05-18T08:48:34Z</time>
<extensions>
<tp1:TrackPointExtension>
<tp1:hr>122</tp1:hr>
</tp1:TrackPointExtension>
</extensions>
</trkpt>
<trkpt lat="58.4272105" lon="15.78526592">
<ele>58.1</ele>
<time>2025-05-18T08:48:36Z</time>
<extensions>
<tp1:TrackPointExtension>
<tp1:hr>124</tp1:hr>
</tp1:TrackPointExtension>
</extensions>
</trkpt>
<trkpt lat="58.42719533" lon="15.7854981">
<ele>58.1</ele>
<time>2025-05-18T08:48:39Z</time>
<extensions>
<tp1:TrackPointExtension>
<tp1:hr>125</tp1:hr>
</tp1:TrackPointExtension>
</extensions>
</trkpt>
<trkpt lat="58.4271851" lon="15.78557102">
<ele>58.1</ele>
<time>2025-05-18T08:48:40Z</time>
<extensions>
<tp1:TrackPointExtension>
<tp1:hr>125</tp1:hr>
</tp1:TrackPointExtension>
</extensions>
</trkpt>
<trkpt lat="58.42715266" lon="15.78590588">
<ele>58.0</ele>
<time>2025-05-18T08:48:44Z</time>
<extensions>
<tp1:TrackPointExtension>
<tp1:hr>125</tp1:hr>
</tp1:TrackPointExtension>
</extensions>
</trkpt>
<trkpt lat="58.42714" lon="15.78599565">
<ele>58.0</ele>
<time>2025-05-18T08:48:45Z</time>
<extensions>
<tp1:TrackPointExtension>
<tp1:hr>126</tp1:hr>
</tp1:TrackPointExtension>
</extensions>
</trkpt>
<trkpt lat="58.42712509" lon="15.78617058">
<ele>58.0</ele>
<time>2025-05-18T08:48:47Z</time>
<extensions>
<tp1:TrackPointExtension>
<tp1:hr>123</tp1:hr>
</tp1:TrackPointExtension>
</extensions>
</trkpt>
<trkpt lat="58.42709885" lon="15.78642438">
<ele>57.8</ele>
<time>2025-05-18T08:48:50Z</time>
<extensions>
<tp1:TrackPointExtension>
<tp1:hr>125</tp1:hr>
</tp1:TrackPointExtension>
</extensions>
</trkpt>
<trkpt lat="58.4270732" lon="15.78683275">
<ele>57.7</ele>
<time>2025-05-18T08:48:55Z</time>
<extensions>
<tp1:TrackPointExtension>
<tp1:hr>125</tp1:hr>
</tp1:TrackPointExtension>
</extensions>
</trkpt>
<trkpt lat="58.42706264" lon="15.78691757">
<ele>57.7</ele>
<time>2025-05-18T08:48:56Z</time>
<extensions>
<tp1:TrackPointExtension>
<tp1:hr>124</tp1:hr>
</tp1:TrackPointExtension>
</extensions>
</trkpt>
<trkpt lat="58.42703288" lon="15.78704028">
<ele>57.7</ele>
<time>2025-05-18T08:48:58Z</time>
<extensions>
<tp1:TrackPointExtension>
<tp1:hr>125</tp1:hr>
</tp1:TrackPointExtension>
</extensions>
</trkpt>
<trkpt lat="58.42701981" lon="15.7870666">
<ele>57.7</ele>
<time>2025-05-18T08:48:59Z</time>
<extensions>
<tp1:TrackPointExtension>
<tp1:hr>125</tp1:hr>
</tp1:TrackPointExtension>
</extensions>
</trkpt>
<trkpt lat="58.42701159" lon="15.78706375">
<ele>57.7</ele>
<time>2025-05-18T08:49:00Z</time>
<extensions>
<tp1:TrackPointExtension>
<tp1:hr>126</tp1:hr>
</tp1:TrackPointExtension>
</extensions>
</trkpt>
<trkpt lat="58.42694546" lon="15.78705126">
<ele>57.7</ele>
<time>2025-05-18T08:49:03Z</time>
<extensions>
<tp1:TrackPointExtension>
<tp1:hr>126</tp1:hr>
</tp1:TrackPointExtension>
</extensions>
</trkpt>
<trkpt lat="58.42691093" lon="15.78724992">
<ele>57.7</ele>
<time>2025-05-18T08:49:06Z</time>
<extensions>
<tp1:TrackPointExtension>
<tp1:hr>124</tp1:hr>
</tp1:TrackPointExtension>
</extensions>
</trkpt>
<trkpt lat="58.42689207" lon="15.78752627">
<ele>57.6</ele>
<time>2025-05-18T08:49:09Z</time>
<extensions>
<tp1:TrackPointExtension>
<tp1:hr>126</tp1:hr>
</tp1:TrackPointExtension>
</extensions>
</trkpt>
<trkpt lat="58.42686382" lon="15.7875815">
<ele>57.6</ele>
<time>2025-05-18T08:49:10Z</time>
<extensions>
<tp1:TrackPointExtension>
<tp1:hr>126</tp1:hr>
</tp1:TrackPointExtension>
</extensions>
</trkpt>
<trkpt lat="58.42682543" lon="15.78760481">
<ele>57.6</ele>
<time>2025-05-18T08:49:11Z</time>
<extensions>
<tp1:TrackPointExtension>
<tp1:hr>125</tp1:hr>
</tp1:TrackPointExtension>
</extensions>
</trkpt>
<trkpt lat="58.42672803" lon="15.78761201">
<ele>57.6</ele>
<time>2025-05-18T08:49:13Z</time>
<extensions>
<tp1:TrackPointExtension>
<tp1:hr>127</tp1:hr>
</tp1:TrackPointExtension>
</extensions>
</trkpt>
<trkpt lat="58.42663893" lon="15.78760061">
<ele>57.6</ele>
<time>2025-05-18T08:49:15Z</time>
<extensions>
<tp1:TrackPointExtension>
<tp1:hr>130</tp1:hr>
</tp1:TrackPointExtension>
</extensions>
</trkpt>
<trkpt lat="58.42659317" lon="15.78760237">
<ele>57.6</ele>
<time>2025-05-18T08:49:16Z</time>
<extensions>
<tp1:TrackPointExtension>
<tp1:hr>130</tp1:hr>
</tp1:TrackPointExtension>
</extensions>
</trkpt>
<trkpt lat="58.42652167" lon="15.78766784">
<ele>57.6</ele>
<time>2025-05-18T08:49:18Z</time>
<extensions>
<tp1:TrackPointExtension>
<tp1:hr>130</tp1:hr>
</tp1:TrackPointExtension>
</extensions>
</trkpt>
<trkpt lat="58.42646585" lon="15.78777311">
<ele>57.5</ele>
<time>2025-05-18T08:49:20Z</time>
<extensions>
<tp1:TrackPointExtension>
<tp1:hr>128</tp1:hr>
</tp1:TrackPointExtension>
</extensions>
</trkpt>
<trkpt lat="58.42643048" lon="15.78782315">
<ele>57.5</ele>
<time>2025-05-18T08:49:21Z</time>
<extensions>
<tp1:TrackPointExtension>
<tp1:hr>127</tp1:hr>
</tp1:TrackPointExtension>
</extensions>
</trkpt>
<trkpt lat="58.42638915" lon="15.78785836">
<ele>57.5</ele>
<time>2025-05-18T08:49:22Z</time>
<extensions>
<tp1:TrackPointExtension>
<tp1:hr>129</tp1:hr>
</tp1:TrackPointExtension>
</extensions>
</trkpt>
<trkpt lat="58.42631422" lon="15.78790538">
<ele>57.5</ele>
<time>2025-05-18T08:49:24Z</time>
<extensions>
<tp1:TrackPointExtension>
<tp1:hr>128</tp1:hr>
</tp1:TrackPointExtension>
</extensions>
</trkpt>
<trkpt lat="58.42612831" lon="15.78798534">
<ele>57.5</ele>
<time>2025-05-18T08:49:28Z</time>
<extensions>
<tp1:TrackPointExtension>
<tp1:hr>127</tp1:hr>
</tp1:TrackPointExtension>
</extensions>
</trkpt>
<trkpt lat="58.42608598" lon="15.78799649">
<ele>57.5</ele>
<time>2025-05-18T08:49:29Z</time>
<extensions>
<tp1:TrackPointExtension>
<tp1:hr>131</tp1:hr>
</tp1:TrackPointExtension>
</extensions>
</trkpt>
<trkpt lat="58.42599495" lon="15.78799465">
<ele>57.5</ele>
<time>2025-05-18T08:49:31Z</time>
<extensions>
<tp1:TrackPointExtension>
<tp1:hr>128</tp1:hr>
</tp1:TrackPointExtension>
</extensions>
</trkpt>
<trkpt lat="58.42586956" lon="15.78797654">
<ele>57.4</ele>
<time>2025-05-18T08:49:34Z</time>
<extensions>
<tp1:TrackPointExtension>
<tp1:hr>129</tp1:hr>
</tp1:TrackPointExtension>
</extensions>
</trkpt>
<trkpt lat="58.42573646" lon="15.78797461">
<ele>57.4</ele>
<time>2025-05-18T08:49:37Z</time>
<extensions>
<tp1:TrackPointExtension>
<tp1:hr>126</tp1:hr>
</tp1:TrackPointExtension>
</extensions>
</trkpt>
<trkpt lat="58.42565021" lon="15.78795886">
<ele>57.4</ele>
<time>2025-05-18T08:49:39Z</time>
<extensions>
<tp1:TrackPointExtension>
<tp1:hr>125</tp1:hr>
</tp1:TrackPointExtension>
</extensions>
</trkpt>
<trkpt lat="58.42557209" lon="15.78790664">
<ele>57.4</ele>
<time>2025-05-18T08:49:41Z</time>
<extensions>
<tp1:TrackPointExtension>
<tp1:hr>127</tp1:hr>
</tp1:TrackPointExtension>
</extensions>
</trkpt>
<trkpt lat="58.42550889" lon="15.78779055">
<ele>57.4</ele>
<time>2025-05-18T08:49:43Z</time>
<extensions>
<tp1:TrackPointExtension>
<tp1:hr>127</tp1:hr>
</tp1:TrackPointExtension>
</extensions>
</trkpt>
<trkpt lat="58.42545591" lon="15.7876815">
<ele>57.3</ele>
<time>2025-05-18T08:49:45Z</time>
<extensions>
<tp1:TrackPointExtension>
<tp1:hr>129</tp1:hr>
</tp1:TrackPointExtension>
</extensions>
</trkpt>
<trkpt lat="58.42537109" lon="15.78753222">
<ele>57.3</ele>
<time>2025-05-18T08:49:48Z</time>
<extensions>
<tp1:TrackPointExtension>
<tp1:hr>125</tp1:hr>
</tp1:TrackPointExtension>
</extensions>
</trkpt>
<trkpt lat="58.42536262" lon="15.78747581">
<ele>57.3</ele>
<time>2025-05-18T08:49:50Z</time>
<extensions>
<tp1:TrackPointExtension>
<tp1:hr>124</tp1:hr>
</tp1:TrackPointExtension>
</extensions>
</trkpt>
<trkpt lat="58.42537897" lon="15.78747556">
<ele>57.3</ele>
<time>2025-05-18T08:49:51Z</time>
<extensions>
<tp1:TrackPointExtension>
<tp1:hr>123</tp1:hr>
</tp1:TrackPointExtension>
</extensions>
</trkpt>
<trkpt lat="58.42542398" lon="15.7874334">
<ele>57.3</ele>
<time>2025-05-18T08:49:53Z</time>
<extensions>
<tp1:TrackPointExtension>
<tp1:hr>124</tp1:hr>
</tp1:TrackPointExtension>
</extensions>
</trkpt>
<trkpt lat="58.42545918" lon="15.78730775">
<ele>57.3</ele>
<time>2025-05-18T08:49:55Z</time>
<extensions>
<tp1:TrackPointExtension>
<tp1:hr>126</tp1:hr>
</tp1:TrackPointExtension>
</extensions>
</trkpt>
<trkpt lat="58.42547209" lon="15.78706359">
<ele>57.2</ele>
<time>2025-05-18T08:49:58Z</time>
<extensions>
<tp1:TrackPointExtension>
<tp1:hr>129</tp1:hr>
</tp1:TrackPointExtension>
</extensions>
</trkpt>
<trkpt lat="58.42547301" lon="15.78689176">
<ele>57.2</ele>
<time>2025-05-18T08:50:00Z</time>
<extensions>
<tp1:TrackPointExtension>
<tp1:hr>129</tp1:hr>
</tp1:TrackPointExtension>
</extensions>
</trkpt>
<trkpt lat="58.425485" lon="15.78654164">
<ele>57.2</ele>
<time>2025-05-18T08:50:04Z</time>
<extensions>
<tp1:TrackPointExtension>
<tp1:hr>128</tp1:hr>
</tp1:TrackPointExtension>
</extensions>
</trkpt>
<trkpt lat="58.42548408" lon="15.78636789">
<ele>57.4</ele>
<time>2025-05-18T08:50:06Z</time>
<extensions>
<tp1:TrackPointExtension>
<tp1:hr>127</tp1:hr>
</tp1:TrackPointExtension>
</extensions>
</trkpt>
<trkpt lat="58.42546329" lon="15.78625155">
<ele>57.3</ele>
<time>2025-05-18T08:50:08Z</time>
<extensions>
<tp1:TrackPointExtension>
<tp1:hr>127</tp1:hr>
</tp1:TrackPointExtension>
</extensions>
</trkpt>
<trkpt lat="58.42536824" lon="15.78621173">
<ele>57.3</ele>
<time>2025-05-18T08:50:11Z</time>
<extensions>
<tp1:TrackPointExtension>
<tp1:hr>126</tp1:hr>
</tp1:TrackPointExtension>
</extensions>
</trkpt>
<trkpt lat="58.42531619" lon="15.78620486">
<ele>57.3</ele>
<time>2025-05-18T08:50:13Z</time>
<extensions>
<tp1:TrackPointExtension>
<tp1:hr>123</tp1:hr>
</tp1:TrackPointExtension>
</extensions>
</trkpt>
<trkpt lat="58.42530956" lon="15.78622062">
<ele>57.3</ele>
<time>2025-05-18T08:50:14Z</time>
<extensions>
<tp1:TrackPointExtension>
<tp1:hr>126</tp1:hr>
</tp1:TrackPointExtension>
</extensions>
</trkpt>
<trkpt lat="58.42532038" lon="15.7862238">
<ele>57.3</ele>
<time>2025-05-18T08:50:15Z</time>
<extensions>
<tp1:TrackPointExtension>
<tp1:hr>126</tp1:hr>
</tp1:TrackPointExtension>
</extensions>
</trkpt>
<trkpt lat="58.42544929" lon="15.7862269">
<ele>57.3</ele>
<time>2025-05-18T08:50:19Z</time>
<extensions>
<tp1:TrackPointExtension>
<tp1:hr>124</tp1:hr>
</tp1:TrackPointExtension>
</extensions>
</trkpt>
<trkpt lat="58.42565398" lon="15.78619036">
<ele>57.2</ele>
<time>2025-05-18T08:50:24Z</time>
<extensions>
<tp1:TrackPointExtension>
<tp1:hr>123</tp1:hr>
</tp1:TrackPointExtension>
</extensions>
</trkpt>
<trkpt lat="58.42569706" lon="15.78619044">
<ele>57.2</ele>
<time>2025-05-18T08:50:25Z</time>
<extensions>
<tp1:TrackPointExtension>
<tp1:hr>124</tp1:hr>
</tp1:TrackPointExtension>
</extensions>
</trkpt>
<trkpt lat="58.42578147" lon="15.7862036">
<ele>57.2</ele>
<time>2025-05-18T08:50:27Z</time>
<extensions>
<tp1:TrackPointExtension>
<tp1:hr>125</tp1:hr>
</tp1:TrackPointExtension>
</extensions>
</trkpt>
<trkpt lat="58.42590619" lon="15.78627359">
<ele>57.2</ele>
<time>2025-05-18T08:50:30Z</time>
<extensions>
<tp1:TrackPointExtension>
<tp1:hr>124</tp1:hr>
</tp1:TrackPointExtension>
</extensions>
</trkpt>
<trkpt lat="58.42598582" lon="15.78632045">
<ele>57.2</ele>
<time>2025-05-18T08:50:32Z</time>
<extensions>
<tp1:TrackPointExtension>
<tp1:hr>128</tp1:hr>
</tp1:TrackPointExtension>
</extensions>
</trkpt>
<trkpt lat="58.42611356" lon="15.78641667">
<ele>57.1</ele>
<time>2025-05-18T08:50:35Z</time>
<extensions>
<tp1:TrackPointExtension>
<tp1:hr>128</tp1:hr>
</tp1:TrackPointExtension>
</extensions>
</trkpt>
<trkpt lat="58.42622587" lon="15.78648959">
<ele>57.1</ele>
<time>2025-05-18T08:50:38Z</time>
<extensions>
<tp1:TrackPointExtension>
<tp1:hr>129</tp1:hr>
</tp1:TrackPointExtension>
</extensions>
</trkpt>
<trkpt lat="58.42624985" lon="15.78645984">
<ele>57.3</ele>
<time>2025-05-18T08:50:39Z</time>
<extensions>
<tp1:TrackPointExtension>
<tp1:hr>128</tp1:hr>
</tp1:TrackPointExtension>
</extensions>
</trkpt>
<trkpt lat="58.42630651" lon="15.78627644">
<ele>57.3</ele>
<time>2025-05-18T08:50:42Z</time>
<extensions>
<tp1:TrackPointExtension>
<tp1:hr>130</tp1:hr>
</tp1:TrackPointExtension>
</extensions>
</trkpt>
<trkpt lat="58.4263791" lon="15.78625624">
<ele>57.3</ele>
<time>2025-05-18T08:50:44Z</time>
<extensions>
<tp1:TrackPointExtension>
<tp1:hr>132</tp1:hr>
</tp1:TrackPointExtension>
</extensions>
</trkpt>
<trkpt lat="58.42646283" lon="15.78626445">
<ele>57.2</ele>
<time>2025-05-18T08:50:46Z</time>
<extensions>
<tp1:TrackPointExtension>
<tp1:hr>129</tp1:hr>
</tp1:TrackPointExtension>
</extensions>
</trkpt>
<trkpt lat="58.42654916" lon="15.78622531">
<ele>57.2</ele>
<time>2025-05-18T08:50:48Z</time>
<extensions>
<tp1:TrackPointExtension>
<tp1:hr>128</tp1:hr>
</tp1:TrackPointExtension>
</extensions>
</trkpt>
<trkpt lat="58.42663022" lon="15.78615901">
<ele>57.2</ele>
<time>2025-05-18T08:50:50Z</time>
<extensions>
<tp1:TrackPointExtension>
<tp1:hr>129</tp1:hr>
</tp1:TrackPointExtension>
</extensions>
</trkpt>
<trkpt lat="58.42671982" lon="15.78612817">
<ele>57.2</ele>
<time>2025-05-18T08:50:52Z</time>
<extensions>
<tp1:TrackPointExtension>
<tp1:hr>127</tp1:hr>
</tp1:TrackPointExtension>
</extensions>
</trkpt>
<trkpt lat="58.42684949" lon="15.78613797">
<ele>57.2</ele>
<time>2025-05-18T08:50:55Z</time>
<extensions>
<tp1:TrackPointExtension>
<tp1:hr>128</tp1:hr>
</tp1:TrackPointExtension>
</extensions>
</trkpt>
<trkpt lat="58.42693423" lon="15.78614518">
<ele>57.0</ele>
<time>2025-05-18T08:50:57Z</time>
<extensions>
<tp1:TrackPointExtension>
<tp1:hr>129</tp1:hr>
</tp1:TrackPointExtension>
</extensions>
</trkpt>
<trkpt lat="58.4270183" lon="15.78615566">
<ele>56.9</ele>
<time>2025-05-18T08:50:59Z</time>
<extensions>
<tp1:TrackPointExtension>
<tp1:hr>129</tp1:hr>
</tp1:TrackPointExtension>
</extensions>
</trkpt>
<trkpt lat="58.42706398" lon="15.78618265">
<ele>56.9</ele>
<time>2025-05-18T08:51:00Z</time>
<extensions>
<tp1:TrackPointExtension>
<tp1:hr>127</tp1:hr>
</tp1:TrackPointExtension>
</extensions>
</trkpt>
<trkpt lat="58.42722801" lon="15.7863362">
<ele>56.9</ele>
<time>2025-05-18T08:51:04Z</time>
<extensions>
<tp1:TrackPointExtension>
<tp1:hr>129</tp1:hr>
</tp1:TrackPointExtension>
</extensions>
</trkpt>
<trkpt lat="58.42727127" lon="15.78637493">
<ele>56.9</ele>
<time>2025-05-18T08:51:05Z</time>
<extensions>
<tp1:TrackPointExtension>
<tp1:hr>130</tp1:hr>
</tp1:TrackPointExtension>
</extensions>
</trkpt>
<trkpt lat="58.42735274" lon="15.78644198">
<ele>56.9</ele>
<time>2025-05-18T08:51:07Z</time>
<extensions>
<tp1:TrackPointExtension>
<tp1:hr>130</tp1:hr>
</tp1:TrackPointExtension>
</extensions>
</trkpt>
<trkpt lat="58.42741149" lon="15.7864569">
<ele>56.9</ele>
<time>2025-05-18T08:51:09Z</time>
<extensions>
<tp1:TrackPointExtension>
<tp1:hr>128</tp1:hr>
</tp1:TrackPointExtension>
</extensions>
</trkpt>
<trkpt lat="58.4274617" lon="15.7863906">
<ele>56.8</ele>
<time>2025-05-18T08:51:11Z</time>
<extensions>
<tp1:TrackPointExtension>
<tp1:hr>129</tp1:hr>
</tp1:TrackPointExtension>
</extensions>
</trkpt>
<trkpt lat="58.42747553" lon="15.78632992">
<ele>56.8</ele>
<time>2025-05-18T08:51:12Z</time>
<extensions>
<tp1:TrackPointExtension>
<tp1:hr>130</tp1:hr>
</tp1:TrackPointExtension>
</extensions>
</trkpt>
<trkpt lat="58.42750722" lon="15.7861425">
<ele>56.8</ele>
<time>2025-05-18T08:51:15Z</time>
<extensions>
<tp1:TrackPointExtension>
<tp1:hr>130</tp1:hr>
</tp1:TrackPointExtension>
</extensions>
</trkpt>
<trkpt lat="58.42761526" lon="15.78605122">
<ele>56.8</ele>
<time>2025-05-18T08:51:18Z</time>
<extensions>
<tp1:TrackPointExtension>
<tp1:hr>134</tp1:hr>
</tp1:TrackPointExtension>
</extensions>
</trkpt>
<trkpt lat="58.42765767" lon="15.78603546">
<ele>56.8</ele>
<time>2025-05-18T08:51:19Z</time>
<extensions>
<tp1:TrackPointExtension>
<tp1:hr>134</tp1:hr>
</tp1:TrackPointExtension>
</extensions>
</trkpt>
<trkpt lat="58.42770444" lon="15.78603286">
<ele>56.8</ele>
<time>2025-05-18T08:51:20Z</time>
<extensions>
<tp1:TrackPointExtension>
<tp1:hr>133</tp1:hr>
</tp1:TrackPointExtension>
</extensions>
</trkpt>
<trkpt lat="58.427786" lon="15.78601928">
<ele>56.5</ele>
<time>2025-05-18T08:51:22Z</time>
<extensions>
<tp1:TrackPointExtension>
<tp1:hr>132</tp1:hr>
</tp1:TrackPointExtension>
</extensions>
</trkpt>
<trkpt lat="58.42781626" lon="15.78598375">
<ele>56.5</ele>
<time>2025-05-18T08:51:23Z</time>
<extensions>
<tp1:TrackPointExtension>
<tp1:hr>132</tp1:hr>
</tp1:TrackPointExtension>
</extensions>
</trkpt>
<trkpt lat="58.42782992" lon="15.78592859">
<ele>56.5</ele>
<time>2025-05-18T08:51:24Z</time>
<extensions>
<tp1:TrackPointExtension>
<tp1:hr>132</tp1:hr>
</tp1:TrackPointExtension>
</extensions>
</trkpt>
<trkpt lat="58.42783855" lon="15.78575718">
<ele>56.5</ele>
<time>2025-05-18T08:51:26Z</time>
<extensions>
<tp1:TrackPointExtension>
<tp1:hr>133</tp1:hr>
</tp1:TrackPointExtension>
</extensions>
</trkpt>
<trkpt lat="58.42785666" lon="15.78557907">
<ele>56.5</ele>
<time>2025-05-18T08:51:28Z</time>
<extensions>
<tp1:TrackPointExtension>
<tp1:hr>133</tp1:hr>
</tp1:TrackPointExtension>
</extensions>
</trkpt>
<trkpt lat="58.42790636" lon="15.78541595">
<ele>56.5</ele>
<time>2025-05-18T08:51:30Z</time>
<extensions>
<tp1:TrackPointExtension>
<tp1:hr>133</tp1:hr>
</tp1:TrackPointExtension>
</extensions>
</trkpt>
<trkpt lat="58.42793419" lon="15.78533909">
<ele>56.5</ele>
<time>2025-05-18T08:51:31Z</time>
<extensions>
<tp1:TrackPointExtension>
<tp1:hr>127</tp1:hr>
</tp1:TrackPointExtension>
</extensions>
</trkpt>
<trkpt lat="58.42796017" lon="15.78525804">
<ele>56.5</ele>
<time>2025-05-18T08:51:32Z</time>
<extensions>
<tp1:TrackPointExtension>
<tp1:hr>126</tp1:hr>
</tp1:TrackPointExtension>
</extensions>
</trkpt>
<trkpt lat="58.4280046" lon="15.78506274">
<ele>56.4</ele>
<time>2025-05-18T08:51:34Z</time>
<extensions>
<tp1:TrackPointExtension>
<tp1:hr>126</tp1:hr>
</tp1:TrackPointExtension>
</extensions>
</trkpt>
<trkpt lat="58.42802212" lon="15.7849687">
<ele>56.4</ele>
<time>2025-05-18T08:51:35Z</time>
<extensions>
<tp1:TrackPointExtension>
<tp1:hr>127</tp1:hr>
</tp1:TrackPointExtension>
</extensions>
</trkpt>
<trkpt lat="58.4280797" lon="15.78474876">
<ele>56.4</ele>
<time>2025-05-18T08:51:38Z</time>
<extensions>
<tp1:TrackPointExtension>
<tp1:hr>127</tp1:hr>
</tp1:TrackPointExtension>
</extensions>
</trkpt>
<trkpt lat="58.42810451" lon="15.78469092">
<ele>56.4</ele>
<time>2025-05-18T08:51:39Z</time>
<extensions>
<tp1:TrackPointExtension>
<tp1:hr>127</tp1:hr>
</tp1:TrackPointExtension>
</extensions>
</trkpt>
<trkpt lat="58.42814147" lon="15.7846294">
<ele>56.4</ele>
<time>2025-05-18T08:51:40Z</time>
<extensions>
<tp1:TrackPointExtension>
<tp1:hr>127</tp1:hr>
</tp1:TrackPointExtension>
</extensions>
</trkpt>
<trkpt lat="58.42819327" lon="15.78456922">
<ele>56.4</ele>
<time>2025-05-18T08:51:41Z</time>
<extensions>
<tp1:TrackPointExtension>
<tp1:hr>130</tp1:hr>
</tp1:TrackPointExtension>
</extensions>
</trkpt>
<trkpt lat="58.42830249" lon="15.78442538">
<ele>56.4</ele>
<time>2025-05-18T08:51:43Z</time>
<extensions>
<tp1:TrackPointExtension>
<tp1:hr>132</tp1:hr>
</tp1:TrackPointExtension>
</extensions>
</trkpt>
<trkpt lat="58.42843484" lon="15.78424769">
<ele>56.4</ele>
<time>2025-05-18T08:51:46Z</time>
<extensions>
<tp1:TrackPointExtension>
<tp1:hr>130</tp1:hr>
</tp1:TrackPointExtension>
</extensions>
</trkpt>
<trkpt lat="58.42845714" lon="15.78423084">
<ele>56.3</ele>
<time>2025-05-18T08:51:47Z</time>
<extensions>
<tp1:TrackPointExtension>
<tp1:hr>130</tp1:hr>
</tp1:TrackPointExtension>
</extensions>
</trkpt>
</trkseg>
</trk>
</gpx>

