<?xml version="1.0" encoding="utf-8"?>
<kml xmlns="http://www.opengis.net/kml/2.2">
  <Document>
  <name>Erik Martinsson: Finspångsorienteringen, medel (2016-04-29)</name>
    <Folder>
      <GroundOverlay>
        <Icon>
          <href>http://www.lid1.se/erik/doma/map_images/321.jpg</href>
        </Icon>
        <LatLonBox>
          <north>58.758489728741</north>
          <south>58.732089190149</south>
          <east>15.829951898094</east>
          <west>15.792983299147</west>
          <rotation>0.23667737255603</rotation>
        </LatLonBox>
      </GroundOverlay>
    </Folder>
  </Document>
</kml>
