<?xml version="1.0" encoding="utf-8"?>
<kml xmlns="http://www.opengis.net/kml/2.2">
  <Document>
  <name>Erik Martinsson: Tjällmoträffen (2016-08-10)</name>
    <Folder>
      <GroundOverlay>
        <Icon>
          <href>http://www.lid1.se/erik/doma/map_images/344.jpg</href>
        </Icon>
        <LatLonBox>
          <north>58.58681094588</north>
          <south>58.56752956435</south>
          <east>15.3836854846</east>
          <west>15.333150368553</west>
          <rotation>-0.35794916721228</rotation>
        </LatLonBox>
      </GroundOverlay>
    </Folder>
  </Document>
</kml>
