<?xml version="1.0" encoding="utf-8"?>
<kml xmlns="http://www.opengis.net/kml/2.2">
  <Document>
  <name>Erik Martinsson: Ramunderträffen (2016-08-20)</name>
    <Folder>
      <GroundOverlay>
        <Icon>
          <href>http://www.lid1.se/erik/doma/map_images/347.jpg</href>
        </Icon>
        <LatLonBox>
          <north>58.444244347917</north>
          <south>58.4249403706</south>
          <east>16.338522122906</east>
          <west>16.288268248834</west>
          <rotation>-2.2364338426709</rotation>
        </LatLonBox>
      </GroundOverlay>
    </Folder>
  </Document>
</kml>
