<?xml version="1.0" encoding="utf-8"?>
<kml xmlns="http://www.opengis.net/kml/2.2">
  <Document>
  <name>Erik Martinsson: Stigtomtakavlen (2016-04-15)</name>
    <Folder>
      <GroundOverlay>
        <Icon>
          <href>http://www.lid1.se/erik/doma/map_images/323.jpg</href>
        </Icon>
        <LatLonBox>
          <north>58.797996563214</north>
          <south>58.770211319288</south>
          <east>16.70491024203</east>
          <west>16.631607315575</west>
          <rotation>-1.6997709362225</rotation>
        </LatLonBox>
      </GroundOverlay>
    </Folder>
  </Document>
</kml>
