<?xml version="1.0" encoding="utf-8"?>
<kml xmlns="http://www.opengis.net/kml/2.2">
  <Document>
  <name>Erik Martinsson: Ljungsbrokampen (2016-05-02)</name>
    <Folder>
      <GroundOverlay>
        <Icon>
          <href>http://www.lid1.se/erik/doma/map_images/324.jpg</href>
        </Icon>
        <LatLonBox>
          <north>58.610379314206</north>
          <south>58.583232964458</south>
          <east>15.411182877818</east>
          <west>15.375206195884</west>
          <rotation>0.44666405289116</rotation>
        </LatLonBox>
      </GroundOverlay>
    </Folder>
  </Document>
</kml>
