<?xml version="1.0" encoding="utf-8"?>
<kml xmlns="http://www.opengis.net/kml/2.2">
  <Document>
  <name>Erik Martinsson: O-ringen H21E2 E1 (2016-07-23)</name>
    <Folder>
      <GroundOverlay>
        <Icon>
          <href>http://www.lid1.se/erik/doma/map_images/335.jpg</href>
        </Icon>
        <LatLonBox>
          <north>61.203769224045</north>
          <south>61.152612405784</south>
          <east>13.151162588773</east>
          <west>13.082632429682</west>
          <rotation>1.7373304480945</rotation>
        </LatLonBox>
      </GroundOverlay>
    </Folder>
  </Document>
</kml>
