<?xml version="1.0" encoding="utf-8"?>
<kml xmlns="http://www.opengis.net/kml/2.2">
  <Document>
  <name>Erik Martinsson: Medel-DM Östergötland (2016-09-09)</name>
    <Folder>
      <GroundOverlay>
        <Icon>
          <href>http://www.lid1.se/erik/doma/map_images/351.jpg</href>
        </Icon>
        <LatLonBox>
          <north>58.617633706964</north>
          <south>58.590995349874</south>
          <east>15.229322021501</east>
          <west>15.15903917161</west>
          <rotation>-0.45133576827645</rotation>
        </LatLonBox>
      </GroundOverlay>
    </Folder>
  </Document>
</kml>
