<?xml version="1.0" encoding="utf-8"?>
<kml xmlns="http://www.opengis.net/kml/2.2">
  <Document>
  <name>Erik Martinsson: Närkekvartetten dag 2 (2013-05-09)</name>
    <Folder>
      <GroundOverlay>
        <Icon>
          <href>http://www.lid1.se/erik/doma/map_images/164.jpg</href>
        </Icon>
        <LatLonBox>
          <north>59.040104594368</north>
          <south>58.999065715306</south>
          <east>15.001122205149</east>
          <west>14.945966576556</west>
          <rotation>0.10808935093095</rotation>
        </LatLonBox>
      </GroundOverlay>
    </Folder>
  </Document>
</kml>
