<?xml version="1.0" encoding="utf-8"?>
<kml xmlns="http://www.opengis.net/kml/2.2">
  <Document>
  <name>Erik Martinsson: Smålandskavlen, str2 (2013-10-26)</name>
    <Folder>
      <GroundOverlay>
        <Icon>
          <href>http://www.lid1.se/erik/doma/map_images/190.jpg</href>
        </Icon>
        <LatLonBox>
          <north>57.257488231818</north>
          <south>57.230312738937</south>
          <east>16.510046806443</east>
          <west>16.444967968637</west>
          <rotation>-0.61944504327048</rotation>
        </LatLonBox>
      </GroundOverlay>
    </Folder>
  </Document>
</kml>
