<?xml version="1.0" encoding="utf-8"?>
<kml xmlns="http://www.opengis.net/kml/2.2">
  <Document>
  <name>Erik Martinsson: Novembersprinten, str6 (2013-11-02)</name>
    <Folder>
      <GroundOverlay>
        <Icon>
          <href>http://www.lid1.se/erik/doma/map_images/192.jpg</href>
        </Icon>
        <LatLonBox>
          <north>58.280872915856</north>
          <south>58.253396945531</south>
          <east>15.201754921684</east>
          <west>15.1657990227</west>
          <rotation>1.0998302576166</rotation>
        </LatLonBox>
      </GroundOverlay>
    </Folder>
  </Document>
</kml>
