<?xml version="1.0" encoding="utf-8"?>
<kml xmlns="http://www.opengis.net/kml/2.2">
  <Document>
  <name>Erik Martinsson: Björkforskampen (2013-04-27)</name>
    <Folder>
      <GroundOverlay>
        <Icon>
          <href>http://www.lid1.se/erik/doma/map_images/159.jpg</href>
        </Icon>
        <LatLonBox>
          <north>58.140578335444</north>
          <south>58.113645946221</south>
          <east>15.681291317791</east>
          <west>15.611445884964</west>
          <rotation>-0.66915537476741</rotation>
        </LatLonBox>
      </GroundOverlay>
    </Folder>
  </Document>
</kml>
