<?xml version="1.0" encoding="utf-8"?>
<kml xmlns="http://www.opengis.net/kml/2.2">
  <Document>
  <name>Erik Martinsson: Tjoget (2017-07-01)</name>
    <Folder>
      <GroundOverlay>
        <Icon>
          <href>http://www.lid1.se/erik/doma/map_images/381.jpg</href>
        </Icon>
        <LatLonBox>
          <north>56.778279231107</north>
          <south>56.75786131632</south>
          <east>15.201270105933</east>
          <west>15.161064152914</west>
          <rotation>-0.077723623706546</rotation>
        </LatLonBox>
      </GroundOverlay>
    </Folder>
  </Document>
</kml>
