<?xml version="1.0" encoding="utf-8"?>
<kml xmlns="http://www.opengis.net/kml/2.2">
  <Document>
  <name>Erik Martinsson: Sprint-SM Final (2017-06-02)</name>
    <Folder>
      <GroundOverlay>
        <Icon>
          <href>http://www.lid1.se/erik/doma/map_images/377.jpg</href>
        </Icon>
        <LatLonBox>
          <north>59.281047934902</north>
          <south>59.271330390594</south>
          <east>15.219136411342</east>
          <west>15.200573450796</west>
          <rotation>-0.33136339521537</rotation>
        </LatLonBox>
      </GroundOverlay>
    </Folder>
  </Document>
</kml>
