<?xml version="1.0" encoding="utf-8"?>
<kml xmlns="http://www.opengis.net/kml/2.2">
  <Document>
  <name>Erik Martinsson: Kolmårdskavlen (2017-04-16)</name>
    <Folder>
      <GroundOverlay>
        <Icon>
          <href>http://www.lid1.se/erik/doma/map_images/366.jpg</href>
        </Icon>
        <LatLonBox>
          <north>58.730440583393</north>
          <south>58.702642208202</south>
          <east>16.363705943429</east>
          <west>16.289898198222</west>
          <rotation>-0.9886641076603</rotation>
        </LatLonBox>
      </GroundOverlay>
    </Folder>
  </Document>
</kml>
