<?xml version="1.0" encoding="utf-8"?>
<kml xmlns="http://www.opengis.net/kml/2.2">
  <Document>
  <name>Erik Martinsson: TibroTrippeln - Lång (2017-04-07)</name>
    <Folder>
      <GroundOverlay>
        <Icon>
          <href>http://www.lid1.se/erik/doma/map_images/363.jpg</href>
        </Icon>
        <LatLonBox>
          <north>58.492666191482</north>
          <south>58.460367293403</south>
          <east>14.405339077713</east>
          <west>14.328070625962</west>
          <rotation>0.46829325713926</rotation>
        </LatLonBox>
      </GroundOverlay>
    </Folder>
  </Document>
</kml>
