<?xml version="1.0" encoding="utf-8"?>
<kml xmlns="http://www.opengis.net/kml/2.2">
  <Document>
  <name>Erik Martinsson: 10Mila str 2 (2017-04-28)</name>
    <Folder>
      <GroundOverlay>
        <Icon>
          <href>http://www.lid1.se/erik/doma/map_images/368.jpg</href>
        </Icon>
        <LatLonBox>
          <north>57.782235235762</north>
          <south>57.745597365751</south>
          <east>12.163910620564</east>
          <west>12.082457059773</west>
          <rotation>2.4488963018963</rotation>
        </LatLonBox>
      </GroundOverlay>
    </Folder>
  </Document>
</kml>
