<?xml version="1.0" encoding="utf-8"?>
<kml xmlns="http://www.opengis.net/kml/2.2">
  <Document>
  <name>Erik Martinsson: Jukola (2017-06-16)</name>
    <Folder>
      <GroundOverlay>
        <Icon>
          <href>http://www.lid1.se/erik/doma/map_images/380.jpg</href>
        </Icon>
        <LatLonBox>
          <north>62.795909545892</north>
          <south>62.754232278057</south>
          <east>30.225447102299</east>
          <west>30.147228770429</west>
          <rotation>-11.693011374901</rotation>
        </LatLonBox>
      </GroundOverlay>
    </Folder>
  </Document>
</kml>
