<?xml version="1.0" encoding="utf-8"?>
<kml xmlns="http://www.opengis.net/kml/2.2">
  <Document>
  <name>Erik Martinsson: Pekingduon medel (2017-05-19)</name>
    <Folder>
      <GroundOverlay>
        <Icon>
          <href>http://www.lid1.se/erik/doma/map_images/372.jpg</href>
        </Icon>
        <LatLonBox>
          <north>58.576528744975</north>
          <south>58.549139164226</south>
          <east>16.207125634203</east>
          <west>16.169862245338</west>
          <rotation>1.0006892602152</rotation>
        </LatLonBox>
      </GroundOverlay>
    </Folder>
  </Document>
</kml>
