<?xml version="1.0" encoding="utf-8"?>
<kml xmlns="http://www.opengis.net/kml/2.2">
  <Document>
  <name>Erik Martinsson: Ljungsbrokampen (2017-05-09)</name>
    <Folder>
      <GroundOverlay>
        <Icon>
          <href>http://www.lid1.se/erik/doma/map_images/369.jpg</href>
        </Icon>
        <LatLonBox>
          <north>58.590291022902</north>
          <south>58.57219174086</south>
          <east>15.496177470518</east>
          <west>15.464527360289</west>
          <rotation>-0.18809222925202</rotation>
        </LatLonBox>
      </GroundOverlay>
    </Folder>
  </Document>
</kml>
