<?xml version="1.0" encoding="utf-8"?>
<kml xmlns="http://www.opengis.net/kml/2.2">
  <Document>
  <name>Erik Martinsson: Kolmårdsträffen (2017-08-20)</name>
    <Folder>
      <GroundOverlay>
        <Icon>
          <href>http://www.lid1.se/erik/doma/map_images/390.jpg</href>
        </Icon>
        <LatLonBox>
          <north>58.741974326136</north>
          <south>58.70431935172</south>
          <east>16.215824620558</east>
          <west>16.165855870186</west>
          <rotation>0.27337656624585</rotation>
        </LatLonBox>
      </GroundOverlay>
    </Folder>
  </Document>
</kml>
