<?xml version="1.0" encoding="utf-8"?>
<kml xmlns="http://www.opengis.net/kml/2.2">
  <Document>
  <name>Erik Martinsson: Lång-DM (2017-09-10)</name>
    <Folder>
      <GroundOverlay>
        <Icon>
          <href>http://www.lid1.se/erik/doma/map_images/395.jpg</href>
        </Icon>
        <LatLonBox>
          <north>58.675097988084</north>
          <south>58.647495908121</south>
          <east>15.143353157916</east>
          <west>15.074611971933</west>
          <rotation>-3.3431067315572</rotation>
        </LatLonBox>
      </GroundOverlay>
    </Folder>
  </Document>
</kml>
