<?xml version="1.0" encoding="utf-8"?>
<kml xmlns="http://www.opengis.net/kml/2.2">
  <Document>
  <name>Erik Martinsson: IFK Mora Sprint (2017-05-26)</name>
    <Folder>
      <GroundOverlay>
        <Icon>
          <href>http://www.lid1.se/erik/doma/map_images/375.jpg</href>
        </Icon>
        <LatLonBox>
          <north>61.012499983948</north>
          <south>61.001585584561</south>
          <east>14.535254389991</east>
          <west>14.504215666907</west>
          <rotation>0.28710374825654</rotation>
        </LatLonBox>
      </GroundOverlay>
    </Folder>
  </Document>
</kml>
