<?xml version="1.0" encoding="utf-8"?>
<kml xmlns="http://www.opengis.net/kml/2.2">
  <Document>
  <name>Erik Martinsson: Lång-DM Östergötland (2015-09-05)</name>
    <Folder>
      <GroundOverlay>
        <Icon>
          <href>http://www.lid1.se/erik/doma/map_images/299.jpg</href>
        </Icon>
        <LatLonBox>
          <north>58.620375620067</north>
          <south>58.581327271967</south>
          <east>15.431546482128</east>
          <west>15.379966427632</west>
          <rotation>0.43847455143144</rotation>
        </LatLonBox>
      </GroundOverlay>
    </Folder>
  </Document>
</kml>
