<?xml version="1.0" encoding="utf-8"?>
<kml xmlns="http://www.opengis.net/kml/2.2">
  <Document>
  <name>Erik Martinsson: Smålandskavlen (2015-10-23)</name>
    <Folder>
      <GroundOverlay>
        <Icon>
          <href>http://www.lid1.se/erik/doma/map_images/306.jpg</href>
        </Icon>
        <LatLonBox>
          <north>57.784240854688</north>
          <south>57.745388442129</south>
          <east>14.280479302581</east>
          <west>14.230352069343</west>
          <rotation>0.52165678503112</rotation>
        </LatLonBox>
      </GroundOverlay>
    </Folder>
  </Document>
</kml>
