<?xml version="1.0" encoding="utf-8"?>
<kml xmlns="http://www.opengis.net/kml/2.2">
  <Document>
  <name>Erik Martinsson: 10Mila, str 3 (2015-05-08)</name>
    <Folder>
      <GroundOverlay>
        <Icon>
          <href>http://www.lid1.se/erik/doma/map_images/272.jpg</href>
        </Icon>
        <LatLonBox>
          <north>59.742770187555</north>
          <south>59.712319292341</south>
          <east>18.139063402813</east>
          <west>18.061622029127</west>
          <rotation>-2.5687556700064</rotation>
        </LatLonBox>
      </GroundOverlay>
    </Folder>
  </Document>
</kml>
