<?xml version="1.0" encoding="utf-8"?>
<kml xmlns="http://www.opengis.net/kml/2.2">
  <Document>
  <name>Erik Martinsson: Silva League #3, sprint (2015-05-13)</name>
    <Folder>
      <GroundOverlay>
        <Icon>
          <href>http://www.lid1.se/erik/doma/map_images/273.jpg</href>
        </Icon>
        <LatLonBox>
          <north>60.351631904253</north>
          <south>60.343951412576</south>
          <east>15.753704991584</east>
          <west>15.735635736388</west>
          <rotation>-0.89676162671078</rotation>
        </LatLonBox>
      </GroundOverlay>
    </Folder>
  </Document>
</kml>
