<?xml version="1.0" encoding="utf-8"?>
<kml xmlns="http://www.opengis.net/kml/2.2">
  <Document>
  <name>Erik Martinsson: TibroTrippeln, Natt (2015-04-09)</name>
    <Folder>
      <GroundOverlay>
        <Icon>
          <href>http://www.lid1.se/erik/doma/map_images/264.jpg</href>
        </Icon>
        <LatLonBox>
          <north>58.48348741153</north>
          <south>58.444612795764</south>
          <east>14.219768822155</east>
          <west>14.168536026708</west>
          <rotation>0.80863541221762</rotation>
        </LatLonBox>
      </GroundOverlay>
    </Folder>
  </Document>
</kml>
