<?xml version="1.0" encoding="utf-8"?>
<kml xmlns="http://www.opengis.net/kml/2.2">
  <Document>
  <name>Erik Martinsson: O-ringen E2, H21E (2015-07-19)</name>
    <Folder>
      <GroundOverlay>
        <Icon>
          <href>http://www.lid1.se/erik/doma/map_images/288.jpg</href>
        </Icon>
        <LatLonBox>
          <north>57.563903136138</north>
          <south>57.522299909111</south>
          <east>13.227718492228</east>
          <west>13.121706151682</west>
          <rotation>1.4543583930593</rotation>
        </LatLonBox>
      </GroundOverlay>
    </Folder>
  </Document>
</kml>
