<?xml version="1.0" encoding="utf-8"?>
<kml xmlns="http://www.opengis.net/kml/2.2">
  <Document>
  <name>Erik Martinsson: Gotland 3-dagars, E2 (2015-07-07)</name>
    <Folder>
      <GroundOverlay>
        <Icon>
          <href>http://www.lid1.se/erik/doma/map_images/283.jpg</href>
        </Icon>
        <LatLonBox>
          <north>57.97318212754</north>
          <south>57.953430390805</south>
          <east>19.361034200495</east>
          <west>19.310828295092</west>
          <rotation>-4.2011556268585</rotation>
        </LatLonBox>
      </GroundOverlay>
    </Folder>
  </Document>
</kml>
