<?xml version="1.0" encoding="UTF-8" ?>
<gpx xmlns="http://www.topografix.com/GPX/1/1" version="1.1" creator="Attackpoint - http://www.attackpoint.org" xmlns:xsi="http://www.w3.org/2001/XMLSchema-instance" xmlns:tp1="http://www.garmin.com/xmlschemas/TrackPointExtension/v1" xsi:schemaLocation="http://www.topografix.com/GPX/1/1 http://www.topografix.com/GPX/1/1/gpx.xsd http://www.garmin.com/xmlschemas/TrackPointExtension/v1 http://www.garmin.com/xmlschemas/TrackPointExtensionv1.xsd">
<trk>
<trkseg>
<trkpt lat="58.88387326" lon="14.9059617">
<ele>101.5</ele>
<time>2023-09-08T15:55:01Z</time>
<extensions>
<tp1:TrackPointExtension>
<tp1:hr>91</tp1:hr>
</tp1:TrackPointExtension>
</extensions>
</trkpt>
<trkpt lat="58.88387569" lon="14.90595373">
<ele>101.3</ele>
<time>2023-09-08T15:55:02Z</time>
<extensions>
<tp1:TrackPointExtension>
<tp1:hr>91</tp1:hr>
</tp1:TrackPointExtension>
</extensions>
</trkpt>
<trkpt lat="58.88387033" lon="14.90575852">
<ele>101.3</ele>
<time>2023-09-08T15:55:05Z</time>
<extensions>
<tp1:TrackPointExtension>
<tp1:hr>90</tp1:hr>
</tp1:TrackPointExtension>
</extensions>
</trkpt>
<trkpt lat="58.88386798" lon="14.90559021">
<ele>101.3</ele>
<time>2023-09-08T15:55:07Z</time>
<extensions>
<tp1:TrackPointExtension>
<tp1:hr>92</tp1:hr>
</tp1:TrackPointExtension>
</extensions>
</trkpt>
<trkpt lat="58.88384694" lon="14.90530606">
<ele>101.3</ele>
<time>2023-09-08T15:55:10Z</time>
<extensions>
<tp1:TrackPointExtension>
<tp1:hr>93</tp1:hr>
</tp1:TrackPointExtension>
</extensions>
</trkpt>
<trkpt lat="58.88381702" lon="14.90493617">
<ele>101.4</ele>
<time>2023-09-08T15:55:14Z</time>
<extensions>
<tp1:TrackPointExtension>
<tp1:hr>91</tp1:hr>
</tp1:TrackPointExtension>
</extensions>
</trkpt>
<trkpt lat="58.88380243" lon="14.90483953">
<ele>102.0</ele>
<time>2023-09-08T15:55:15Z</time>
<extensions>
<tp1:TrackPointExtension>
<tp1:hr>90</tp1:hr>
</tp1:TrackPointExtension>
</extensions>
</trkpt>
<trkpt lat="58.88378886" lon="14.90475059">
<ele>102.2</ele>
<time>2023-09-08T15:55:16Z</time>
<extensions>
<tp1:TrackPointExtension>
<tp1:hr>89</tp1:hr>
</tp1:TrackPointExtension>
</extensions>
</trkpt>
<trkpt lat="58.88374703" lon="14.90457491">
<ele>103.8</ele>
<time>2023-09-08T15:55:18Z</time>
<extensions>
<tp1:TrackPointExtension>
<tp1:hr>88</tp1:hr>
</tp1:TrackPointExtension>
</extensions>
</trkpt>
<trkpt lat="58.88372993" lon="14.90447299">
<ele>105.2</ele>
<time>2023-09-08T15:55:19Z</time>
<extensions>
<tp1:TrackPointExtension>
<tp1:hr>89</tp1:hr>
</tp1:TrackPointExtension>
</extensions>
</trkpt>
<trkpt lat="58.88369255" lon="14.90406169">
<ele>105.4</ele>
<time>2023-09-08T15:55:23Z</time>
<extensions>
<tp1:TrackPointExtension>
<tp1:hr>92</tp1:hr>
</tp1:TrackPointExtension>
</extensions>
</trkpt>
<trkpt lat="58.8836897" lon="14.90396437">
<ele>105.4</ele>
<time>2023-09-08T15:55:24Z</time>
<extensions>
<tp1:TrackPointExtension>
<tp1:hr>92</tp1:hr>
</tp1:TrackPointExtension>
</extensions>
</trkpt>
<trkpt lat="58.88368651" lon="14.90386823">
<ele>104.0</ele>
<time>2023-09-08T15:55:25Z</time>
<extensions>
<tp1:TrackPointExtension>
<tp1:hr>95</tp1:hr>
</tp1:TrackPointExtension>
</extensions>
</trkpt>
<trkpt lat="58.88368467" lon="14.90369456">
<ele>102.8</ele>
<time>2023-09-08T15:55:27Z</time>
<extensions>
<tp1:TrackPointExtension>
<tp1:hr>98</tp1:hr>
</tp1:TrackPointExtension>
</extensions>
</trkpt>
<trkpt lat="58.88367939" lon="14.90360152">
<ele>102.7</ele>
<time>2023-09-08T15:55:28Z</time>
<extensions>
<tp1:TrackPointExtension>
<tp1:hr>101</tp1:hr>
</tp1:TrackPointExtension>
</extensions>
</trkpt>
<trkpt lat="58.88366531" lon="14.90341787">
<ele>102.7</ele>
<time>2023-09-08T15:55:30Z</time>
<extensions>
<tp1:TrackPointExtension>
<tp1:hr>103</tp1:hr>
</tp1:TrackPointExtension>
</extensions>
</trkpt>
<trkpt lat="58.88361929" lon="14.90301219">
<ele>102.7</ele>
<time>2023-09-08T15:55:35Z</time>
<extensions>
<tp1:TrackPointExtension>
<tp1:hr>104</tp1:hr>
</tp1:TrackPointExtension>
</extensions>
</trkpt>
<trkpt lat="58.88358886" lon="14.90296391">
<ele>102.7</ele>
<time>2023-09-08T15:55:36Z</time>
<extensions>
<tp1:TrackPointExtension>
<tp1:hr>105</tp1:hr>
</tp1:TrackPointExtension>
</extensions>
</trkpt>
<trkpt lat="58.88354486" lon="14.90295787">
<ele>102.7</ele>
<time>2023-09-08T15:55:37Z</time>
<extensions>
<tp1:TrackPointExtension>
<tp1:hr>106</tp1:hr>
</tp1:TrackPointExtension>
</extensions>
</trkpt>
<trkpt lat="58.8835027" lon="14.9029645">
<ele>102.7</ele>
<time>2023-09-08T15:55:38Z</time>
<extensions>
<tp1:TrackPointExtension>
<tp1:hr>108</tp1:hr>
</tp1:TrackPointExtension>
</extensions>
</trkpt>
<trkpt lat="58.88346741" lon="14.90295804">
<ele>102.7</ele>
<time>2023-09-08T15:55:39Z</time>
<extensions>
<tp1:TrackPointExtension>
<tp1:hr>108</tp1:hr>
</tp1:TrackPointExtension>
</extensions>
</trkpt>
<trkpt lat="58.88339952" lon="14.90287959">
<ele>102.7</ele>
<time>2023-09-08T15:55:42Z</time>
<extensions>
<tp1:TrackPointExtension>
<tp1:hr>114</tp1:hr>
</tp1:TrackPointExtension>
</extensions>
</trkpt>
<trkpt lat="58.88339315" lon="14.90285913">
<ele>102.7</ele>
<time>2023-09-08T15:55:43Z</time>
<extensions>
<tp1:TrackPointExtension>
<tp1:hr>111</tp1:hr>
</tp1:TrackPointExtension>
</extensions>
</trkpt>
<trkpt lat="58.88338191" lon="14.90280264">
<ele>102.6</ele>
<time>2023-09-08T15:55:45Z</time>
<extensions>
<tp1:TrackPointExtension>
<tp1:hr>111</tp1:hr>
</tp1:TrackPointExtension>
</extensions>
</trkpt>
<trkpt lat="58.8833659" lon="14.90278621">
<ele>102.6</ele>
<time>2023-09-08T15:55:46Z</time>
<extensions>
<tp1:TrackPointExtension>
<tp1:hr>113</tp1:hr>
</tp1:TrackPointExtension>
</extensions>
</trkpt>
<trkpt lat="58.8833281" lon="14.90276635">
<ele>102.6</ele>
<time>2023-09-08T15:55:47Z</time>
<extensions>
<tp1:TrackPointExtension>
<tp1:hr>113</tp1:hr>
</tp1:TrackPointExtension>
</extensions>
</trkpt>
<trkpt lat="58.88324931" lon="14.90280725">
<ele>102.6</ele>
<time>2023-09-08T15:55:50Z</time>
<extensions>
<tp1:TrackPointExtension>
<tp1:hr>114</tp1:hr>
</tp1:TrackPointExtension>
</extensions>
</trkpt>
<trkpt lat="58.88306541" lon="14.90286274">
<ele>102.6</ele>
<time>2023-09-08T15:55:54Z</time>
<extensions>
<tp1:TrackPointExtension>
<tp1:hr>114</tp1:hr>
</tp1:TrackPointExtension>
</extensions>
</trkpt>
<trkpt lat="58.88301931" lon="14.90286056">
<ele>102.6</ele>
<time>2023-09-08T15:55:55Z</time>
<extensions>
<tp1:TrackPointExtension>
<tp1:hr>114</tp1:hr>
</tp1:TrackPointExtension>
</extensions>
</trkpt>
<trkpt lat="58.88284472" lon="14.90285545">
<ele>102.5</ele>
<time>2023-09-08T15:56:00Z</time>
<extensions>
<tp1:TrackPointExtension>
<tp1:hr>113</tp1:hr>
</tp1:TrackPointExtension>
</extensions>
</trkpt>
<trkpt lat="58.88280566" lon="14.90283114">
<ele>102.5</ele>
<time>2023-09-08T15:56:02Z</time>
<extensions>
<tp1:TrackPointExtension>
<tp1:hr>113</tp1:hr>
</tp1:TrackPointExtension>
</extensions>
</trkpt>
<trkpt lat="58.8827868" lon="14.90277439">
<ele>102.5</ele>
<time>2023-09-08T15:56:03Z</time>
<extensions>
<tp1:TrackPointExtension>
<tp1:hr>113</tp1:hr>
</tp1:TrackPointExtension>
</extensions>
</trkpt>
<trkpt lat="58.88272712" lon="14.9025045">
<ele>102.5</ele>
<time>2023-09-08T15:56:07Z</time>
<extensions>
<tp1:TrackPointExtension>
<tp1:hr>115</tp1:hr>
</tp1:TrackPointExtension>
</extensions>
</trkpt>
<trkpt lat="58.88268664" lon="14.9023817">
<ele>102.5</ele>
<time>2023-09-08T15:56:09Z</time>
<extensions>
<tp1:TrackPointExtension>
<tp1:hr>118</tp1:hr>
</tp1:TrackPointExtension>
</extensions>
</trkpt>
<trkpt lat="58.88266878" lon="14.90236921">
<ele>102.5</ele>
<time>2023-09-08T15:56:11Z</time>
<extensions>
<tp1:TrackPointExtension>
<tp1:hr>115</tp1:hr>
</tp1:TrackPointExtension>
</extensions>
</trkpt>
<trkpt lat="58.88268169" lon="14.90252503">
<ele>102.5</ele>
<time>2023-09-08T15:56:14Z</time>
<extensions>
<tp1:TrackPointExtension>
<tp1:hr>115</tp1:hr>
</tp1:TrackPointExtension>
</extensions>
</trkpt>
<trkpt lat="58.88266593" lon="14.90254758">
<ele>102.4</ele>
<time>2023-09-08T15:56:15Z</time>
<extensions>
<tp1:TrackPointExtension>
<tp1:hr>116</tp1:hr>
</tp1:TrackPointExtension>
</extensions>
</trkpt>
<trkpt lat="58.88265319" lon="14.90244968">
<ele>102.4</ele>
<time>2023-09-08T15:56:17Z</time>
<extensions>
<tp1:TrackPointExtension>
<tp1:hr>119</tp1:hr>
</tp1:TrackPointExtension>
</extensions>
</trkpt>
<trkpt lat="58.88264783" lon="14.90232739">
<ele>102.4</ele>
<time>2023-09-08T15:56:19Z</time>
<extensions>
<tp1:TrackPointExtension>
<tp1:hr>121</tp1:hr>
</tp1:TrackPointExtension>
</extensions>
</trkpt>
<trkpt lat="58.88266551" lon="14.90228204">
<ele>102.4</ele>
<time>2023-09-08T15:56:20Z</time>
<extensions>
<tp1:TrackPointExtension>
<tp1:hr>124</tp1:hr>
</tp1:TrackPointExtension>
</extensions>
</trkpt>
<trkpt lat="58.88269695" lon="14.90224466">
<ele>102.4</ele>
<time>2023-09-08T15:56:21Z</time>
<extensions>
<tp1:TrackPointExtension>
<tp1:hr>126</tp1:hr>
</tp1:TrackPointExtension>
</extensions>
</trkpt>
<trkpt lat="58.88286358" lon="14.90211566">
<ele>102.4</ele>
<time>2023-09-08T15:56:25Z</time>
<extensions>
<tp1:TrackPointExtension>
<tp1:hr>124</tp1:hr>
</tp1:TrackPointExtension>
</extensions>
</trkpt>
<trkpt lat="58.8828707" lon="14.90196663">
<ele>102.4</ele>
<time>2023-09-08T15:56:27Z</time>
<extensions>
<tp1:TrackPointExtension>
<tp1:hr>125</tp1:hr>
</tp1:TrackPointExtension>
</extensions>
</trkpt>
<trkpt lat="58.88286483" lon="14.90187376">
<ele>102.4</ele>
<time>2023-09-08T15:56:28Z</time>
<extensions>
<tp1:TrackPointExtension>
<tp1:hr>126</tp1:hr>
</tp1:TrackPointExtension>
</extensions>
</trkpt>
<trkpt lat="58.88284321" lon="14.90168508">
<ele>102.4</ele>
<time>2023-09-08T15:56:29Z</time>
<extensions>
<tp1:TrackPointExtension>
<tp1:hr>127</tp1:hr>
</tp1:TrackPointExtension>
</extensions>
</trkpt>
<trkpt lat="58.88280935" lon="14.90150051">
<ele>102.3</ele>
<time>2023-09-08T15:56:32Z</time>
<extensions>
<tp1:TrackPointExtension>
<tp1:hr>125</tp1:hr>
</tp1:TrackPointExtension>
</extensions>
</trkpt>
<trkpt lat="58.88279376" lon="14.90140814">
<ele>102.3</ele>
<time>2023-09-08T15:56:33Z</time>
<extensions>
<tp1:TrackPointExtension>
<tp1:hr>124</tp1:hr>
</tp1:TrackPointExtension>
</extensions>
</trkpt>
<trkpt lat="58.88277791" lon="14.90132449">
<ele>102.3</ele>
<time>2023-09-08T15:56:34Z</time>
<extensions>
<tp1:TrackPointExtension>
<tp1:hr>122</tp1:hr>
</tp1:TrackPointExtension>
</extensions>
</trkpt>
<trkpt lat="58.88275252" lon="14.90122265">
<ele>102.3</ele>
<time>2023-09-08T15:56:36Z</time>
<extensions>
<tp1:TrackPointExtension>
<tp1:hr>124</tp1:hr>
</tp1:TrackPointExtension>
</extensions>
</trkpt>
<trkpt lat="58.88273207" lon="14.90120539">
<ele>102.3</ele>
<time>2023-09-08T15:56:37Z</time>
<extensions>
<tp1:TrackPointExtension>
<tp1:hr>127</tp1:hr>
</tp1:TrackPointExtension>
</extensions>
</trkpt>
<trkpt lat="58.88266803" lon="14.90118577">
<ele>102.3</ele>
<time>2023-09-08T15:56:40Z</time>
<extensions>
<tp1:TrackPointExtension>
<tp1:hr>130</tp1:hr>
</tp1:TrackPointExtension>
</extensions>
</trkpt>
<trkpt lat="58.88260248" lon="14.90115979">
<ele>102.3</ele>
<time>2023-09-08T15:56:42Z</time>
<extensions>
<tp1:TrackPointExtension>
<tp1:hr>128</tp1:hr>
</tp1:TrackPointExtension>
</extensions>
</trkpt>
<trkpt lat="58.88253551" lon="14.90109567">
<ele>102.3</ele>
<time>2023-09-08T15:56:44Z</time>
<extensions>
<tp1:TrackPointExtension>
<tp1:hr>120</tp1:hr>
</tp1:TrackPointExtension>
</extensions>
</trkpt>
<trkpt lat="58.8824848" lon="14.90097212">
<ele>102.2</ele>
<time>2023-09-08T15:56:46Z</time>
<extensions>
<tp1:TrackPointExtension>
<tp1:hr>117</tp1:hr>
</tp1:TrackPointExtension>
</extensions>
</trkpt>
<trkpt lat="58.88240559" lon="14.90066517">
<ele>102.2</ele>
<time>2023-09-08T15:56:50Z</time>
<extensions>
<tp1:TrackPointExtension>
<tp1:hr>115</tp1:hr>
</tp1:TrackPointExtension>
</extensions>
</trkpt>
<trkpt lat="58.88237114" lon="14.90061019">
<ele>102.2</ele>
<time>2023-09-08T15:56:51Z</time>
<extensions>
<tp1:TrackPointExtension>
<tp1:hr>114</tp1:hr>
</tp1:TrackPointExtension>
</extensions>
</trkpt>
<trkpt lat="58.88233644" lon="14.9005557">
<ele>102.2</ele>
<time>2023-09-08T15:56:52Z</time>
<extensions>
<tp1:TrackPointExtension>
<tp1:hr>114</tp1:hr>
</tp1:TrackPointExtension>
</extensions>
</trkpt>
<trkpt lat="58.88228858" lon="14.90042444">
<ele>102.2</ele>
<time>2023-09-08T15:56:54Z</time>
<extensions>
<tp1:TrackPointExtension>
<tp1:hr>117</tp1:hr>
</tp1:TrackPointExtension>
</extensions>
</trkpt>
<trkpt lat="58.88226771" lon="14.90035311">
<ele>102.2</ele>
<time>2023-09-08T15:56:55Z</time>
<extensions>
<tp1:TrackPointExtension>
<tp1:hr>117</tp1:hr>
</tp1:TrackPointExtension>
</extensions>
</trkpt>
<trkpt lat="58.88224072" lon="14.90028455">
<ele>102.2</ele>
<time>2023-09-08T15:56:56Z</time>
<extensions>
<tp1:TrackPointExtension>
<tp1:hr>117</tp1:hr>
</tp1:TrackPointExtension>
</extensions>
</trkpt>
<trkpt lat="58.8821662" lon="14.90019394">
<ele>102.2</ele>
<time>2023-09-08T15:56:58Z</time>
<extensions>
<tp1:TrackPointExtension>
<tp1:hr>116</tp1:hr>
</tp1:TrackPointExtension>
</extensions>
</trkpt>
<trkpt lat="58.88208356" lon="14.90014097">
<ele>102.4</ele>
<time>2023-09-08T15:57:00Z</time>
<extensions>
<tp1:TrackPointExtension>
<tp1:hr>118</tp1:hr>
</tp1:TrackPointExtension>
</extensions>
</trkpt>
<trkpt lat="58.88203452" lon="14.90012756">
<ele>102.4</ele>
<time>2023-09-08T15:57:01Z</time>
<extensions>
<tp1:TrackPointExtension>
<tp1:hr>115</tp1:hr>
</tp1:TrackPointExtension>
</extensions>
</trkpt>
<trkpt lat="58.88198591" lon="14.90011741">
<ele>102.3</ele>
<time>2023-09-08T15:57:02Z</time>
<extensions>
<tp1:TrackPointExtension>
<tp1:hr>118</tp1:hr>
</tp1:TrackPointExtension>
</extensions>
</trkpt>
<trkpt lat="58.88178759" lon="14.90009269">
<ele>102.3</ele>
<time>2023-09-08T15:57:06Z</time>
<extensions>
<tp1:TrackPointExtension>
<tp1:hr>117</tp1:hr>
</tp1:TrackPointExtension>
</extensions>
</trkpt>
<trkpt lat="58.88174023" lon="14.90007517">
<ele>102.3</ele>
<time>2023-09-08T15:57:07Z</time>
<extensions>
<tp1:TrackPointExtension>
<tp1:hr>115</tp1:hr>
</tp1:TrackPointExtension>
</extensions>
</trkpt>
<trkpt lat="58.88166731" lon="14.9000206">
<ele>102.3</ele>
<time>2023-09-08T15:57:09Z</time>
<extensions>
<tp1:TrackPointExtension>
<tp1:hr>115</tp1:hr>
</tp1:TrackPointExtension>
</extensions>
</trkpt>
<trkpt lat="58.88164535" lon="14.89996696">
<ele>102.3</ele>
<time>2023-09-08T15:57:10Z</time>
<extensions>
<tp1:TrackPointExtension>
<tp1:hr>114</tp1:hr>
</tp1:TrackPointExtension>
</extensions>
</trkpt>
<trkpt lat="58.8816114" lon="14.89985322">
<ele>102.3</ele>
<time>2023-09-08T15:57:12Z</time>
<extensions>
<tp1:TrackPointExtension>
<tp1:hr>116</tp1:hr>
</tp1:TrackPointExtension>
</extensions>
</trkpt>
<trkpt lat="58.88158232" lon="14.89982665">
<ele>102.3</ele>
<time>2023-09-08T15:57:14Z</time>
<extensions>
<tp1:TrackPointExtension>
<tp1:hr>118</tp1:hr>
</tp1:TrackPointExtension>
</extensions>
</trkpt>
<trkpt lat="58.88145986" lon="14.89994123">
<ele>102.2</ele>
<time>2023-09-08T15:57:18Z</time>
<extensions>
<tp1:TrackPointExtension>
<tp1:hr>120</tp1:hr>
</tp1:TrackPointExtension>
</extensions>
</trkpt>
<trkpt lat="58.88142818" lon="14.89997475">
<ele>102.2</ele>
<time>2023-09-08T15:57:19Z</time>
<extensions>
<tp1:TrackPointExtension>
<tp1:hr>117</tp1:hr>
</tp1:TrackPointExtension>
</extensions>
</trkpt>
<trkpt lat="58.88135609" lon="14.9000139">
<ele>102.2</ele>
<time>2023-09-08T15:57:21Z</time>
<extensions>
<tp1:TrackPointExtension>
<tp1:hr>113</tp1:hr>
</tp1:TrackPointExtension>
</extensions>
</trkpt>
<trkpt lat="58.88132206" lon="14.90001976">
<ele>102.2</ele>
<time>2023-09-08T15:57:22Z</time>
<extensions>
<tp1:TrackPointExtension>
<tp1:hr>114</tp1:hr>
</tp1:TrackPointExtension>
</extensions>
</trkpt>
<trkpt lat="58.8812991" lon="14.89999889">
<ele>102.2</ele>
<time>2023-09-08T15:57:23Z</time>
<extensions>
<tp1:TrackPointExtension>
<tp1:hr>112</tp1:hr>
</tp1:TrackPointExtension>
</extensions>
</trkpt>
<trkpt lat="58.88126733" lon="14.89991801">
<ele>102.2</ele>
<time>2023-09-08T15:57:25Z</time>
<extensions>
<tp1:TrackPointExtension>
<tp1:hr>113</tp1:hr>
</tp1:TrackPointExtension>
</extensions>
</trkpt>
<trkpt lat="58.88125232" lon="14.89989513">
<ele>102.2</ele>
<time>2023-09-08T15:57:26Z</time>
<extensions>
<tp1:TrackPointExtension>
<tp1:hr>113</tp1:hr>
</tp1:TrackPointExtension>
</extensions>
</trkpt>
<trkpt lat="58.88121226" lon="14.89991331">
<ele>102.0</ele>
<time>2023-09-08T15:57:28Z</time>
<extensions>
<tp1:TrackPointExtension>
<tp1:hr>113</tp1:hr>
</tp1:TrackPointExtension>
</extensions>
</trkpt>
<trkpt lat="58.88120312" lon="14.89992547">
<ele>102.0</ele>
<time>2023-09-08T15:57:29Z</time>
<extensions>
<tp1:TrackPointExtension>
<tp1:hr>111</tp1:hr>
</tp1:TrackPointExtension>
</extensions>
</trkpt>
<trkpt lat="58.88120731" lon="14.89989663">
<ele>102.0</ele>
<time>2023-09-08T15:57:31Z</time>
<extensions>
<tp1:TrackPointExtension>
<tp1:hr>118</tp1:hr>
</tp1:TrackPointExtension>
</extensions>
</trkpt>
<trkpt lat="58.88128418" lon="14.89975649">
<ele>101.7</ele>
<time>2023-09-08T15:57:35Z</time>
<extensions>
<tp1:TrackPointExtension>
<tp1:hr>121</tp1:hr>
</tp1:TrackPointExtension>
</extensions>
</trkpt>
<trkpt lat="58.88142759" lon="14.89952649">
<ele>101.7</ele>
<time>2023-09-08T15:57:39Z</time>
<extensions>
<tp1:TrackPointExtension>
<tp1:hr>122</tp1:hr>
</tp1:TrackPointExtension>
</extensions>
</trkpt>
<trkpt lat="58.88145944" lon="14.89946865">
<ele>101.7</ele>
<time>2023-09-08T15:57:40Z</time>
<extensions>
<tp1:TrackPointExtension>
<tp1:hr>119</tp1:hr>
</tp1:TrackPointExtension>
</extensions>
</trkpt>
<trkpt lat="58.88151786" lon="14.89940302">
<ele>101.7</ele>
<time>2023-09-08T15:57:42Z</time>
<extensions>
<tp1:TrackPointExtension>
<tp1:hr>121</tp1:hr>
</tp1:TrackPointExtension>
</extensions>
</trkpt>
<trkpt lat="58.88155139" lon="14.89935701">
<ele>101.7</ele>
<time>2023-09-08T15:57:43Z</time>
<extensions>
<tp1:TrackPointExtension>
<tp1:hr>122</tp1:hr>
</tp1:TrackPointExtension>
</extensions>
</trkpt>
<trkpt lat="58.88158291" lon="14.89932591">
<ele>101.9</ele>
<time>2023-09-08T15:57:44Z</time>
<extensions>
<tp1:TrackPointExtension>
<tp1:hr>119</tp1:hr>
</tp1:TrackPointExtension>
</extensions>
</trkpt>
<trkpt lat="58.88162247" lon="14.8993234">
<ele>101.9</ele>
<time>2023-09-08T15:57:46Z</time>
<extensions>
<tp1:TrackPointExtension>
<tp1:hr>120</tp1:hr>
</tp1:TrackPointExtension>
</extensions>
</trkpt>
<trkpt lat="58.88163186" lon="14.89933454">
<ele>101.7</ele>
<time>2023-09-08T15:57:48Z</time>
<extensions>
<tp1:TrackPointExtension>
<tp1:hr>121</tp1:hr>
</tp1:TrackPointExtension>
</extensions>
</trkpt>
<trkpt lat="58.88163119" lon="14.89939791">
<ele>101.6</ele>
<time>2023-09-08T15:57:50Z</time>
<extensions>
<tp1:TrackPointExtension>
<tp1:hr>120</tp1:hr>
</tp1:TrackPointExtension>
</extensions>
</trkpt>
<trkpt lat="58.8816513" lon="14.89954208">
<ele>101.6</ele>
<time>2023-09-08T15:57:53Z</time>
<extensions>
<tp1:TrackPointExtension>
<tp1:hr>119</tp1:hr>
</tp1:TrackPointExtension>
</extensions>
</trkpt>
<trkpt lat="58.88165524" lon="14.89959078">
<ele>101.6</ele>
<time>2023-09-08T15:57:54Z</time>
<extensions>
<tp1:TrackPointExtension>
<tp1:hr>120</tp1:hr>
</tp1:TrackPointExtension>
</extensions>
</trkpt>
<trkpt lat="58.88166999" lon="14.89980259">
<ele>101.8</ele>
<time>2023-09-08T15:57:59Z</time>
<extensions>
<tp1:TrackPointExtension>
<tp1:hr>120</tp1:hr>
</tp1:TrackPointExtension>
</extensions>
</trkpt>
<trkpt lat="58.88168701" lon="14.90005396">
<ele>102.0</ele>
<time>2023-09-08T15:58:04Z</time>
<extensions>
<tp1:TrackPointExtension>
<tp1:hr>118</tp1:hr>
</tp1:TrackPointExtension>
</extensions>
</trkpt>
<trkpt lat="58.88164259" lon="14.90013611">
<ele>102.1</ele>
<time>2023-09-08T15:58:06Z</time>
<extensions>
<tp1:TrackPointExtension>
<tp1:hr>121</tp1:hr>
</tp1:TrackPointExtension>
</extensions>
</trkpt>
<trkpt lat="58.88161073" lon="14.90016519">
<ele>102.1</ele>
<time>2023-09-08T15:58:07Z</time>
<extensions>
<tp1:TrackPointExtension>
<tp1:hr>121</tp1:hr>
</tp1:TrackPointExtension>
</extensions>
</trkpt>
<trkpt lat="58.88150806" lon="14.90029159">
<ele>102.3</ele>
<time>2023-09-08T15:58:10Z</time>
<extensions>
<tp1:TrackPointExtension>
<tp1:hr>118</tp1:hr>
</tp1:TrackPointExtension>
</extensions>
</trkpt>
<trkpt lat="58.88143606" lon="14.90040064">
<ele>102.3</ele>
<time>2023-09-08T15:58:12Z</time>
<extensions>
<tp1:TrackPointExtension>
<tp1:hr>120</tp1:hr>
</tp1:TrackPointExtension>
</extensions>
</trkpt>
<trkpt lat="58.88135592" lon="14.90065687">
<ele>102.7</ele>
<time>2023-09-08T15:58:16Z</time>
<extensions>
<tp1:TrackPointExtension>
<tp1:hr>121</tp1:hr>
</tp1:TrackPointExtension>
</extensions>
</trkpt>
<trkpt lat="58.88137059" lon="14.90087992">
<ele>102.9</ele>
<time>2023-09-08T15:58:19Z</time>
<extensions>
<tp1:TrackPointExtension>
<tp1:hr>120</tp1:hr>
</tp1:TrackPointExtension>
</extensions>
</trkpt>
<trkpt lat="58.88137705" lon="14.90094504">
<ele>102.8</ele>
<time>2023-09-08T15:58:20Z</time>
<extensions>
<tp1:TrackPointExtension>
<tp1:hr>121</tp1:hr>
</tp1:TrackPointExtension>
</extensions>
</trkpt>
<trkpt lat="58.88139909" lon="14.90112903">
<ele>103.0</ele>
<time>2023-09-08T15:58:23Z</time>
<extensions>
<tp1:TrackPointExtension>
<tp1:hr>124</tp1:hr>
</tp1:TrackPointExtension>
</extensions>
</trkpt>
<trkpt lat="58.88141007" lon="14.90120505">
<ele>103.2</ele>
<time>2023-09-08T15:58:25Z</time>
<extensions>
<tp1:TrackPointExtension>
<tp1:hr>123</tp1:hr>
</tp1:TrackPointExtension>
</extensions>
</trkpt>
<trkpt lat="58.88142776" lon="14.90130035">
<ele>103.4</ele>
<time>2023-09-08T15:58:27Z</time>
<extensions>
<tp1:TrackPointExtension>
<tp1:hr>120</tp1:hr>
</tp1:TrackPointExtension>
</extensions>
</trkpt>
<trkpt lat="58.88144645" lon="14.90148107">
<ele>103.6</ele>
<time>2023-09-08T15:58:30Z</time>
<extensions>
<tp1:TrackPointExtension>
<tp1:hr>119</tp1:hr>
</tp1:TrackPointExtension>
</extensions>
</trkpt>
<trkpt lat="58.88144704" lon="14.9015964">
<ele>103.8</ele>
<time>2023-09-08T15:58:32Z</time>
<extensions>
<tp1:TrackPointExtension>
<tp1:hr>119</tp1:hr>
</tp1:TrackPointExtension>
</extensions>
</trkpt>
<trkpt lat="58.88143798" lon="14.90163479">
<ele>103.8</ele>
<time>2023-09-08T15:58:33Z</time>
<extensions>
<tp1:TrackPointExtension>
<tp1:hr>118</tp1:hr>
</tp1:TrackPointExtension>
</extensions>
</trkpt>
<trkpt lat="58.88140747" lon="14.90167561">
<ele>104.0</ele>
<time>2023-09-08T15:58:34Z</time>
<extensions>
<tp1:TrackPointExtension>
<tp1:hr>118</tp1:hr>
</tp1:TrackPointExtension>
</extensions>
</trkpt>
<trkpt lat="58.88136749" lon="14.90175817">
<ele>103.9</ele>
<time>2023-09-08T15:58:36Z</time>
<extensions>
<tp1:TrackPointExtension>
<tp1:hr>120</tp1:hr>
</tp1:TrackPointExtension>
</extensions>
</trkpt>
<trkpt lat="58.88135483" lon="14.9018502">
<ele>104.1</ele>
<time>2023-09-08T15:58:38Z</time>
<extensions>
<tp1:TrackPointExtension>
<tp1:hr>120</tp1:hr>
</tp1:TrackPointExtension>
</extensions>
</trkpt>
<trkpt lat="58.88131091" lon="14.90205254">
<ele>104.5</ele>
<time>2023-09-08T15:58:42Z</time>
<extensions>
<tp1:TrackPointExtension>
<tp1:hr>123</tp1:hr>
</tp1:TrackPointExtension>
</extensions>
</trkpt>
<trkpt lat="58.88129524" lon="14.90212144">
<ele>104.5</ele>
<time>2023-09-08T15:58:43Z</time>
<extensions>
<tp1:TrackPointExtension>
<tp1:hr>123</tp1:hr>
</tp1:TrackPointExtension>
</extensions>
</trkpt>
<trkpt lat="58.88127487" lon="14.90226427">
<ele>104.7</ele>
<time>2023-09-08T15:58:45Z</time>
<extensions>
<tp1:TrackPointExtension>
<tp1:hr>121</tp1:hr>
</tp1:TrackPointExtension>
</extensions>
</trkpt>
<trkpt lat="58.88127554" lon="14.90243367">
<ele>104.9</ele>
<time>2023-09-08T15:58:48Z</time>
<extensions>
<tp1:TrackPointExtension>
<tp1:hr>123</tp1:hr>
</tp1:TrackPointExtension>
</extensions>
</trkpt>
<trkpt lat="58.88127789" lon="14.90244088">
<ele>104.9</ele>
<time>2023-09-08T15:58:49Z</time>
<extensions>
<tp1:TrackPointExtension>
<tp1:hr>122</tp1:hr>
</tp1:TrackPointExtension>
</extensions>
</trkpt>
<trkpt lat="58.88130915" lon="14.9024397">
<ele>105.1</ele>
<time>2023-09-08T15:58:51Z</time>
<extensions>
<tp1:TrackPointExtension>
<tp1:hr>123</tp1:hr>
</tp1:TrackPointExtension>
</extensions>
</trkpt>
<trkpt lat="58.88132374" lon="14.90244775">
<ele>105.0</ele>
<time>2023-09-08T15:58:52Z</time>
<extensions>
<tp1:TrackPointExtension>
<tp1:hr>124</tp1:hr>
</tp1:TrackPointExtension>
</extensions>
</trkpt>
<trkpt lat="58.88136674" lon="14.90258421">
<ele>105.2</ele>
<time>2023-09-08T15:58:55Z</time>
<extensions>
<tp1:TrackPointExtension>
<tp1:hr>124</tp1:hr>
</tp1:TrackPointExtension>
</extensions>
</trkpt>
<trkpt lat="58.8814032" lon="14.90279451">
<ele>105.6</ele>
<time>2023-09-08T15:58:59Z</time>
<extensions>
<tp1:TrackPointExtension>
<tp1:hr>124</tp1:hr>
</tp1:TrackPointExtension>
</extensions>
</trkpt>
<trkpt lat="58.88142927" lon="14.90287372">
<ele>105.8</ele>
<time>2023-09-08T15:59:01Z</time>
<extensions>
<tp1:TrackPointExtension>
<tp1:hr>124</tp1:hr>
</tp1:TrackPointExtension>
</extensions>
</trkpt>
<trkpt lat="58.88145525" lon="14.9028909">
<ele>105.8</ele>
<time>2023-09-08T15:59:02Z</time>
<extensions>
<tp1:TrackPointExtension>
<tp1:hr>125</tp1:hr>
</tp1:TrackPointExtension>
</extensions>
</trkpt>
<trkpt lat="58.88155139" lon="14.90280574">
<ele>106.2</ele>
<time>2023-09-08T15:59:05Z</time>
<extensions>
<tp1:TrackPointExtension>
<tp1:hr>124</tp1:hr>
</tp1:TrackPointExtension>
</extensions>
</trkpt>
<trkpt lat="58.88162205" lon="14.90282267">
<ele>106.1</ele>
<time>2023-09-08T15:59:07Z</time>
<extensions>
<tp1:TrackPointExtension>
<tp1:hr>124</tp1:hr>
</tp1:TrackPointExtension>
</extensions>
</trkpt>
<trkpt lat="58.88164854" lon="14.9028816">
<ele>106.3</ele>
<time>2023-09-08T15:59:08Z</time>
<extensions>
<tp1:TrackPointExtension>
<tp1:hr>124</tp1:hr>
</tp1:TrackPointExtension>
</extensions>
</trkpt>
<trkpt lat="58.88177963" lon="14.90314487">
<ele>106.5</ele>
<time>2023-09-08T15:59:12Z</time>
<extensions>
<tp1:TrackPointExtension>
<tp1:hr>125</tp1:hr>
</tp1:TrackPointExtension>
</extensions>
</trkpt>
<trkpt lat="58.88181978" lon="14.90325744">
<ele>106.7</ele>
<time>2023-09-08T15:59:14Z</time>
<extensions>
<tp1:TrackPointExtension>
<tp1:hr>123</tp1:hr>
</tp1:TrackPointExtension>
</extensions>
</trkpt>
<trkpt lat="58.88192246" lon="14.90334369">
<ele>106.9</ele>
<time>2023-09-08T15:59:17Z</time>
<extensions>
<tp1:TrackPointExtension>
<tp1:hr>123</tp1:hr>
</tp1:TrackPointExtension>
</extensions>
</trkpt>
<trkpt lat="58.88196956" lon="14.9033447">
<ele>106.9</ele>
<time>2023-09-08T15:59:18Z</time>
<extensions>
<tp1:TrackPointExtension>
<tp1:hr>124</tp1:hr>
</tp1:TrackPointExtension>
</extensions>
</trkpt>
<trkpt lat="58.88205305" lon="14.9033659">
<ele>107.1</ele>
<time>2023-09-08T15:59:20Z</time>
<extensions>
<tp1:TrackPointExtension>
<tp1:hr>124</tp1:hr>
</tp1:TrackPointExtension>
</extensions>
</trkpt>
<trkpt lat="58.88208205" lon="14.90341569">
<ele>107.1</ele>
<time>2023-09-08T15:59:21Z</time>
<extensions>
<tp1:TrackPointExtension>
<tp1:hr>124</tp1:hr>
</tp1:TrackPointExtension>
</extensions>
</trkpt>
<trkpt lat="58.8821077" lon="14.9034483">
<ele>107.3</ele>
<time>2023-09-08T15:59:22Z</time>
<extensions>
<tp1:TrackPointExtension>
<tp1:hr>125</tp1:hr>
</tp1:TrackPointExtension>
</extensions>
</trkpt>
<trkpt lat="58.88212798" lon="14.90340027">
<ele>107.4</ele>
<time>2023-09-08T15:59:24Z</time>
<extensions>
<tp1:TrackPointExtension>
<tp1:hr>126</tp1:hr>
</tp1:TrackPointExtension>
</extensions>
</trkpt>
<trkpt lat="58.88214768" lon="14.90332089">
<ele>107.4</ele>
<time>2023-09-08T15:59:26Z</time>
<extensions>
<tp1:TrackPointExtension>
<tp1:hr>126</tp1:hr>
</tp1:TrackPointExtension>
</extensions>
</trkpt>
<trkpt lat="58.88215187" lon="14.90334269">
<ele>107.6</ele>
<time>2023-09-08T15:59:27Z</time>
<extensions>
<tp1:TrackPointExtension>
<tp1:hr>125</tp1:hr>
</tp1:TrackPointExtension>
</extensions>
</trkpt>
<trkpt lat="58.88218381" lon="14.9036218">
<ele>107.8</ele>
<time>2023-09-08T15:59:31Z</time>
<extensions>
<tp1:TrackPointExtension>
<tp1:hr>124</tp1:hr>
</tp1:TrackPointExtension>
</extensions>
</trkpt>
<trkpt lat="58.88217567" lon="14.90388097">
<ele>108.0</ele>
<time>2023-09-08T15:59:34Z</time>
<extensions>
<tp1:TrackPointExtension>
<tp1:hr>127</tp1:hr>
</tp1:TrackPointExtension>
</extensions>
</trkpt>
<trkpt lat="58.88214651" lon="14.90392615">
<ele>108.0</ele>
<time>2023-09-08T15:59:35Z</time>
<extensions>
<tp1:TrackPointExtension>
<tp1:hr>124</tp1:hr>
</tp1:TrackPointExtension>
</extensions>
</trkpt>
<trkpt lat="58.88196093" lon="14.90397125">
<ele>108.2</ele>
<time>2023-09-08T15:59:38Z</time>
<extensions>
<tp1:TrackPointExtension>
<tp1:hr>126</tp1:hr>
</tp1:TrackPointExtension>
</extensions>
</trkpt>
<trkpt lat="58.88192514" lon="14.90393311">
<ele>108.3</ele>
<time>2023-09-08T15:59:39Z</time>
<extensions>
<tp1:TrackPointExtension>
<tp1:hr>127</tp1:hr>
</tp1:TrackPointExtension>
</extensions>
</trkpt>
<trkpt lat="58.88188927" lon="14.90383152">
<ele>108.3</ele>
<time>2023-09-08T15:59:41Z</time>
<extensions>
<tp1:TrackPointExtension>
<tp1:hr>123</tp1:hr>
</tp1:TrackPointExtension>
</extensions>
</trkpt>
<trkpt lat="58.88188465" lon="14.90378877">
<ele>108.3</ele>
<time>2023-09-08T15:59:42Z</time>
<extensions>
<tp1:TrackPointExtension>
<tp1:hr>125</tp1:hr>
</tp1:TrackPointExtension>
</extensions>
</trkpt>
<trkpt lat="58.88188298" lon="14.90380151">
<ele>108.3</ele>
<time>2023-09-08T15:59:43Z</time>
<extensions>
<tp1:TrackPointExtension>
<tp1:hr>123</tp1:hr>
</tp1:TrackPointExtension>
</extensions>
</trkpt>
<trkpt lat="58.88188633" lon="14.90384116">
<ele>108.5</ele>
<time>2023-09-08T15:59:44Z</time>
<extensions>
<tp1:TrackPointExtension>
<tp1:hr>115</tp1:hr>
</tp1:TrackPointExtension>
</extensions>
</trkpt>
<trkpt lat="58.88188549" lon="14.90388399">
<ele>108.5</ele>
<time>2023-09-08T15:59:45Z</time>
<extensions>
<tp1:TrackPointExtension>
<tp1:hr>113</tp1:hr>
</tp1:TrackPointExtension>
</extensions>
</trkpt>
<trkpt lat="58.88189647" lon="14.90411039">
<ele>108.7</ele>
<time>2023-09-08T15:59:49Z</time>
<extensions>
<tp1:TrackPointExtension>
<tp1:hr>109</tp1:hr>
</tp1:TrackPointExtension>
</extensions>
</trkpt>
<trkpt lat="58.88186445" lon="14.90445237">
<ele>108.6</ele>
<time>2023-09-08T15:59:54Z</time>
<extensions>
<tp1:TrackPointExtension>
<tp1:hr>110</tp1:hr>
</tp1:TrackPointExtension>
</extensions>
</trkpt>
<trkpt lat="58.88180763" lon="14.90462596">
<ele>108.8</ele>
<time>2023-09-08T15:59:57Z</time>
<extensions>
<tp1:TrackPointExtension>
<tp1:hr>108</tp1:hr>
</tp1:TrackPointExtension>
</extensions>
</trkpt>
<trkpt lat="58.88177041" lon="14.90466644">
<ele>108.8</ele>
<time>2023-09-08T15:59:58Z</time>
<extensions>
<tp1:TrackPointExtension>
<tp1:hr>107</tp1:hr>
</tp1:TrackPointExtension>
</extensions>
</trkpt>
<trkpt lat="58.88159188" lon="14.90473735">
<ele>108.8</ele>
<time>2023-09-08T16:00:02Z</time>
<extensions>
<tp1:TrackPointExtension>
<tp1:hr>109</tp1:hr>
</tp1:TrackPointExtension>
</extensions>
</trkpt>
<trkpt lat="58.88154385" lon="14.90474448">
<ele>108.8</ele>
<time>2023-09-08T16:00:03Z</time>
<extensions>
<tp1:TrackPointExtension>
<tp1:hr>108</tp1:hr>
</tp1:TrackPointExtension>
</extensions>
</trkpt>
<trkpt lat="58.88144352" lon="14.90475604">
<ele>108.8</ele>
<time>2023-09-08T16:00:05Z</time>
<extensions>
<tp1:TrackPointExtension>
<tp1:hr>113</tp1:hr>
</tp1:TrackPointExtension>
</extensions>
</trkpt>
<trkpt lat="58.88139213" lon="14.90476501">
<ele>108.8</ele>
<time>2023-09-08T16:00:06Z</time>
<extensions>
<tp1:TrackPointExtension>
<tp1:hr>113</tp1:hr>
</tp1:TrackPointExtension>
</extensions>
</trkpt>
<trkpt lat="58.88128518" lon="14.90478446">
<ele>108.8</ele>
<time>2023-09-08T16:00:08Z</time>
<extensions>
<tp1:TrackPointExtension>
<tp1:hr>114</tp1:hr>
</tp1:TrackPointExtension>
</extensions>
</trkpt>
<trkpt lat="58.88123204" lon="14.90479661">
<ele>108.8</ele>
<time>2023-09-08T16:00:09Z</time>
<extensions>
<tp1:TrackPointExtension>
<tp1:hr>115</tp1:hr>
</tp1:TrackPointExtension>
</extensions>
</trkpt>
<trkpt lat="58.88118627" lon="14.90480449">
<ele>108.7</ele>
<time>2023-09-08T16:00:10Z</time>
<extensions>
<tp1:TrackPointExtension>
<tp1:hr>114</tp1:hr>
</tp1:TrackPointExtension>
</extensions>
</trkpt>
<trkpt lat="58.88110841" lon="14.90482771">
<ele>108.7</ele>
<time>2023-09-08T16:00:12Z</time>
<extensions>
<tp1:TrackPointExtension>
<tp1:hr>115</tp1:hr>
</tp1:TrackPointExtension>
</extensions>
</trkpt>
<trkpt lat="58.88105728" lon="14.90491278">
<ele>108.7</ele>
<time>2023-09-08T16:00:14Z</time>
<extensions>
<tp1:TrackPointExtension>
<tp1:hr>117</tp1:hr>
</tp1:TrackPointExtension>
</extensions>
</trkpt>
<trkpt lat="58.88104739" lon="14.90497221">
<ele>108.7</ele>
<time>2023-09-08T16:00:15Z</time>
<extensions>
<tp1:TrackPointExtension>
<tp1:hr>116</tp1:hr>
</tp1:TrackPointExtension>
</extensions>
</trkpt>
<trkpt lat="58.88108628" lon="14.90513474">
<ele>108.5</ele>
<time>2023-09-08T16:00:18Z</time>
<extensions>
<tp1:TrackPointExtension>
<tp1:hr>115</tp1:hr>
</tp1:TrackPointExtension>
</extensions>
</trkpt>
<trkpt lat="58.88113137" lon="14.90513541">
<ele>108.5</ele>
<time>2023-09-08T16:00:19Z</time>
<extensions>
<tp1:TrackPointExtension>
<tp1:hr>118</tp1:hr>
</tp1:TrackPointExtension>
</extensions>
</trkpt>
<trkpt lat="58.88120363" lon="14.90512233">
<ele>108.5</ele>
<time>2023-09-08T16:00:21Z</time>
<extensions>
<tp1:TrackPointExtension>
<tp1:hr>117</tp1:hr>
</tp1:TrackPointExtension>
</extensions>
</trkpt>
<trkpt lat="58.88119541" lon="14.90511999">
<ele>108.3</ele>
<time>2023-09-08T16:00:24Z</time>
<extensions>
<tp1:TrackPointExtension>
<tp1:hr>119</tp1:hr>
</tp1:TrackPointExtension>
</extensions>
</trkpt>
<trkpt lat="58.88117219" lon="14.90514547">
<ele>108.3</ele>
<time>2023-09-08T16:00:25Z</time>
<extensions>
<tp1:TrackPointExtension>
<tp1:hr>117</tp1:hr>
</tp1:TrackPointExtension>
</extensions>
</trkpt>
<trkpt lat="58.88113908" lon="14.90523255">
<ele>108.2</ele>
<time>2023-09-08T16:00:27Z</time>
<extensions>
<tp1:TrackPointExtension>
<tp1:hr>115</tp1:hr>
</tp1:TrackPointExtension>
</extensions>
</trkpt>
<trkpt lat="58.88114613" lon="14.90530866">
<ele>108.2</ele>
<time>2023-09-08T16:00:28Z</time>
<extensions>
<tp1:TrackPointExtension>
<tp1:hr>115</tp1:hr>
</tp1:TrackPointExtension>
</extensions>
</trkpt>
<trkpt lat="58.88115644" lon="14.90547521">
<ele>108.2</ele>
<time>2023-09-08T16:00:30Z</time>
<extensions>
<tp1:TrackPointExtension>
<tp1:hr>112</tp1:hr>
</tp1:TrackPointExtension>
</extensions>
</trkpt>
<trkpt lat="58.88119633" lon="14.90554361">
<ele>108.0</ele>
<time>2023-09-08T16:00:32Z</time>
<extensions>
<tp1:TrackPointExtension>
<tp1:hr>110</tp1:hr>
</tp1:TrackPointExtension>
</extensions>
</trkpt>
<trkpt lat="58.88133774" lon="14.90558476">
<ele>108.0</ele>
<time>2023-09-08T16:00:35Z</time>
<extensions>
<tp1:TrackPointExtension>
<tp1:hr>113</tp1:hr>
</tp1:TrackPointExtension>
</extensions>
</trkpt>
<trkpt lat="58.8815322" lon="14.90555643">
<ele>108.0</ele>
<time>2023-09-08T16:00:39Z</time>
<extensions>
<tp1:TrackPointExtension>
<tp1:hr>117</tp1:hr>
</tp1:TrackPointExtension>
</extensions>
</trkpt>
<trkpt lat="58.88168751" lon="14.90550279">
<ele>107.9</ele>
<time>2023-09-08T16:00:42Z</time>
<extensions>
<tp1:TrackPointExtension>
<tp1:hr>114</tp1:hr>
</tp1:TrackPointExtension>
</extensions>
</trkpt>
<trkpt lat="58.88172322" lon="14.90552466">
<ele>107.7</ele>
<time>2023-09-08T16:00:43Z</time>
<extensions>
<tp1:TrackPointExtension>
<tp1:hr>114</tp1:hr>
</tp1:TrackPointExtension>
</extensions>
</trkpt>
<trkpt lat="58.88175105" lon="14.90558225">
<ele>107.7</ele>
<time>2023-09-08T16:00:44Z</time>
<extensions>
<tp1:TrackPointExtension>
<tp1:hr>114</tp1:hr>
</tp1:TrackPointExtension>
</extensions>
</trkpt>
<trkpt lat="58.88178038" lon="14.90573237">
<ele>107.7</ele>
<time>2023-09-08T16:00:46Z</time>
<extensions>
<tp1:TrackPointExtension>
<tp1:hr>112</tp1:hr>
</tp1:TrackPointExtension>
</extensions>
</trkpt>
<trkpt lat="58.88179195" lon="14.90578978">
<ele>107.7</ele>
<time>2023-09-08T16:00:48Z</time>
<extensions>
<tp1:TrackPointExtension>
<tp1:hr>111</tp1:hr>
</tp1:TrackPointExtension>
</extensions>
</trkpt>
<trkpt lat="58.88178064" lon="14.90574779">
<ele>107.7</ele>
<time>2023-09-08T16:00:49Z</time>
<extensions>
<tp1:TrackPointExtension>
<tp1:hr>112</tp1:hr>
</tp1:TrackPointExtension>
</extensions>
</trkpt>
<trkpt lat="58.88173915" lon="14.90556465">
<ele>107.7</ele>
<time>2023-09-08T16:00:52Z</time>
<extensions>
<tp1:TrackPointExtension>
<tp1:hr>115</tp1:hr>
</tp1:TrackPointExtension>
</extensions>
</trkpt>
<trkpt lat="58.88169363" lon="14.90553179">
<ele>107.7</ele>
<time>2023-09-08T16:00:53Z</time>
<extensions>
<tp1:TrackPointExtension>
<tp1:hr>114</tp1:hr>
</tp1:TrackPointExtension>
</extensions>
</trkpt>
<trkpt lat="58.88165264" lon="14.90551528">
<ele>107.7</ele>
<time>2023-09-08T16:00:54Z</time>
<extensions>
<tp1:TrackPointExtension>
<tp1:hr>111</tp1:hr>
</tp1:TrackPointExtension>
</extensions>
</trkpt>
<trkpt lat="58.88152289" lon="14.90554989">
<ele>107.6</ele>
<time>2023-09-08T16:00:57Z</time>
<extensions>
<tp1:TrackPointExtension>
<tp1:hr>113</tp1:hr>
</tp1:TrackPointExtension>
</extensions>
</trkpt>
<trkpt lat="58.88143488" lon="14.90558652">
<ele>107.6</ele>
<time>2023-09-08T16:00:59Z</time>
<extensions>
<tp1:TrackPointExtension>
<tp1:hr>110</tp1:hr>
</tp1:TrackPointExtension>
</extensions>
</trkpt>
<trkpt lat="58.88130748" lon="14.90561955">
<ele>107.6</ele>
<time>2023-09-08T16:01:02Z</time>
<extensions>
<tp1:TrackPointExtension>
<tp1:hr>109</tp1:hr>
</tp1:TrackPointExtension>
</extensions>
</trkpt>
<trkpt lat="58.88122232" lon="14.90560505">
<ele>107.6</ele>
<time>2023-09-08T16:01:04Z</time>
<extensions>
<tp1:TrackPointExtension>
<tp1:hr>110</tp1:hr>
</tp1:TrackPointExtension>
</extensions>
</trkpt>
<trkpt lat="58.88115241" lon="14.90550371">
<ele>107.4</ele>
<time>2023-09-08T16:01:06Z</time>
<extensions>
<tp1:TrackPointExtension>
<tp1:hr>110</tp1:hr>
</tp1:TrackPointExtension>
</extensions>
</trkpt>
<trkpt lat="58.88106323" lon="14.90529886">
<ele>107.4</ele>
<time>2023-09-08T16:01:09Z</time>
<extensions>
<tp1:TrackPointExtension>
<tp1:hr>112</tp1:hr>
</tp1:TrackPointExtension>
</extensions>
</trkpt>
<trkpt lat="58.88103607" lon="14.90524446">
<ele>107.4</ele>
<time>2023-09-08T16:01:10Z</time>
<extensions>
<tp1:TrackPointExtension>
<tp1:hr>111</tp1:hr>
</tp1:TrackPointExtension>
</extensions>
</trkpt>
<trkpt lat="58.88100053" lon="14.90522409">
<ele>107.4</ele>
<time>2023-09-08T16:01:11Z</time>
<extensions>
<tp1:TrackPointExtension>
<tp1:hr>111</tp1:hr>
</tp1:TrackPointExtension>
</extensions>
</trkpt>
<trkpt lat="58.88091562" lon="14.90524789">
<ele>107.3</ele>
<time>2023-09-08T16:01:13Z</time>
<extensions>
<tp1:TrackPointExtension>
<tp1:hr>112</tp1:hr>
</tp1:TrackPointExtension>
</extensions>
</trkpt>
<trkpt lat="58.88077917" lon="14.90530171">
<ele>107.1</ele>
<time>2023-09-08T16:01:16Z</time>
<extensions>
<tp1:TrackPointExtension>
<tp1:hr>113</tp1:hr>
</tp1:TrackPointExtension>
</extensions>
</trkpt>
<trkpt lat="58.88068487" lon="14.90534781">
<ele>107.1</ele>
<time>2023-09-08T16:01:18Z</time>
<extensions>
<tp1:TrackPointExtension>
<tp1:hr>111</tp1:hr>
</tp1:TrackPointExtension>
</extensions>
</trkpt>
<trkpt lat="58.88055034" lon="14.9054219">
<ele>106.9</ele>
<time>2023-09-08T16:01:21Z</time>
<extensions>
<tp1:TrackPointExtension>
<tp1:hr>111</tp1:hr>
</tp1:TrackPointExtension>
</extensions>
</trkpt>
<trkpt lat="58.88047071" lon="14.90546926">
<ele>106.9</ele>
<time>2023-09-08T16:01:23Z</time>
<extensions>
<tp1:TrackPointExtension>
<tp1:hr>113</tp1:hr>
</tp1:TrackPointExtension>
</extensions>
</trkpt>
<trkpt lat="58.88032344" lon="14.90551452">
<ele>106.9</ele>
<time>2023-09-08T16:01:26Z</time>
<extensions>
<tp1:TrackPointExtension>
<tp1:hr>117</tp1:hr>
</tp1:TrackPointExtension>
</extensions>
</trkpt>
<trkpt lat="58.8802781" lon="14.90553112">
<ele>106.7</ele>
<time>2023-09-08T16:01:27Z</time>
<extensions>
<tp1:TrackPointExtension>
<tp1:hr>118</tp1:hr>
</tp1:TrackPointExtension>
</extensions>
</trkpt>
<trkpt lat="58.88023518" lon="14.90554017">
<ele>106.6</ele>
<time>2023-09-08T16:01:28Z</time>
<extensions>
<tp1:TrackPointExtension>
<tp1:hr>116</tp1:hr>
</tp1:TrackPointExtension>
</extensions>
</trkpt>
<trkpt lat="58.88013862" lon="14.90554545">
<ele>106.6</ele>
<time>2023-09-08T16:01:30Z</time>
<extensions>
<tp1:TrackPointExtension>
<tp1:hr>116</tp1:hr>
</tp1:TrackPointExtension>
</extensions>
</trkpt>
<trkpt lat="58.88007123" lon="14.90547437">
<ele>106.4</ele>
<time>2023-09-08T16:01:32Z</time>
<extensions>
<tp1:TrackPointExtension>
<tp1:hr>117</tp1:hr>
</tp1:TrackPointExtension>
</extensions>
</trkpt>
<trkpt lat="58.88001784" lon="14.90535644">
<ele>106.4</ele>
<time>2023-09-08T16:01:34Z</time>
<extensions>
<tp1:TrackPointExtension>
<tp1:hr>116</tp1:hr>
</tp1:TrackPointExtension>
</extensions>
</trkpt>
<trkpt lat="58.87994944" lon="14.90528109">
<ele>106.2</ele>
<time>2023-09-08T16:01:36Z</time>
<extensions>
<tp1:TrackPointExtension>
<tp1:hr>116</tp1:hr>
</tp1:TrackPointExtension>
</extensions>
</trkpt>
<trkpt lat="58.87988599" lon="14.90517338">
<ele>106.2</ele>
<time>2023-09-08T16:01:38Z</time>
<extensions>
<tp1:TrackPointExtension>
<tp1:hr>115</tp1:hr>
</tp1:TrackPointExtension>
</extensions>
</trkpt>
<trkpt lat="58.87984048" lon="14.90502259">
<ele>106.0</ele>
<time>2023-09-08T16:01:40Z</time>
<extensions>
<tp1:TrackPointExtension>
<tp1:hr>116</tp1:hr>
</tp1:TrackPointExtension>
</extensions>
</trkpt>
<trkpt lat="58.8797901" lon="14.90466502">
<ele>105.7</ele>
<time>2023-09-08T16:01:44Z</time>
<extensions>
<tp1:TrackPointExtension>
<tp1:hr>116</tp1:hr>
</tp1:TrackPointExtension>
</extensions>
</trkpt>
<trkpt lat="58.87982849" lon="14.90455396">
<ele>105.7</ele>
<time>2023-09-08T16:01:45Z</time>
<extensions>
<tp1:TrackPointExtension>
<tp1:hr>117</tp1:hr>
</tp1:TrackPointExtension>
</extensions>
</trkpt>
<trkpt lat="58.87982195" lon="14.90446896">
<ele>105.7</ele>
<time>2023-09-08T16:01:46Z</time>
<extensions>
<tp1:TrackPointExtension>
<tp1:hr>114</tp1:hr>
</tp1:TrackPointExtension>
</extensions>
</trkpt>
<trkpt lat="58.87981575" lon="14.90439294">
<ele>105.5</ele>
<time>2023-09-08T16:01:47Z</time>
<extensions>
<tp1:TrackPointExtension>
<tp1:hr>117</tp1:hr>
</tp1:TrackPointExtension>
</extensions>
</trkpt>
<trkpt lat="58.87981801" lon="14.90431717">
<ele>105.5</ele>
<time>2023-09-08T16:01:48Z</time>
<extensions>
<tp1:TrackPointExtension>
<tp1:hr>117</tp1:hr>
</tp1:TrackPointExtension>
</extensions>
</trkpt>
<trkpt lat="58.87982128" lon="14.90423921">
<ele>105.5</ele>
<time>2023-09-08T16:01:49Z</time>
<extensions>
<tp1:TrackPointExtension>
<tp1:hr>118</tp1:hr>
</tp1:TrackPointExtension>
</extensions>
</trkpt>
<trkpt lat="58.87982329" lon="14.90415892">
<ele>105.5</ele>
<time>2023-09-08T16:01:50Z</time>
<extensions>
<tp1:TrackPointExtension>
<tp1:hr>117</tp1:hr>
</tp1:TrackPointExtension>
</extensions>
</trkpt>
<trkpt lat="58.87982296" lon="14.90408876">
<ele>105.3</ele>
<time>2023-09-08T16:01:53Z</time>
<extensions>
<tp1:TrackPointExtension>
<tp1:hr>119</tp1:hr>
</tp1:TrackPointExtension>
</extensions>
</trkpt>
<trkpt lat="58.87983679" lon="14.90404886">
<ele>105.3</ele>
<time>2023-09-08T16:01:55Z</time>
<extensions>
<tp1:TrackPointExtension>
<tp1:hr>119</tp1:hr>
</tp1:TrackPointExtension>
</extensions>
</trkpt>
<trkpt lat="58.87977635" lon="14.90396236">
<ele>105.1</ele>
<time>2023-09-08T16:01:57Z</time>
<extensions>
<tp1:TrackPointExtension>
<tp1:hr>117</tp1:hr>
</tp1:TrackPointExtension>
</extensions>
</trkpt>
<trkpt lat="58.87979027" lon="14.9038601">
<ele>105.1</ele>
<time>2023-09-08T16:01:59Z</time>
<extensions>
<tp1:TrackPointExtension>
<tp1:hr>121</tp1:hr>
</tp1:TrackPointExtension>
</extensions>
</trkpt>
<trkpt lat="58.879802" lon="14.90376262">
<ele>105.0</ele>
<time>2023-09-08T16:02:01Z</time>
<extensions>
<tp1:TrackPointExtension>
<tp1:hr>120</tp1:hr>
</tp1:TrackPointExtension>
</extensions>
</trkpt>
<trkpt lat="58.8798072" lon="14.90347713">
<ele>104.8</ele>
<time>2023-09-08T16:02:04Z</time>
<extensions>
<tp1:TrackPointExtension>
<tp1:hr>123</tp1:hr>
</tp1:TrackPointExtension>
</extensions>
</trkpt>
<trkpt lat="58.87985045" lon="14.90341913">
<ele>104.8</ele>
<time>2023-09-08T16:02:05Z</time>
<extensions>
<tp1:TrackPointExtension>
<tp1:hr>124</tp1:hr>
</tp1:TrackPointExtension>
</extensions>
</trkpt>
<trkpt lat="58.8799258" lon="14.90335308">
<ele>104.8</ele>
<time>2023-09-08T16:02:08Z</time>
<extensions>
<tp1:TrackPointExtension>
<tp1:hr>124</tp1:hr>
</tp1:TrackPointExtension>
</extensions>
</trkpt>
<trkpt lat="58.8801113" lon="14.90328016">
<ele>104.6</ele>
<time>2023-09-08T16:02:12Z</time>
<extensions>
<tp1:TrackPointExtension>
<tp1:hr>126</tp1:hr>
</tp1:TrackPointExtension>
</extensions>
</trkpt>
<trkpt lat="58.88030291" lon="14.90321939">
<ele>104.5</ele>
<time>2023-09-08T16:02:17Z</time>
<extensions>
<tp1:TrackPointExtension>
<tp1:hr>123</tp1:hr>
</tp1:TrackPointExtension>
</extensions>
</trkpt>
<trkpt lat="58.88037491" lon="14.90314194">
<ele>104.3</ele>
<time>2023-09-08T16:02:19Z</time>
<extensions>
<tp1:TrackPointExtension>
<tp1:hr>123</tp1:hr>
</tp1:TrackPointExtension>
</extensions>
</trkpt>
<trkpt lat="58.88052662" lon="14.90311679">
<ele>104.3</ele>
<time>2023-09-08T16:02:23Z</time>
<extensions>
<tp1:TrackPointExtension>
<tp1:hr>123</tp1:hr>
</tp1:TrackPointExtension>
</extensions>
</trkpt>
<trkpt lat="58.88055772" lon="14.90309617">
<ele>104.3</ele>
<time>2023-09-08T16:02:24Z</time>
<extensions>
<tp1:TrackPointExtension>
<tp1:hr>121</tp1:hr>
</tp1:TrackPointExtension>
</extensions>
</trkpt>
<trkpt lat="58.88058747" lon="14.90301009">
<ele>104.3</ele>
<time>2023-09-08T16:02:26Z</time>
<extensions>
<tp1:TrackPointExtension>
<tp1:hr>122</tp1:hr>
</tp1:TrackPointExtension>
</extensions>
</trkpt>
<trkpt lat="58.88057884" lon="14.90293474">
<ele>104.3</ele>
<time>2023-09-08T16:02:27Z</time>
<extensions>
<tp1:TrackPointExtension>
<tp1:hr>122</tp1:hr>
</tp1:TrackPointExtension>
</extensions>
</trkpt>
<trkpt lat="58.88056694" lon="14.90275051">
<ele>104.2</ele>
<time>2023-09-08T16:02:31Z</time>
<extensions>
<tp1:TrackPointExtension>
<tp1:hr>121</tp1:hr>
</tp1:TrackPointExtension>
</extensions>
</trkpt>
<trkpt lat="58.88057607" lon="14.90258144">
<ele>104.0</ele>
<time>2023-09-08T16:02:35Z</time>
<extensions>
<tp1:TrackPointExtension>
<tp1:hr>122</tp1:hr>
</tp1:TrackPointExtension>
</extensions>
</trkpt>
<trkpt lat="58.88059979" lon="14.90227005">
<ele>104.0</ele>
<time>2023-09-08T16:02:39Z</time>
<extensions>
<tp1:TrackPointExtension>
<tp1:hr>121</tp1:hr>
</tp1:TrackPointExtension>
</extensions>
</trkpt>
<trkpt lat="58.88062578" lon="14.90222638">
<ele>104.0</ele>
<time>2023-09-08T16:02:40Z</time>
<extensions>
<tp1:TrackPointExtension>
<tp1:hr>122</tp1:hr>
</tp1:TrackPointExtension>
</extensions>
</trkpt>
<trkpt lat="58.88065637" lon="14.90214575">
<ele>104.0</ele>
<time>2023-09-08T16:02:42Z</time>
<extensions>
<tp1:TrackPointExtension>
<tp1:hr>122</tp1:hr>
</tp1:TrackPointExtension>
</extensions>
</trkpt>
<trkpt lat="58.88065687" lon="14.90204064">
<ele>104.0</ele>
<time>2023-09-08T16:02:44Z</time>
<extensions>
<tp1:TrackPointExtension>
<tp1:hr>121</tp1:hr>
</tp1:TrackPointExtension>
</extensions>
</trkpt>
<trkpt lat="58.88061807" lon="14.90199873">
<ele>104.0</ele>
<time>2023-09-08T16:02:46Z</time>
<extensions>
<tp1:TrackPointExtension>
<tp1:hr>122</tp1:hr>
</tp1:TrackPointExtension>
</extensions>
</trkpt>
<trkpt lat="58.88058789" lon="14.90202731">
<ele>103.9</ele>
<time>2023-09-08T16:02:47Z</time>
<extensions>
<tp1:TrackPointExtension>
<tp1:hr>121</tp1:hr>
</tp1:TrackPointExtension>
</extensions>
</trkpt>
<trkpt lat="58.88040684" lon="14.90215271">
<ele>103.9</ele>
<time>2023-09-08T16:02:51Z</time>
<extensions>
<tp1:TrackPointExtension>
<tp1:hr>125</tp1:hr>
</tp1:TrackPointExtension>
</extensions>
</trkpt>
<trkpt lat="58.88036183" lon="14.90217785">
<ele>103.9</ele>
<time>2023-09-08T16:02:52Z</time>
<extensions>
<tp1:TrackPointExtension>
<tp1:hr>123</tp1:hr>
</tp1:TrackPointExtension>
</extensions>
</trkpt>
<trkpt lat="58.88016268" lon="14.90223208">
<ele>103.9</ele>
<time>2023-09-08T16:02:56Z</time>
<extensions>
<tp1:TrackPointExtension>
<tp1:hr>121</tp1:hr>
</tp1:TrackPointExtension>
</extensions>
</trkpt>
<trkpt lat="58.88011666" lon="14.90224801">
<ele>103.9</ele>
<time>2023-09-08T16:02:57Z</time>
<extensions>
<tp1:TrackPointExtension>
<tp1:hr>122</tp1:hr>
</tp1:TrackPointExtension>
</extensions>
</trkpt>
<trkpt lat="58.87993519" lon="14.9023242">
<ele>103.7</ele>
<time>2023-09-08T16:03:01Z</time>
<extensions>
<tp1:TrackPointExtension>
<tp1:hr>120</tp1:hr>
</tp1:TrackPointExtension>
</extensions>
</trkpt>
<trkpt lat="58.87989186" lon="14.90230769">
<ele>103.6</ele>
<time>2023-09-08T16:03:02Z</time>
<extensions>
<tp1:TrackPointExtension>
<tp1:hr>121</tp1:hr>
</tp1:TrackPointExtension>
</extensions>
</trkpt>
<trkpt lat="58.87982799" lon="14.9022491">
<ele>103.6</ele>
<time>2023-09-08T16:03:04Z</time>
<extensions>
<tp1:TrackPointExtension>
<tp1:hr>120</tp1:hr>
</tp1:TrackPointExtension>
</extensions>
</trkpt>
<trkpt lat="58.87981642" lon="14.90215464">
<ele>103.4</ele>
<time>2023-09-08T16:03:05Z</time>
<extensions>
<tp1:TrackPointExtension>
<tp1:hr>120</tp1:hr>
</tp1:TrackPointExtension>
</extensions>
</trkpt>
<trkpt lat="58.87979572" lon="14.90198901">
<ele>103.4</ele>
<time>2023-09-08T16:03:07Z</time>
<extensions>
<tp1:TrackPointExtension>
<tp1:hr>122</tp1:hr>
</tp1:TrackPointExtension>
</extensions>
</trkpt>
<trkpt lat="58.87980536" lon="14.90156212">
<ele>103.4</ele>
<time>2023-09-08T16:03:11Z</time>
<extensions>
<tp1:TrackPointExtension>
<tp1:hr>124</tp1:hr>
</tp1:TrackPointExtension>
</extensions>
</trkpt>
<trkpt lat="58.87981458" lon="14.90141183">
<ele>103.2</ele>
<time>2023-09-08T16:03:13Z</time>
<extensions>
<tp1:TrackPointExtension>
<tp1:hr>122</tp1:hr>
</tp1:TrackPointExtension>
</extensions>
</trkpt>
<trkpt lat="58.87981927" lon="14.90134276">
<ele>103.2</ele>
<time>2023-09-08T16:03:14Z</time>
<extensions>
<tp1:TrackPointExtension>
<tp1:hr>119</tp1:hr>
</tp1:TrackPointExtension>
</extensions>
</trkpt>
<trkpt lat="58.87981407" lon="14.90128451">
<ele>103.2</ele>
<time>2023-09-08T16:03:15Z</time>
<extensions>
<tp1:TrackPointExtension>
<tp1:hr>118</tp1:hr>
</tp1:TrackPointExtension>
</extensions>
</trkpt>
<trkpt lat="58.87975054" lon="14.90107195">
<ele>102.9</ele>
<time>2023-09-08T16:03:18Z</time>
<extensions>
<tp1:TrackPointExtension>
<tp1:hr>115</tp1:hr>
</tp1:TrackPointExtension>
</extensions>
</trkpt>
<trkpt lat="58.8797373" lon="14.90098863">
<ele>102.9</ele>
<time>2023-09-08T16:03:19Z</time>
<extensions>
<tp1:TrackPointExtension>
<tp1:hr>117</tp1:hr>
</tp1:TrackPointExtension>
</extensions>
</trkpt>
<trkpt lat="58.87972296" lon="14.90089903">
<ele>102.9</ele>
<time>2023-09-08T16:03:20Z</time>
<extensions>
<tp1:TrackPointExtension>
<tp1:hr>117</tp1:hr>
</tp1:TrackPointExtension>
</extensions>
</trkpt>
<trkpt lat="58.87968633" lon="14.90073566">
<ele>102.7</ele>
<time>2023-09-08T16:03:22Z</time>
<extensions>
<tp1:TrackPointExtension>
<tp1:hr>116</tp1:hr>
</tp1:TrackPointExtension>
</extensions>
</trkpt>
<trkpt lat="58.87962867" lon="14.90065126">
<ele>102.5</ele>
<time>2023-09-08T16:03:24Z</time>
<extensions>
<tp1:TrackPointExtension>
<tp1:hr>117</tp1:hr>
</tp1:TrackPointExtension>
</extensions>
</trkpt>
<trkpt lat="58.87955004" lon="14.90067984">
<ele>102.5</ele>
<time>2023-09-08T16:03:26Z</time>
<extensions>
<tp1:TrackPointExtension>
<tp1:hr>118</tp1:hr>
</tp1:TrackPointExtension>
</extensions>
</trkpt>
<trkpt lat="58.87950629" lon="14.90070993">
<ele>102.3</ele>
<time>2023-09-08T16:03:27Z</time>
<extensions>
<tp1:TrackPointExtension>
<tp1:hr>118</tp1:hr>
</tp1:TrackPointExtension>
</extensions>
</trkpt>
<trkpt lat="58.87931971" lon="14.90082812">
<ele>102.1</ele>
<time>2023-09-08T16:03:31Z</time>
<extensions>
<tp1:TrackPointExtension>
<tp1:hr>119</tp1:hr>
</tp1:TrackPointExtension>
</extensions>
</trkpt>
<trkpt lat="58.87927411" lon="14.90084622">
<ele>102.1</ele>
<time>2023-09-08T16:03:32Z</time>
<extensions>
<tp1:TrackPointExtension>
<tp1:hr>118</tp1:hr>
</tp1:TrackPointExtension>
</extensions>
</trkpt>
<trkpt lat="58.8791452" lon="14.90089132">
<ele>101.8</ele>
<time>2023-09-08T16:03:35Z</time>
<extensions>
<tp1:TrackPointExtension>
<tp1:hr>120</tp1:hr>
</tp1:TrackPointExtension>
</extensions>
</trkpt>
<trkpt lat="58.87909541" lon="14.90088771">
<ele>101.8</ele>
<time>2023-09-08T16:03:36Z</time>
<extensions>
<tp1:TrackPointExtension>
<tp1:hr>117</tp1:hr>
</tp1:TrackPointExtension>
</extensions>
</trkpt>
<trkpt lat="58.87905601" lon="14.90089266">
<ele>101.8</ele>
<time>2023-09-08T16:03:37Z</time>
<extensions>
<tp1:TrackPointExtension>
<tp1:hr>118</tp1:hr>
</tp1:TrackPointExtension>
</extensions>
</trkpt>
<trkpt lat="58.87901486" lon="14.90089945">
<ele>101.8</ele>
<time>2023-09-08T16:03:38Z</time>
<extensions>
<tp1:TrackPointExtension>
<tp1:hr>119</tp1:hr>
</tp1:TrackPointExtension>
</extensions>
</trkpt>
<trkpt lat="58.87896935" lon="14.90091001">
<ele>101.6</ele>
<time>2023-09-08T16:03:39Z</time>
<extensions>
<tp1:TrackPointExtension>
<tp1:hr>119</tp1:hr>
</tp1:TrackPointExtension>
</extensions>
</trkpt>
<trkpt lat="58.87887656" lon="14.90095275">
<ele>101.6</ele>
<time>2023-09-08T16:03:41Z</time>
<extensions>
<tp1:TrackPointExtension>
<tp1:hr>119</tp1:hr>
</tp1:TrackPointExtension>
</extensions>
</trkpt>
<trkpt lat="58.87883104" lon="14.90098603">
<ele>101.6</ele>
<time>2023-09-08T16:03:42Z</time>
<extensions>
<tp1:TrackPointExtension>
<tp1:hr>119</tp1:hr>
</tp1:TrackPointExtension>
</extensions>
</trkpt>
<trkpt lat="58.87868646" lon="14.90115576">
<ele>101.2</ele>
<time>2023-09-08T16:03:46Z</time>
<extensions>
<tp1:TrackPointExtension>
<tp1:hr>113</tp1:hr>
</tp1:TrackPointExtension>
</extensions>
</trkpt>
<trkpt lat="58.87866944" lon="14.9012219">
<ele>101.2</ele>
<time>2023-09-08T16:03:47Z</time>
<extensions>
<tp1:TrackPointExtension>
<tp1:hr>116</tp1:hr>
</tp1:TrackPointExtension>
</extensions>
</trkpt>
<trkpt lat="58.87866324" lon="14.9013006">
<ele>101.2</ele>
<time>2023-09-08T16:03:48Z</time>
<extensions>
<tp1:TrackPointExtension>
<tp1:hr>116</tp1:hr>
</tp1:TrackPointExtension>
</extensions>
</trkpt>
<trkpt lat="58.87863675" lon="14.90146464">
<ele>100.9</ele>
<time>2023-09-08T16:03:50Z</time>
<extensions>
<tp1:TrackPointExtension>
<tp1:hr>116</tp1:hr>
</tp1:TrackPointExtension>
</extensions>
</trkpt>
<trkpt lat="58.87861144" lon="14.90152976">
<ele>100.9</ele>
<time>2023-09-08T16:03:51Z</time>
<extensions>
<tp1:TrackPointExtension>
<tp1:hr>120</tp1:hr>
</tp1:TrackPointExtension>
</extensions>
</trkpt>
<trkpt lat="58.87857959" lon="14.90158391">
<ele>100.9</ele>
<time>2023-09-08T16:03:52Z</time>
<extensions>
<tp1:TrackPointExtension>
<tp1:hr>118</tp1:hr>
</tp1:TrackPointExtension>
</extensions>
</trkpt>
<trkpt lat="58.87846752" lon="14.90168257">
<ele>100.7</ele>
<time>2023-09-08T16:03:55Z</time>
<extensions>
<tp1:TrackPointExtension>
<tp1:hr>119</tp1:hr>
</tp1:TrackPointExtension>
</extensions>
</trkpt>
<trkpt lat="58.87843651" lon="14.90178332">
<ele>100.7</ele>
<time>2023-09-08T16:03:57Z</time>
<extensions>
<tp1:TrackPointExtension>
<tp1:hr>119</tp1:hr>
</tp1:TrackPointExtension>
</extensions>
</trkpt>
<trkpt lat="58.87843785" lon="14.90184928">
<ele>100.5</ele>
<time>2023-09-08T16:03:58Z</time>
<extensions>
<tp1:TrackPointExtension>
<tp1:hr>122</tp1:hr>
</tp1:TrackPointExtension>
</extensions>
</trkpt>
<trkpt lat="58.87844254" lon="14.90190276">
<ele>100.5</ele>
<time>2023-09-08T16:03:59Z</time>
<extensions>
<tp1:TrackPointExtension>
<tp1:hr>122</tp1:hr>
</tp1:TrackPointExtension>
</extensions>
</trkpt>
<trkpt lat="58.87850348" lon="14.90194425">
<ele>100.5</ele>
<time>2023-09-08T16:04:01Z</time>
<extensions>
<tp1:TrackPointExtension>
<tp1:hr>125</tp1:hr>
</tp1:TrackPointExtension>
</extensions>
</trkpt>
<trkpt lat="58.87856551" lon="14.90199194">
<ele>100.3</ele>
<time>2023-09-08T16:04:03Z</time>
<extensions>
<tp1:TrackPointExtension>
<tp1:hr>124</tp1:hr>
</tp1:TrackPointExtension>
</extensions>
</trkpt>
<trkpt lat="58.87861731" lon="14.90212329">
<ele>100.2</ele>
<time>2023-09-08T16:04:05Z</time>
<extensions>
<tp1:TrackPointExtension>
<tp1:hr>123</tp1:hr>
</tp1:TrackPointExtension>
</extensions>
</trkpt>
<trkpt lat="58.87865813" lon="14.9021781">
<ele>100.2</ele>
<time>2023-09-08T16:04:07Z</time>
<extensions>
<tp1:TrackPointExtension>
<tp1:hr>122</tp1:hr>
</tp1:TrackPointExtension>
</extensions>
</trkpt>
<trkpt lat="58.87866592" lon="14.90214868">
<ele>100.2</ele>
<time>2023-09-08T16:04:08Z</time>
<extensions>
<tp1:TrackPointExtension>
<tp1:hr>121</tp1:hr>
</tp1:TrackPointExtension>
</extensions>
</trkpt>
<trkpt lat="58.87857766" lon="14.90197962">
<ele>100.2</ele>
<time>2023-09-08T16:04:11Z</time>
<extensions>
<tp1:TrackPointExtension>
<tp1:hr>120</tp1:hr>
</tp1:TrackPointExtension>
</extensions>
</trkpt>
<trkpt lat="58.87852611" lon="14.90195112">
<ele>100.2</ele>
<time>2023-09-08T16:04:12Z</time>
<extensions>
<tp1:TrackPointExtension>
<tp1:hr>121</tp1:hr>
</tp1:TrackPointExtension>
</extensions>
</trkpt>
<trkpt lat="58.87845453" lon="14.90192363">
<ele>100.0</ele>
<time>2023-09-08T16:04:15Z</time>
<extensions>
<tp1:TrackPointExtension>
<tp1:hr>120</tp1:hr>
</tp1:TrackPointExtension>
</extensions>
</trkpt>
<trkpt lat="58.8784153" lon="14.90187937">
<ele>100.0</ele>
<time>2023-09-08T16:04:16Z</time>
<extensions>
<tp1:TrackPointExtension>
<tp1:hr>121</tp1:hr>
</tp1:TrackPointExtension>
</extensions>
</trkpt>
<trkpt lat="58.87839485" lon="14.90171677">
<ele>100.0</ele>
<time>2023-09-08T16:04:18Z</time>
<extensions>
<tp1:TrackPointExtension>
<tp1:hr>122</tp1:hr>
</tp1:TrackPointExtension>
</extensions>
</trkpt>
<trkpt lat="58.87845704" lon="14.90157897">
<ele>100.0</ele>
<time>2023-09-08T16:04:20Z</time>
<extensions>
<tp1:TrackPointExtension>
<tp1:hr>123</tp1:hr>
</tp1:TrackPointExtension>
</extensions>
</trkpt>
<trkpt lat="58.87850884" lon="14.90153848">
<ele>99.9</ele>
<time>2023-09-08T16:04:21Z</time>
<extensions>
<tp1:TrackPointExtension>
<tp1:hr>123</tp1:hr>
</tp1:TrackPointExtension>
</extensions>
</trkpt>
<trkpt lat="58.87855511" lon="14.90149816">
<ele>99.7</ele>
<time>2023-09-08T16:04:22Z</time>
<extensions>
<tp1:TrackPointExtension>
<tp1:hr>121</tp1:hr>
</tp1:TrackPointExtension>
</extensions>
</trkpt>
<trkpt lat="58.87867355" lon="14.90138249">
<ele>99.7</ele>
<time>2023-09-08T16:04:25Z</time>
<extensions>
<tp1:TrackPointExtension>
<tp1:hr>120</tp1:hr>
</tp1:TrackPointExtension>
</extensions>
</trkpt>
<trkpt lat="58.87869853" lon="14.90136456">
<ele>99.5</ele>
<time>2023-09-08T16:04:27Z</time>
<extensions>
<tp1:TrackPointExtension>
<tp1:hr>123</tp1:hr>
</tp1:TrackPointExtension>
</extensions>
</trkpt>
<trkpt lat="58.87868939" lon="14.90137864">
<ele>99.5</ele>
<time>2023-09-08T16:04:28Z</time>
<extensions>
<tp1:TrackPointExtension>
<tp1:hr>125</tp1:hr>
</tp1:TrackPointExtension>
</extensions>
</trkpt>
<trkpt lat="58.87861085" lon="14.90137847">
<ele>99.5</ele>
<time>2023-09-08T16:04:30Z</time>
<extensions>
<tp1:TrackPointExtension>
<tp1:hr>126</tp1:hr>
</tp1:TrackPointExtension>
</extensions>
</trkpt>
<trkpt lat="58.87847724" lon="14.90130949">
<ele>99.3</ele>
<time>2023-09-08T16:04:33Z</time>
<extensions>
<tp1:TrackPointExtension>
<tp1:hr>127</tp1:hr>
</tp1:TrackPointExtension>
</extensions>
</trkpt>
<trkpt lat="58.87835965" lon="14.90131653">
<ele>99.3</ele>
<time>2023-09-08T16:04:35Z</time>
<extensions>
<tp1:TrackPointExtension>
<tp1:hr>127</tp1:hr>
</tp1:TrackPointExtension>
</extensions>
</trkpt>
<trkpt lat="58.87831321" lon="14.90132759">
<ele>99.2</ele>
<time>2023-09-08T16:04:36Z</time>
<extensions>
<tp1:TrackPointExtension>
<tp1:hr>126</tp1:hr>
</tp1:TrackPointExtension>
</extensions>
</trkpt>
<trkpt lat="58.87823517" lon="14.9012882">
<ele>99.0</ele>
<time>2023-09-08T16:04:38Z</time>
<extensions>
<tp1:TrackPointExtension>
<tp1:hr>124</tp1:hr>
</tp1:TrackPointExtension>
</extensions>
</trkpt>
<trkpt lat="58.87821162" lon="14.90124109">
<ele>99.0</ele>
<time>2023-09-08T16:04:39Z</time>
<extensions>
<tp1:TrackPointExtension>
<tp1:hr>124</tp1:hr>
</tp1:TrackPointExtension>
</extensions>
</trkpt>
<trkpt lat="58.87819704" lon="14.90119893">
<ele>99.0</ele>
<time>2023-09-08T16:04:40Z</time>
<extensions>
<tp1:TrackPointExtension>
<tp1:hr>124</tp1:hr>
</tp1:TrackPointExtension>
</extensions>
</trkpt>
<trkpt lat="58.87816887" lon="14.90121092">
<ele>98.8</ele>
<time>2023-09-08T16:04:42Z</time>
<extensions>
<tp1:TrackPointExtension>
<tp1:hr>125</tp1:hr>
</tp1:TrackPointExtension>
</extensions>
</trkpt>
<trkpt lat="58.87814297" lon="14.90124327">
<ele>98.8</ele>
<time>2023-09-08T16:04:43Z</time>
<extensions>
<tp1:TrackPointExtension>
<tp1:hr>129</tp1:hr>
</tp1:TrackPointExtension>
</extensions>
</trkpt>
<trkpt lat="58.87809042" lon="14.90133765">
<ele>98.8</ele>
<time>2023-09-08T16:04:45Z</time>
<extensions>
<tp1:TrackPointExtension>
<tp1:hr>133</tp1:hr>
</tp1:TrackPointExtension>
</extensions>
</trkpt>
<trkpt lat="58.87806443" lon="14.90139666">
<ele>98.6</ele>
<time>2023-09-08T16:04:46Z</time>
<extensions>
<tp1:TrackPointExtension>
<tp1:hr>136</tp1:hr>
</tp1:TrackPointExtension>
</extensions>
</trkpt>
<trkpt lat="58.87804608" lon="14.90146422">
<ele>98.6</ele>
<time>2023-09-08T16:04:47Z</time>
<extensions>
<tp1:TrackPointExtension>
<tp1:hr>138</tp1:hr>
</tp1:TrackPointExtension>
</extensions>
</trkpt>
<trkpt lat="58.87800668" lon="14.90161509">
<ele>98.6</ele>
<time>2023-09-08T16:04:49Z</time>
<extensions>
<tp1:TrackPointExtension>
<tp1:hr>140</tp1:hr>
</tp1:TrackPointExtension>
</extensions>
</trkpt>
<trkpt lat="58.87798497" lon="14.90167318">
<ele>98.6</ele>
<time>2023-09-08T16:04:50Z</time>
<extensions>
<tp1:TrackPointExtension>
<tp1:hr>138</tp1:hr>
</tp1:TrackPointExtension>
</extensions>
</trkpt>
<trkpt lat="58.87794617" lon="14.90176907">
<ele>98.3</ele>
<time>2023-09-08T16:04:53Z</time>
<extensions>
<tp1:TrackPointExtension>
<tp1:hr>141</tp1:hr>
</tp1:TrackPointExtension>
</extensions>
</trkpt>
<trkpt lat="58.87794139" lon="14.9018181">
<ele>98.3</ele>
<time>2023-09-08T16:04:54Z</time>
<extensions>
<tp1:TrackPointExtension>
<tp1:hr>140</tp1:hr>
</tp1:TrackPointExtension>
</extensions>
</trkpt>
<trkpt lat="58.87792144" lon="14.90193495">
<ele>98.1</ele>
<time>2023-09-08T16:04:56Z</time>
<extensions>
<tp1:TrackPointExtension>
<tp1:hr>141</tp1:hr>
</tp1:TrackPointExtension>
</extensions>
</trkpt>
<trkpt lat="58.87787861" lon="14.90217643">
<ele>98.1</ele>
<time>2023-09-08T16:04:59Z</time>
<extensions>
<tp1:TrackPointExtension>
<tp1:hr>141</tp1:hr>
</tp1:TrackPointExtension>
</extensions>
</trkpt>
<trkpt lat="58.87785874" lon="14.90226159">
<ele>97.9</ele>
<time>2023-09-08T16:05:00Z</time>
<extensions>
<tp1:TrackPointExtension>
<tp1:hr>141</tp1:hr>
</tp1:TrackPointExtension>
</extensions>
</trkpt>
<trkpt lat="58.87778674" lon="14.90249184">
<ele>97.9</ele>
<time>2023-09-08T16:05:03Z</time>
<extensions>
<tp1:TrackPointExtension>
<tp1:hr>138</tp1:hr>
</tp1:TrackPointExtension>
</extensions>
</trkpt>
<trkpt lat="58.87773712" lon="14.90262863">
<ele>97.7</ele>
<time>2023-09-08T16:05:05Z</time>
<extensions>
<tp1:TrackPointExtension>
<tp1:hr>139</tp1:hr>
</tp1:TrackPointExtension>
</extensions>
</trkpt>
<trkpt lat="58.87770502" lon="14.90273735">
<ele>97.7</ele>
<time>2023-09-08T16:05:07Z</time>
<extensions>
<tp1:TrackPointExtension>
<tp1:hr>137</tp1:hr>
</tp1:TrackPointExtension>
</extensions>
</trkpt>
<trkpt lat="58.87771047" lon="14.902808">
<ele>97.6</ele>
<time>2023-09-08T16:05:08Z</time>
<extensions>
<tp1:TrackPointExtension>
<tp1:hr>135</tp1:hr>
</tp1:TrackPointExtension>
</extensions>
</trkpt>
<trkpt lat="58.87776445" lon="14.90318351">
<ele>97.4</ele>
<time>2023-09-08T16:05:13Z</time>
<extensions>
<tp1:TrackPointExtension>
<tp1:hr>136</tp1:hr>
</tp1:TrackPointExtension>
</extensions>
</trkpt>
<trkpt lat="58.87782932" lon="14.90319751">
<ele>97.4</ele>
<time>2023-09-08T16:05:15Z</time>
<extensions>
<tp1:TrackPointExtension>
<tp1:hr>134</tp1:hr>
</tp1:TrackPointExtension>
</extensions>
</trkpt>
<trkpt lat="58.8779118" lon="14.90319533">
<ele>97.4</ele>
<time>2023-09-08T16:05:17Z</time>
<extensions>
<tp1:TrackPointExtension>
<tp1:hr>133</tp1:hr>
</tp1:TrackPointExtension>
</extensions>
</trkpt>
<trkpt lat="58.87800819" lon="14.90312333">
<ele>97.4</ele>
<time>2023-09-08T16:05:19Z</time>
<extensions>
<tp1:TrackPointExtension>
<tp1:hr>132</tp1:hr>
</tp1:TrackPointExtension>
</extensions>
</trkpt>
<trkpt lat="58.87812252" lon="14.90304664">
<ele>97.4</ele>
<time>2023-09-08T16:05:22Z</time>
<extensions>
<tp1:TrackPointExtension>
<tp1:hr>133</tp1:hr>
</tp1:TrackPointExtension>
</extensions>
</trkpt>
<trkpt lat="58.87819385" lon="14.90301671">
<ele>97.3</ele>
<time>2023-09-08T16:05:24Z</time>
<extensions>
<tp1:TrackPointExtension>
<tp1:hr>133</tp1:hr>
</tp1:TrackPointExtension>
</extensions>
</trkpt>
<trkpt lat="58.87824389" lon="14.90309559">
<ele>97.3</ele>
<time>2023-09-08T16:05:26Z</time>
<extensions>
<tp1:TrackPointExtension>
<tp1:hr>132</tp1:hr>
</tp1:TrackPointExtension>
</extensions>
</trkpt>
<trkpt lat="58.8781905" lon="14.90326608">
<ele>97.3</ele>
<time>2023-09-08T16:05:29Z</time>
<extensions>
<tp1:TrackPointExtension>
<tp1:hr>132</tp1:hr>
</tp1:TrackPointExtension>
</extensions>
</trkpt>
<trkpt lat="58.87817407" lon="14.90331343">
<ele>97.3</ele>
<time>2023-09-08T16:05:30Z</time>
<extensions>
<tp1:TrackPointExtension>
<tp1:hr>131</tp1:hr>
</tp1:TrackPointExtension>
</extensions>
</trkpt>
<trkpt lat="58.87813996" lon="14.9034742">
<ele>97.3</ele>
<time>2023-09-08T16:05:32Z</time>
<extensions>
<tp1:TrackPointExtension>
<tp1:hr>130</tp1:hr>
</tp1:TrackPointExtension>
</extensions>
</trkpt>
<trkpt lat="58.87812847" lon="14.90381551">
<ele>97.3</ele>
<time>2023-09-08T16:05:36Z</time>
<extensions>
<tp1:TrackPointExtension>
<tp1:hr>130</tp1:hr>
</tp1:TrackPointExtension>
</extensions>
</trkpt>
<trkpt lat="58.87813769" lon="14.90401031">
<ele>97.2</ele>
<time>2023-09-08T16:05:40Z</time>
<extensions>
<tp1:TrackPointExtension>
<tp1:hr>134</tp1:hr>
</tp1:TrackPointExtension>
</extensions>
</trkpt>
<trkpt lat="58.87813702" lon="14.90406705">
<ele>97.4</ele>
<time>2023-09-08T16:05:41Z</time>
<extensions>
<tp1:TrackPointExtension>
<tp1:hr>134</tp1:hr>
</tp1:TrackPointExtension>
</extensions>
</trkpt>
<trkpt lat="58.87807768" lon="14.9041186">
<ele>97.4</ele>
<time>2023-09-08T16:05:43Z</time>
<extensions>
<tp1:TrackPointExtension>
<tp1:hr>135</tp1:hr>
</tp1:TrackPointExtension>
</extensions>
</trkpt>
<trkpt lat="58.87788925" lon="14.9042015">
<ele>97.4</ele>
<time>2023-09-08T16:05:48Z</time>
<extensions>
<tp1:TrackPointExtension>
<tp1:hr>135</tp1:hr>
</tp1:TrackPointExtension>
</extensions>
</trkpt>
<trkpt lat="58.87780434" lon="14.90417602">
<ele>97.6</ele>
<time>2023-09-08T16:05:50Z</time>
<extensions>
<tp1:TrackPointExtension>
<tp1:hr>137</tp1:hr>
</tp1:TrackPointExtension>
</extensions>
</trkpt>
<trkpt lat="58.87777434" lon="14.90411357">
<ele>97.6</ele>
<time>2023-09-08T16:05:51Z</time>
<extensions>
<tp1:TrackPointExtension>
<tp1:hr>135</tp1:hr>
</tp1:TrackPointExtension>
</extensions>
</trkpt>
<trkpt lat="58.87771139" lon="14.90377075">
<ele>97.5</ele>
<time>2023-09-08T16:05:55Z</time>
<extensions>
<tp1:TrackPointExtension>
<tp1:hr>134</tp1:hr>
</tp1:TrackPointExtension>
</extensions>
</trkpt>
<trkpt lat="58.87767392" lon="14.90340312">
<ele>97.5</ele>
<time>2023-09-08T16:05:59Z</time>
<extensions>
<tp1:TrackPointExtension>
<tp1:hr>134</tp1:hr>
</tp1:TrackPointExtension>
</extensions>
</trkpt>
<trkpt lat="58.87765909" lon="14.90330371">
<ele>97.5</ele>
<time>2023-09-08T16:06:00Z</time>
<extensions>
<tp1:TrackPointExtension>
<tp1:hr>134</tp1:hr>
</tp1:TrackPointExtension>
</extensions>
</trkpt>
<trkpt lat="58.87762279" lon="14.90311042">
<ele>97.3</ele>
<time>2023-09-08T16:06:02Z</time>
<extensions>
<tp1:TrackPointExtension>
<tp1:hr>131</tp1:hr>
</tp1:TrackPointExtension>
</extensions>
</trkpt>
<trkpt lat="58.87758432" lon="14.90291018">
<ele>97.3</ele>
<time>2023-09-08T16:06:04Z</time>
<extensions>
<tp1:TrackPointExtension>
<tp1:hr>132</tp1:hr>
</tp1:TrackPointExtension>
</extensions>
</trkpt>
<trkpt lat="58.87757468" lon="14.90280842">
<ele>97.3</ele>
<time>2023-09-08T16:06:05Z</time>
<extensions>
<tp1:TrackPointExtension>
<tp1:hr>133</tp1:hr>
</tp1:TrackPointExtension>
</extensions>
</trkpt>
<trkpt lat="58.87756387" lon="14.90270935">
<ele>97.3</ele>
<time>2023-09-08T16:06:06Z</time>
<extensions>
<tp1:TrackPointExtension>
<tp1:hr>132</tp1:hr>
</tp1:TrackPointExtension>
</extensions>
</trkpt>
<trkpt lat="58.87752883" lon="14.90255898">
<ele>97.3</ele>
<time>2023-09-08T16:06:08Z</time>
<extensions>
<tp1:TrackPointExtension>
<tp1:hr>134</tp1:hr>
</tp1:TrackPointExtension>
</extensions>
</trkpt>
<trkpt lat="58.87749245" lon="14.90252738">
<ele>97.3</ele>
<time>2023-09-08T16:06:09Z</time>
<extensions>
<tp1:TrackPointExtension>
<tp1:hr>134</tp1:hr>
</tp1:TrackPointExtension>
</extensions>
</trkpt>
<trkpt lat="58.87745742" lon="14.90253769">
<ele>97.2</ele>
<time>2023-09-08T16:06:10Z</time>
<extensions>
<tp1:TrackPointExtension>
<tp1:hr>134</tp1:hr>
</tp1:TrackPointExtension>
</extensions>
</trkpt>
<trkpt lat="58.87740419" lon="14.90263768">
<ele>97.0</ele>
<time>2023-09-08T16:06:12Z</time>
<extensions>
<tp1:TrackPointExtension>
<tp1:hr>133</tp1:hr>
</tp1:TrackPointExtension>
</extensions>
</trkpt>
<trkpt lat="58.87729405" lon="14.90299358">
<ele>97.0</ele>
<time>2023-09-08T16:06:17Z</time>
<extensions>
<tp1:TrackPointExtension>
<tp1:hr>131</tp1:hr>
</tp1:TrackPointExtension>
</extensions>
</trkpt>
<trkpt lat="58.87726011" lon="14.90304932">
<ele>97.0</ele>
<time>2023-09-08T16:06:18Z</time>
<extensions>
<tp1:TrackPointExtension>
<tp1:hr>132</tp1:hr>
</tp1:TrackPointExtension>
</extensions>
</trkpt>
<trkpt lat="58.87723295" lon="14.90310883">
<ele>97.0</ele>
<time>2023-09-08T16:06:19Z</time>
<extensions>
<tp1:TrackPointExtension>
<tp1:hr>133</tp1:hr>
</tp1:TrackPointExtension>
</extensions>
</trkpt>
<trkpt lat="58.877212" lon="14.90325225">
<ele>97.0</ele>
<time>2023-09-08T16:06:21Z</time>
<extensions>
<tp1:TrackPointExtension>
<tp1:hr>132</tp1:hr>
</tp1:TrackPointExtension>
</extensions>
</trkpt>
<trkpt lat="58.87720856" lon="14.90332056">
<ele>97.0</ele>
<time>2023-09-08T16:06:23Z</time>
<extensions>
<tp1:TrackPointExtension>
<tp1:hr>132</tp1:hr>
</tp1:TrackPointExtension>
</extensions>
</trkpt>
<trkpt lat="58.87720185" lon="14.90329684">
<ele>97.0</ele>
<time>2023-09-08T16:06:24Z</time>
<extensions>
<tp1:TrackPointExtension>
<tp1:hr>131</tp1:hr>
</tp1:TrackPointExtension>
</extensions>
</trkpt>
<trkpt lat="58.87717126" lon="14.90309735">
<ele>96.7</ele>
<time>2023-09-08T16:06:27Z</time>
<extensions>
<tp1:TrackPointExtension>
<tp1:hr>131</tp1:hr>
</tp1:TrackPointExtension>
</extensions>
</trkpt>
<trkpt lat="58.87714989" lon="14.90304597">
<ele>96.7</ele>
<time>2023-09-08T16:06:28Z</time>
<extensions>
<tp1:TrackPointExtension>
<tp1:hr>133</tp1:hr>
</tp1:TrackPointExtension>
</extensions>
</trkpt>
<trkpt lat="58.87710446" lon="14.90306759">
<ele>96.7</ele>
<time>2023-09-08T16:06:30Z</time>
<extensions>
<tp1:TrackPointExtension>
<tp1:hr>132</tp1:hr>
</tp1:TrackPointExtension>
</extensions>
</trkpt>
<trkpt lat="58.8770519" lon="14.90328946">
<ele>96.5</ele>
<time>2023-09-08T16:06:33Z</time>
<extensions>
<tp1:TrackPointExtension>
<tp1:hr>135</tp1:hr>
</tp1:TrackPointExtension>
</extensions>
</trkpt>
<trkpt lat="58.87704788" lon="14.90337647">
<ele>96.5</ele>
<time>2023-09-08T16:06:34Z</time>
<extensions>
<tp1:TrackPointExtension>
<tp1:hr>135</tp1:hr>
</tp1:TrackPointExtension>
</extensions>
</trkpt>
<trkpt lat="58.87704645" lon="14.90371736">
<ele>96.5</ele>
<time>2023-09-08T16:06:38Z</time>
<extensions>
<tp1:TrackPointExtension>
<tp1:hr>135</tp1:hr>
</tp1:TrackPointExtension>
</extensions>
</trkpt>
<trkpt lat="58.87704478" lon="14.90387904">
<ele>96.3</ele>
<time>2023-09-08T16:06:40Z</time>
<extensions>
<tp1:TrackPointExtension>
<tp1:hr>132</tp1:hr>
</tp1:TrackPointExtension>
</extensions>
</trkpt>
<trkpt lat="58.87704419" lon="14.90396471">
<ele>96.3</ele>
<time>2023-09-08T16:06:41Z</time>
<extensions>
<tp1:TrackPointExtension>
<tp1:hr>132</tp1:hr>
</tp1:TrackPointExtension>
</extensions>
</trkpt>
<trkpt lat="58.87704184" lon="14.90403411">
<ele>96.2</ele>
<time>2023-09-08T16:06:42Z</time>
<extensions>
<tp1:TrackPointExtension>
<tp1:hr>131</tp1:hr>
</tp1:TrackPointExtension>
</extensions>
</trkpt>
<trkpt lat="58.87704478" lon="14.90407543">
<ele>96.2</ele>
<time>2023-09-08T16:06:43Z</time>
<extensions>
<tp1:TrackPointExtension>
<tp1:hr>130</tp1:hr>
</tp1:TrackPointExtension>
</extensions>
</trkpt>
<trkpt lat="58.87703933" lon="14.9041678">
<ele>96.0</ele>
<time>2023-09-08T16:06:45Z</time>
<extensions>
<tp1:TrackPointExtension>
<tp1:hr>129</tp1:hr>
</tp1:TrackPointExtension>
</extensions>
</trkpt>
<trkpt lat="58.87700463" lon="14.90447391">
<ele>96.0</ele>
<time>2023-09-08T16:06:49Z</time>
<extensions>
<tp1:TrackPointExtension>
<tp1:hr>129</tp1:hr>
</tp1:TrackPointExtension>
</extensions>
</trkpt>
<trkpt lat="58.87695719" lon="14.90478496">
<ele>95.8</ele>
<time>2023-09-08T16:06:53Z</time>
<extensions>
<tp1:TrackPointExtension>
<tp1:hr>131</tp1:hr>
</tp1:TrackPointExtension>
</extensions>
</trkpt>
<trkpt lat="58.87695132" lon="14.9048661">
<ele>95.8</ele>
<time>2023-09-08T16:06:54Z</time>
<extensions>
<tp1:TrackPointExtension>
<tp1:hr>130</tp1:hr>
</tp1:TrackPointExtension>
</extensions>
</trkpt>
<trkpt lat="58.87694076" lon="14.90495059">
<ele>95.8</ele>
<time>2023-09-08T16:06:55Z</time>
<extensions>
<tp1:TrackPointExtension>
<tp1:hr>129</tp1:hr>
</tp1:TrackPointExtension>
</extensions>
</trkpt>
<trkpt lat="58.87688418" lon="14.90533984">
<ele>95.5</ele>
<time>2023-09-08T16:07:00Z</time>
<extensions>
<tp1:TrackPointExtension>
<tp1:hr>129</tp1:hr>
</tp1:TrackPointExtension>
</extensions>
</trkpt>
<trkpt lat="58.87686113" lon="14.90557881">
<ele>95.5</ele>
<time>2023-09-08T16:07:03Z</time>
<extensions>
<tp1:TrackPointExtension>
<tp1:hr>129</tp1:hr>
</tp1:TrackPointExtension>
</extensions>
</trkpt>
<trkpt lat="58.87685895" lon="14.90572658">
<ele>95.5</ele>
<time>2023-09-08T16:07:05Z</time>
<extensions>
<tp1:TrackPointExtension>
<tp1:hr>129</tp1:hr>
</tp1:TrackPointExtension>
</extensions>
</trkpt>
<trkpt lat="58.87688234" lon="14.90585323">
<ele>95.3</ele>
<time>2023-09-08T16:07:07Z</time>
<extensions>
<tp1:TrackPointExtension>
<tp1:hr>129</tp1:hr>
</tp1:TrackPointExtension>
</extensions>
</trkpt>
<trkpt lat="58.87689524" lon="14.90594351">
<ele>95.3</ele>
<time>2023-09-08T16:07:09Z</time>
<extensions>
<tp1:TrackPointExtension>
<tp1:hr>128</tp1:hr>
</tp1:TrackPointExtension>
</extensions>
</trkpt>
<trkpt lat="58.87683783" lon="14.90611995">
<ele>95.3</ele>
<time>2023-09-08T16:07:12Z</time>
<extensions>
<tp1:TrackPointExtension>
<tp1:hr>128</tp1:hr>
</tp1:TrackPointExtension>
</extensions>
</trkpt>
<trkpt lat="58.87682408" lon="14.90619798">
<ele>95.2</ele>
<time>2023-09-08T16:07:13Z</time>
<extensions>
<tp1:TrackPointExtension>
<tp1:hr>128</tp1:hr>
</tp1:TrackPointExtension>
</extensions>
</trkpt>
<trkpt lat="58.87682115" lon="14.90628457">
<ele>95.2</ele>
<time>2023-09-08T16:07:14Z</time>
<extensions>
<tp1:TrackPointExtension>
<tp1:hr>133</tp1:hr>
</tp1:TrackPointExtension>
</extensions>
</trkpt>
<trkpt lat="58.8768219" lon="14.90638255">
<ele>95.2</ele>
<time>2023-09-08T16:07:15Z</time>
<extensions>
<tp1:TrackPointExtension>
<tp1:hr>132</tp1:hr>
</tp1:TrackPointExtension>
</extensions>
</trkpt>
<trkpt lat="58.87683439" lon="14.90653343">
<ele>95.2</ele>
<time>2023-09-08T16:07:17Z</time>
<extensions>
<tp1:TrackPointExtension>
<tp1:hr>133</tp1:hr>
</tp1:TrackPointExtension>
</extensions>
</trkpt>
<trkpt lat="58.87688686" lon="14.90674398">
<ele>95.2</ele>
<time>2023-09-08T16:07:20Z</time>
<extensions>
<tp1:TrackPointExtension>
<tp1:hr>135</tp1:hr>
</tp1:TrackPointExtension>
</extensions>
</trkpt>
<trkpt lat="58.87698719" lon="14.90707347">
<ele>95.0</ele>
<time>2023-09-08T16:07:25Z</time>
<extensions>
<tp1:TrackPointExtension>
<tp1:hr>137</tp1:hr>
</tp1:TrackPointExtension>
</extensions>
</trkpt>
<trkpt lat="58.87707923" lon="14.90723717">
<ele>95.0</ele>
<time>2023-09-08T16:07:28Z</time>
<extensions>
<tp1:TrackPointExtension>
<tp1:hr>137</tp1:hr>
</tp1:TrackPointExtension>
</extensions>
</trkpt>
<trkpt lat="58.87714377" lon="14.90731093">
<ele>94.9</ele>
<time>2023-09-08T16:07:30Z</time>
<extensions>
<tp1:TrackPointExtension>
<tp1:hr>138</tp1:hr>
</tp1:TrackPointExtension>
</extensions>
</trkpt>
<trkpt lat="58.87717361" lon="14.90733222">
<ele>94.9</ele>
<time>2023-09-08T16:07:32Z</time>
<extensions>
<tp1:TrackPointExtension>
<tp1:hr>138</tp1:hr>
</tp1:TrackPointExtension>
</extensions>
</trkpt>
<trkpt lat="58.87717654" lon="14.90729299">
<ele>94.9</ele>
<time>2023-09-08T16:07:33Z</time>
<extensions>
<tp1:TrackPointExtension>
<tp1:hr>137</tp1:hr>
</tp1:TrackPointExtension>
</extensions>
</trkpt>
<trkpt lat="58.87718501" lon="14.90712846">
<ele>94.9</ele>
<time>2023-09-08T16:07:36Z</time>
<extensions>
<tp1:TrackPointExtension>
<tp1:hr>134</tp1:hr>
</tp1:TrackPointExtension>
</extensions>
</trkpt>
<trkpt lat="58.87720311" lon="14.90703081">
<ele>94.9</ele>
<time>2023-09-08T16:07:38Z</time>
<extensions>
<tp1:TrackPointExtension>
<tp1:hr>131</tp1:hr>
</tp1:TrackPointExtension>
</extensions>
</trkpt>
<trkpt lat="58.87728609" lon="14.90678765">
<ele>94.9</ele>
<time>2023-09-08T16:07:43Z</time>
<extensions>
<tp1:TrackPointExtension>
<tp1:hr>130</tp1:hr>
</tp1:TrackPointExtension>
</extensions>
</trkpt>
<trkpt lat="58.87746027" lon="14.90663661">
<ele>95.0</ele>
<time>2023-09-08T16:07:48Z</time>
<extensions>
<tp1:TrackPointExtension>
<tp1:hr>129</tp1:hr>
</tp1:TrackPointExtension>
</extensions>
</trkpt>
<trkpt lat="58.87765883" lon="14.90655078">
<ele>95.2</ele>
<time>2023-09-08T16:07:53Z</time>
<extensions>
<tp1:TrackPointExtension>
<tp1:hr>133</tp1:hr>
</tp1:TrackPointExtension>
</extensions>
</trkpt>
<trkpt lat="58.87768717" lon="14.90657701">
<ele>95.2</ele>
<time>2023-09-08T16:07:54Z</time>
<extensions>
<tp1:TrackPointExtension>
<tp1:hr>133</tp1:hr>
</tp1:TrackPointExtension>
</extensions>
</trkpt>
<trkpt lat="58.8777165" lon="14.90668003">
<ele>95.4</ele>
<time>2023-09-08T16:07:56Z</time>
<extensions>
<tp1:TrackPointExtension>
<tp1:hr>137</tp1:hr>
</tp1:TrackPointExtension>
</extensions>
</trkpt>
<trkpt lat="58.87772874" lon="14.90675705">
<ele>95.4</ele>
<time>2023-09-08T16:07:58Z</time>
<extensions>
<tp1:TrackPointExtension>
<tp1:hr>140</tp1:hr>
</tp1:TrackPointExtension>
</extensions>
</trkpt>
<trkpt lat="58.87775858" lon="14.90692788">
<ele>95.3</ele>
<time>2023-09-08T16:08:03Z</time>
<extensions>
<tp1:TrackPointExtension>
<tp1:hr>141</tp1:hr>
</tp1:TrackPointExtension>
</extensions>
</trkpt>
<trkpt lat="58.87776864" lon="14.907036">
<ele>95.3</ele>
<time>2023-09-08T16:08:05Z</time>
<extensions>
<tp1:TrackPointExtension>
<tp1:hr>142</tp1:hr>
</tp1:TrackPointExtension>
</extensions>
</trkpt>
<trkpt lat="58.87778138" lon="14.9070676">
<ele>95.3</ele>
<time>2023-09-08T16:08:06Z</time>
<extensions>
<tp1:TrackPointExtension>
<tp1:hr>142</tp1:hr>
</tp1:TrackPointExtension>
</extensions>
</trkpt>
<trkpt lat="58.87788766" lon="14.90703466">
<ele>95.3</ele>
<time>2023-09-08T16:08:09Z</time>
<extensions>
<tp1:TrackPointExtension>
<tp1:hr>142</tp1:hr>
</tp1:TrackPointExtension>
</extensions>
</trkpt>
<trkpt lat="58.87809025" lon="14.90693291">
<ele>95.3</ele>
<time>2023-09-08T16:08:13Z</time>
<extensions>
<tp1:TrackPointExtension>
<tp1:hr>145</tp1:hr>
</tp1:TrackPointExtension>
</extensions>
</trkpt>
<trkpt lat="58.87818874" lon="14.90688178">
<ele>95.3</ele>
<time>2023-09-08T16:08:15Z</time>
<extensions>
<tp1:TrackPointExtension>
<tp1:hr>145</tp1:hr>
</tp1:TrackPointExtension>
</extensions>
</trkpt>
<trkpt lat="58.87822981" lon="14.90686602">
<ele>95.2</ele>
<time>2023-09-08T16:08:16Z</time>
<extensions>
<tp1:TrackPointExtension>
<tp1:hr>143</tp1:hr>
</tp1:TrackPointExtension>
</extensions>
</trkpt>
<trkpt lat="58.87834833" lon="14.90683274">
<ele>95.2</ele>
<time>2023-09-08T16:08:19Z</time>
<extensions>
<tp1:TrackPointExtension>
<tp1:hr>143</tp1:hr>
</tp1:TrackPointExtension>
</extensions>
</trkpt>
<trkpt lat="58.87841086" lon="14.90682">
<ele>95.2</ele>
<time>2023-09-08T16:08:21Z</time>
<extensions>
<tp1:TrackPointExtension>
<tp1:hr>139</tp1:hr>
</tp1:TrackPointExtension>
</extensions>
</trkpt>
<trkpt lat="58.87842838" lon="14.90682118">
<ele>95.2</ele>
<time>2023-09-08T16:08:22Z</time>
<extensions>
<tp1:TrackPointExtension>
<tp1:hr>138</tp1:hr>
</tp1:TrackPointExtension>
</extensions>
</trkpt>
<trkpt lat="58.87840248" lon="14.90683719">
<ele>95.2</ele>
<time>2023-09-08T16:08:23Z</time>
<extensions>
<tp1:TrackPointExtension>
<tp1:hr>137</tp1:hr>
</tp1:TrackPointExtension>
</extensions>
</trkpt>
<trkpt lat="58.8783267" lon="14.90683299">
<ele>95.0</ele>
<time>2023-09-08T16:08:25Z</time>
<extensions>
<tp1:TrackPointExtension>
<tp1:hr>136</tp1:hr>
</tp1:TrackPointExtension>
</extensions>
</trkpt>
<trkpt lat="58.87814515" lon="14.90697373">
<ele>95.0</ele>
<time>2023-09-08T16:08:30Z</time>
<extensions>
<tp1:TrackPointExtension>
<tp1:hr>134</tp1:hr>
</tp1:TrackPointExtension>
</extensions>
</trkpt>
<trkpt lat="58.87817038" lon="14.90715947">
<ele>94.9</ele>
<time>2023-09-08T16:08:32Z</time>
<extensions>
<tp1:TrackPointExtension>
<tp1:hr>135</tp1:hr>
</tp1:TrackPointExtension>
</extensions>
</trkpt>
<trkpt lat="58.87820869" lon="14.90759633">
<ele>94.9</ele>
<time>2023-09-08T16:08:36Z</time>
<extensions>
<tp1:TrackPointExtension>
<tp1:hr>135</tp1:hr>
</tp1:TrackPointExtension>
</extensions>
</trkpt>
<trkpt lat="58.87821975" lon="14.90770153">
<ele>94.9</ele>
<time>2023-09-08T16:08:37Z</time>
<extensions>
<tp1:TrackPointExtension>
<tp1:hr>134</tp1:hr>
</tp1:TrackPointExtension>
</extensions>
</trkpt>
<trkpt lat="58.87824766" lon="14.9078949">
<ele>94.9</ele>
<time>2023-09-08T16:08:39Z</time>
<extensions>
<tp1:TrackPointExtension>
<tp1:hr>135</tp1:hr>
</tp1:TrackPointExtension>
</extensions>
</trkpt>
<trkpt lat="58.87829251" lon="14.90813454">
<ele>94.9</ele>
<time>2023-09-08T16:08:42Z</time>
<extensions>
<tp1:TrackPointExtension>
<tp1:hr>136</tp1:hr>
</tp1:TrackPointExtension>
</extensions>
</trkpt>
<trkpt lat="58.87837708" lon="14.90819723">
<ele>94.9</ele>
<time>2023-09-08T16:08:44Z</time>
<extensions>
<tp1:TrackPointExtension>
<tp1:hr>138</tp1:hr>
</tp1:TrackPointExtension>
</extensions>
</trkpt>
<trkpt lat="58.87842318" lon="14.9082031">
<ele>94.9</ele>
<time>2023-09-08T16:08:45Z</time>
<extensions>
<tp1:TrackPointExtension>
<tp1:hr>138</tp1:hr>
</tp1:TrackPointExtension>
</extensions>
</trkpt>
<trkpt lat="58.87863273" lon="14.90823948">
<ele>94.6</ele>
<time>2023-09-08T16:08:49Z</time>
<extensions>
<tp1:TrackPointExtension>
<tp1:hr>138</tp1:hr>
</tp1:TrackPointExtension>
</extensions>
</trkpt>
<trkpt lat="58.87868017" lon="14.90824375">
<ele>94.6</ele>
<time>2023-09-08T16:08:50Z</time>
<extensions>
<tp1:TrackPointExtension>
<tp1:hr>136</tp1:hr>
</tp1:TrackPointExtension>
</extensions>
</trkpt>
<trkpt lat="58.87873775" lon="14.90827359">
<ele>94.6</ele>
<time>2023-09-08T16:08:52Z</time>
<extensions>
<tp1:TrackPointExtension>
<tp1:hr>138</tp1:hr>
</tp1:TrackPointExtension>
</extensions>
</trkpt>
<trkpt lat="58.87875938" lon="14.90831181">
<ele>94.6</ele>
<time>2023-09-08T16:08:53Z</time>
<extensions>
<tp1:TrackPointExtension>
<tp1:hr>136</tp1:hr>
</tp1:TrackPointExtension>
</extensions>
</trkpt>
<trkpt lat="58.87886122" lon="14.90865313">
<ele>94.6</ele>
<time>2023-09-08T16:08:57Z</time>
<extensions>
<tp1:TrackPointExtension>
<tp1:hr>137</tp1:hr>
</tp1:TrackPointExtension>
</extensions>
</trkpt>
<trkpt lat="58.87894194" lon="14.90901011">
<ele>94.6</ele>
<time>2023-09-08T16:09:00Z</time>
<extensions>
<tp1:TrackPointExtension>
<tp1:hr>134</tp1:hr>
</tp1:TrackPointExtension>
</extensions>
</trkpt>
<trkpt lat="58.87900371" lon="14.90925344">
<ele>94.6</ele>
<time>2023-09-08T16:09:02Z</time>
<extensions>
<tp1:TrackPointExtension>
<tp1:hr>137</tp1:hr>
</tp1:TrackPointExtension>
</extensions>
</trkpt>
<trkpt lat="58.87902894" lon="14.90935612">
<ele>94.5</ele>
<time>2023-09-08T16:09:03Z</time>
<extensions>
<tp1:TrackPointExtension>
<tp1:hr>138</tp1:hr>
</tp1:TrackPointExtension>
</extensions>
</trkpt>
<trkpt lat="58.87902148" lon="14.90947329">
<ele>94.5</ele>
<time>2023-09-08T16:09:05Z</time>
<extensions>
<tp1:TrackPointExtension>
<tp1:hr>138</tp1:hr>
</tp1:TrackPointExtension>
</extensions>
</trkpt>
<trkpt lat="58.87902081" lon="14.90948813">
<ele>94.5</ele>
<time>2023-09-08T16:09:06Z</time>
<extensions>
<tp1:TrackPointExtension>
<tp1:hr>137</tp1:hr>
</tp1:TrackPointExtension>
</extensions>
</trkpt>
</trkseg>
</trk>
</gpx>

