<?xml version="1.0" encoding="UTF-8" ?>
<gpx xmlns="http://www.topografix.com/GPX/1/1" version="1.1" creator="Attackpoint - http://www.attackpoint.org" xmlns:xsi="http://www.w3.org/2001/XMLSchema-instance" xmlns:tp1="http://www.garmin.com/xmlschemas/TrackPointExtension/v1" xsi:schemaLocation="http://www.topografix.com/GPX/1/1 http://www.topografix.com/GPX/1/1/gpx.xsd http://www.garmin.com/xmlschemas/TrackPointExtension/v1 http://www.garmin.com/xmlschemas/TrackPointExtensionv1.xsd">
<trk>
<trkseg>
<trkpt lat="58.56454748" lon="15.28072078">
<ele>93.0</ele>
<time>2023-06-06T08:33:02Z</time>
<extensions>
<tp1:TrackPointExtension>
<tp1:hr>93</tp1:hr>
</tp1:TrackPointExtension>
</extensions>
</trkpt>
<trkpt lat="58.56454412" lon="15.28071265">
<ele>93.0</ele>
<time>2023-06-06T08:33:03Z</time>
<extensions>
<tp1:TrackPointExtension>
<tp1:hr>93</tp1:hr>
</tp1:TrackPointExtension>
</extensions>
</trkpt>
<trkpt lat="58.56442468" lon="15.28065724">
<ele>91.3</ele>
<time>2023-06-06T08:33:06Z</time>
<extensions>
<tp1:TrackPointExtension>
<tp1:hr>95</tp1:hr>
</tp1:TrackPointExtension>
</extensions>
</trkpt>
<trkpt lat="58.56442468" lon="15.28065724">
<ele>91.3</ele>
<time>2023-06-06T08:33:07Z</time>
<extensions>
<tp1:TrackPointExtension>
<tp1:hr>95</tp1:hr>
</tp1:TrackPointExtension>
</extensions>
</trkpt>
<trkpt lat="58.56422243" lon="15.28052866">
<ele>91.1</ele>
<time>2023-06-06T08:33:11Z</time>
<extensions>
<tp1:TrackPointExtension>
<tp1:hr>94</tp1:hr>
</tp1:TrackPointExtension>
</extensions>
</trkpt>
<trkpt lat="58.56416987" lon="15.28050511">
<ele>90.7</ele>
<time>2023-06-06T08:33:12Z</time>
<extensions>
<tp1:TrackPointExtension>
<tp1:hr>96</tp1:hr>
</tp1:TrackPointExtension>
</extensions>
</trkpt>
<trkpt lat="58.56406049" lon="15.28051634">
<ele>90.4</ele>
<time>2023-06-06T08:33:14Z</time>
<extensions>
<tp1:TrackPointExtension>
<tp1:hr>95</tp1:hr>
</tp1:TrackPointExtension>
</extensions>
</trkpt>
<trkpt lat="58.56401246" lon="15.28054786">
<ele>90.2</ele>
<time>2023-06-06T08:33:15Z</time>
<extensions>
<tp1:TrackPointExtension>
<tp1:hr>95</tp1:hr>
</tp1:TrackPointExtension>
</extensions>
</trkpt>
<trkpt lat="58.56395664" lon="15.28061894">
<ele>90.0</ele>
<time>2023-06-06T08:33:16Z</time>
<extensions>
<tp1:TrackPointExtension>
<tp1:hr>95</tp1:hr>
</tp1:TrackPointExtension>
</extensions>
</trkpt>
<trkpt lat="58.56384801" lon="15.28081147">
<ele>90.4</ele>
<time>2023-06-06T08:33:19Z</time>
<extensions>
<tp1:TrackPointExtension>
<tp1:hr>96</tp1:hr>
</tp1:TrackPointExtension>
</extensions>
</trkpt>
<trkpt lat="58.56382806" lon="15.28087752">
<ele>90.6</ele>
<time>2023-06-06T08:33:20Z</time>
<extensions>
<tp1:TrackPointExtension>
<tp1:hr>97</tp1:hr>
</tp1:TrackPointExtension>
</extensions>
</trkpt>
<trkpt lat="58.56381356" lon="15.28094064">
<ele>90.9</ele>
<time>2023-06-06T08:33:21Z</time>
<extensions>
<tp1:TrackPointExtension>
<tp1:hr>99</tp1:hr>
</tp1:TrackPointExtension>
</extensions>
</trkpt>
<trkpt lat="58.56380467" lon="15.28102781">
<ele>91.5</ele>
<time>2023-06-06T08:33:22Z</time>
<extensions>
<tp1:TrackPointExtension>
<tp1:hr>97</tp1:hr>
</tp1:TrackPointExtension>
</extensions>
</trkpt>
<trkpt lat="58.56381775" lon="15.28109184">
<ele>91.9</ele>
<time>2023-06-06T08:33:23Z</time>
<extensions>
<tp1:TrackPointExtension>
<tp1:hr>97</tp1:hr>
</tp1:TrackPointExtension>
</extensions>
</trkpt>
<trkpt lat="58.56384256" lon="15.28114666">
<ele>92.3</ele>
<time>2023-06-06T08:33:24Z</time>
<extensions>
<tp1:TrackPointExtension>
<tp1:hr>102</tp1:hr>
</tp1:TrackPointExtension>
</extensions>
</trkpt>
<trkpt lat="58.56386888" lon="15.28121774">
<ele>92.7</ele>
<time>2023-06-06T08:33:25Z</time>
<extensions>
<tp1:TrackPointExtension>
<tp1:hr>105</tp1:hr>
</tp1:TrackPointExtension>
</extensions>
</trkpt>
<trkpt lat="58.56388824" lon="15.28129812">
<ele>93.1</ele>
<time>2023-06-06T08:33:26Z</time>
<extensions>
<tp1:TrackPointExtension>
<tp1:hr>107</tp1:hr>
</tp1:TrackPointExtension>
</extensions>
</trkpt>
<trkpt lat="58.56390308" lon="15.28137607">
<ele>93.5</ele>
<time>2023-06-06T08:33:27Z</time>
<extensions>
<tp1:TrackPointExtension>
<tp1:hr>109</tp1:hr>
</tp1:TrackPointExtension>
</extensions>
</trkpt>
<trkpt lat="58.56391464" lon="15.28146601">
<ele>93.7</ele>
<time>2023-06-06T08:33:28Z</time>
<extensions>
<tp1:TrackPointExtension>
<tp1:hr>111</tp1:hr>
</tp1:TrackPointExtension>
</extensions>
</trkpt>
<trkpt lat="58.5639252" lon="15.28155562">
<ele>93.8</ele>
<time>2023-06-06T08:33:29Z</time>
<extensions>
<tp1:TrackPointExtension>
<tp1:hr>114</tp1:hr>
</tp1:TrackPointExtension>
</extensions>
</trkpt>
<trkpt lat="58.5639325" lon="15.28164346">
<ele>94.2</ele>
<time>2023-06-06T08:33:30Z</time>
<extensions>
<tp1:TrackPointExtension>
<tp1:hr>116</tp1:hr>
</tp1:TrackPointExtension>
</extensions>
</trkpt>
<trkpt lat="58.56395219" lon="15.28180045">
<ele>95.0</ele>
<time>2023-06-06T08:33:32Z</time>
<extensions>
<tp1:TrackPointExtension>
<tp1:hr>119</tp1:hr>
</tp1:TrackPointExtension>
</extensions>
</trkpt>
<trkpt lat="58.56397357" lon="15.2819608">
<ele>95.6</ele>
<time>2023-06-06T08:33:34Z</time>
<extensions>
<tp1:TrackPointExtension>
<tp1:hr>122</tp1:hr>
</tp1:TrackPointExtension>
</extensions>
</trkpt>
<trkpt lat="58.56399561" lon="15.28212592">
<ele>95.5</ele>
<time>2023-06-06T08:33:36Z</time>
<extensions>
<tp1:TrackPointExtension>
<tp1:hr>125</tp1:hr>
</tp1:TrackPointExtension>
</extensions>
</trkpt>
<trkpt lat="58.56400232" lon="15.28220949">
<ele>95.9</ele>
<time>2023-06-06T08:33:37Z</time>
<extensions>
<tp1:TrackPointExtension>
<tp1:hr>127</tp1:hr>
</tp1:TrackPointExtension>
</extensions>
</trkpt>
<trkpt lat="58.56399771" lon="15.28230001">
<ele>96.5</ele>
<time>2023-06-06T08:33:38Z</time>
<extensions>
<tp1:TrackPointExtension>
<tp1:hr>128</tp1:hr>
</tp1:TrackPointExtension>
</extensions>
</trkpt>
<trkpt lat="58.56400819" lon="15.28238056">
<ele>97.7</ele>
<time>2023-06-06T08:33:39Z</time>
<extensions>
<tp1:TrackPointExtension>
<tp1:hr>128</tp1:hr>
</tp1:TrackPointExtension>
</extensions>
</trkpt>
<trkpt lat="58.5639941" lon="15.28245969">
<ele>97.7</ele>
<time>2023-06-06T08:33:40Z</time>
<extensions>
<tp1:TrackPointExtension>
<tp1:hr>128</tp1:hr>
</tp1:TrackPointExtension>
</extensions>
</trkpt>
<trkpt lat="58.5639755" lon="15.28253169">
<ele>98.1</ele>
<time>2023-06-06T08:33:41Z</time>
<extensions>
<tp1:TrackPointExtension>
<tp1:hr>129</tp1:hr>
</tp1:TrackPointExtension>
</extensions>
</trkpt>
<trkpt lat="58.56396024" lon="15.28260327">
<ele>98.7</ele>
<time>2023-06-06T08:33:42Z</time>
<extensions>
<tp1:TrackPointExtension>
<tp1:hr>130</tp1:hr>
</tp1:TrackPointExtension>
</extensions>
</trkpt>
<trkpt lat="58.56395706" lon="15.28268893">
<ele>99.1</ele>
<time>2023-06-06T08:33:43Z</time>
<extensions>
<tp1:TrackPointExtension>
<tp1:hr>128</tp1:hr>
</tp1:TrackPointExtension>
</extensions>
</trkpt>
<trkpt lat="58.56396561" lon="15.28286973">
<ele>99.4</ele>
<time>2023-06-06T08:33:45Z</time>
<extensions>
<tp1:TrackPointExtension>
<tp1:hr>130</tp1:hr>
</tp1:TrackPointExtension>
</extensions>
</trkpt>
<trkpt lat="58.56396577" lon="15.28303829">
<ele>99.2</ele>
<time>2023-06-06T08:33:47Z</time>
<extensions>
<tp1:TrackPointExtension>
<tp1:hr>129</tp1:hr>
</tp1:TrackPointExtension>
</extensions>
</trkpt>
<trkpt lat="58.5639672" lon="15.28319947">
<ele>98.8</ele>
<time>2023-06-06T08:33:49Z</time>
<extensions>
<tp1:TrackPointExtension>
<tp1:hr>129</tp1:hr>
</tp1:TrackPointExtension>
</extensions>
</trkpt>
<trkpt lat="58.5639755" lon="15.28327131">
<ele>98.6</ele>
<time>2023-06-06T08:33:50Z</time>
<extensions>
<tp1:TrackPointExtension>
<tp1:hr>130</tp1:hr>
</tp1:TrackPointExtension>
</extensions>
</trkpt>
<trkpt lat="58.5640071" lon="15.28348764">
<ele>98.3</ele>
<time>2023-06-06T08:33:53Z</time>
<extensions>
<tp1:TrackPointExtension>
<tp1:hr>127</tp1:hr>
</tp1:TrackPointExtension>
</extensions>
</trkpt>
<trkpt lat="58.56402612" lon="15.28361706">
<ele>98.3</ele>
<time>2023-06-06T08:33:55Z</time>
<extensions>
<tp1:TrackPointExtension>
<tp1:hr>129</tp1:hr>
</tp1:TrackPointExtension>
</extensions>
</trkpt>
<trkpt lat="58.56400601" lon="15.28370532">
<ele>98.3</ele>
<time>2023-06-06T08:33:57Z</time>
<extensions>
<tp1:TrackPointExtension>
<tp1:hr>129</tp1:hr>
</tp1:TrackPointExtension>
</extensions>
</trkpt>
<trkpt lat="58.56395898" lon="15.28378168">
<ele>98.2</ele>
<time>2023-06-06T08:33:59Z</time>
<extensions>
<tp1:TrackPointExtension>
<tp1:hr>131</tp1:hr>
</tp1:TrackPointExtension>
</extensions>
</trkpt>
<trkpt lat="58.56394096" lon="15.28382485">
<ele>98.0</ele>
<time>2023-06-06T08:34:01Z</time>
<extensions>
<tp1:TrackPointExtension>
<tp1:hr>131</tp1:hr>
</tp1:TrackPointExtension>
</extensions>
</trkpt>
<trkpt lat="58.56392789" lon="15.283894">
<ele>98.0</ele>
<time>2023-06-06T08:34:02Z</time>
<extensions>
<tp1:TrackPointExtension>
<tp1:hr>132</tp1:hr>
</tp1:TrackPointExtension>
</extensions>
</trkpt>
<trkpt lat="58.56390702" lon="15.28395636">
<ele>98.0</ele>
<time>2023-06-06T08:34:03Z</time>
<extensions>
<tp1:TrackPointExtension>
<tp1:hr>133</tp1:hr>
</tp1:TrackPointExtension>
</extensions>
</trkpt>
<trkpt lat="58.56382739" lon="15.28405032">
<ele>98.0</ele>
<time>2023-06-06T08:34:05Z</time>
<extensions>
<tp1:TrackPointExtension>
<tp1:hr>132</tp1:hr>
</tp1:TrackPointExtension>
</extensions>
</trkpt>
<trkpt lat="58.56378003" lon="15.28408779">
<ele>97.9</ele>
<time>2023-06-06T08:34:06Z</time>
<extensions>
<tp1:TrackPointExtension>
<tp1:hr>136</tp1:hr>
</tp1:TrackPointExtension>
</extensions>
</trkpt>
<trkpt lat="58.56363259" lon="15.28417085">
<ele>97.9</ele>
<time>2023-06-06T08:34:09Z</time>
<extensions>
<tp1:TrackPointExtension>
<tp1:hr>138</tp1:hr>
</tp1:TrackPointExtension>
</extensions>
</trkpt>
<trkpt lat="58.56353888" lon="15.28419977">
<ele>97.7</ele>
<time>2023-06-06T08:34:11Z</time>
<extensions>
<tp1:TrackPointExtension>
<tp1:hr>138</tp1:hr>
</tp1:TrackPointExtension>
</extensions>
</trkpt>
<trkpt lat="58.56345925" lon="15.28422844">
<ele>97.7</ele>
<time>2023-06-06T08:34:13Z</time>
<extensions>
<tp1:TrackPointExtension>
<tp1:hr>137</tp1:hr>
</tp1:TrackPointExtension>
</extensions>
</trkpt>
<trkpt lat="58.56329983" lon="15.28433061">
<ele>97.6</ele>
<time>2023-06-06T08:34:17Z</time>
<extensions>
<tp1:TrackPointExtension>
<tp1:hr>135</tp1:hr>
</tp1:TrackPointExtension>
</extensions>
</trkpt>
<trkpt lat="58.56326664" lon="15.28436816">
<ele>97.6</ele>
<time>2023-06-06T08:34:18Z</time>
<extensions>
<tp1:TrackPointExtension>
<tp1:hr>133</tp1:hr>
</tp1:TrackPointExtension>
</extensions>
</trkpt>
<trkpt lat="58.56323856" lon="15.2844229">
<ele>97.4</ele>
<time>2023-06-06T08:34:19Z</time>
<extensions>
<tp1:TrackPointExtension>
<tp1:hr>138</tp1:hr>
</tp1:TrackPointExtension>
</extensions>
</trkpt>
<trkpt lat="58.56316186" lon="15.28467871">
<ele>97.1</ele>
<time>2023-06-06T08:34:23Z</time>
<extensions>
<tp1:TrackPointExtension>
<tp1:hr>136</tp1:hr>
</tp1:TrackPointExtension>
</extensions>
</trkpt>
<trkpt lat="58.56320109" lon="15.28480754">
<ele>97.1</ele>
<time>2023-06-06T08:34:25Z</time>
<extensions>
<tp1:TrackPointExtension>
<tp1:hr>135</tp1:hr>
</tp1:TrackPointExtension>
</extensions>
</trkpt>
<trkpt lat="58.56323118" lon="15.28483638">
<ele>97.1</ele>
<time>2023-06-06T08:34:26Z</time>
<extensions>
<tp1:TrackPointExtension>
<tp1:hr>135</tp1:hr>
</tp1:TrackPointExtension>
</extensions>
</trkpt>
<trkpt lat="58.56339849" lon="15.28499362">
<ele>96.8</ele>
<time>2023-06-06T08:34:31Z</time>
<extensions>
<tp1:TrackPointExtension>
<tp1:hr>133</tp1:hr>
</tp1:TrackPointExtension>
</extensions>
</trkpt>
<trkpt lat="58.56342187" lon="15.28499077">
<ele>96.8</ele>
<time>2023-06-06T08:34:34Z</time>
<extensions>
<tp1:TrackPointExtension>
<tp1:hr>132</tp1:hr>
</tp1:TrackPointExtension>
</extensions>
</trkpt>
<trkpt lat="58.56333965" lon="15.28508968">
<ele>96.7</ele>
<time>2023-06-06T08:34:37Z</time>
<extensions>
<tp1:TrackPointExtension>
<tp1:hr>132</tp1:hr>
</tp1:TrackPointExtension>
</extensions>
</trkpt>
<trkpt lat="58.56320947" lon="15.2852626">
<ele>96.7</ele>
<time>2023-06-06T08:34:41Z</time>
<extensions>
<tp1:TrackPointExtension>
<tp1:hr>132</tp1:hr>
</tp1:TrackPointExtension>
</extensions>
</trkpt>
<trkpt lat="58.56305089" lon="15.28522387">
<ele>96.6</ele>
<time>2023-06-06T08:34:45Z</time>
<extensions>
<tp1:TrackPointExtension>
<tp1:hr>130</tp1:hr>
</tp1:TrackPointExtension>
</extensions>
</trkpt>
<trkpt lat="58.56293052" lon="15.28506629">
<ele>96.6</ele>
<time>2023-06-06T08:34:48Z</time>
<extensions>
<tp1:TrackPointExtension>
<tp1:hr>128</tp1:hr>
</tp1:TrackPointExtension>
</extensions>
</trkpt>
<trkpt lat="58.56283455" lon="15.28504265">
<ele>96.6</ele>
<time>2023-06-06T08:34:50Z</time>
<extensions>
<tp1:TrackPointExtension>
<tp1:hr>128</tp1:hr>
</tp1:TrackPointExtension>
</extensions>
</trkpt>
<trkpt lat="58.56275182" lon="15.28504458">
<ele>96.5</ele>
<time>2023-06-06T08:34:52Z</time>
<extensions>
<tp1:TrackPointExtension>
<tp1:hr>127</tp1:hr>
</tp1:TrackPointExtension>
</extensions>
</trkpt>
<trkpt lat="58.56266398" lon="15.28504408">
<ele>96.5</ele>
<time>2023-06-06T08:34:54Z</time>
<extensions>
<tp1:TrackPointExtension>
<tp1:hr>128</tp1:hr>
</tp1:TrackPointExtension>
</extensions>
</trkpt>
<trkpt lat="58.56261495" lon="15.28501483">
<ele>96.5</ele>
<time>2023-06-06T08:34:55Z</time>
<extensions>
<tp1:TrackPointExtension>
<tp1:hr>128</tp1:hr>
</tp1:TrackPointExtension>
</extensions>
</trkpt>
<trkpt lat="58.56257245" lon="15.28496546">
<ele>96.5</ele>
<time>2023-06-06T08:34:56Z</time>
<extensions>
<tp1:TrackPointExtension>
<tp1:hr>129</tp1:hr>
</tp1:TrackPointExtension>
</extensions>
</trkpt>
<trkpt lat="58.56250674" lon="15.28483244">
<ele>96.3</ele>
<time>2023-06-06T08:34:58Z</time>
<extensions>
<tp1:TrackPointExtension>
<tp1:hr>130</tp1:hr>
</tp1:TrackPointExtension>
</extensions>
</trkpt>
<trkpt lat="58.5624308" lon="15.28480268">
<ele>96.2</ele>
<time>2023-06-06T08:35:00Z</time>
<extensions>
<tp1:TrackPointExtension>
<tp1:hr>132</tp1:hr>
</tp1:TrackPointExtension>
</extensions>
</trkpt>
<trkpt lat="58.56238469" lon="15.28481064">
<ele>96.2</ele>
<time>2023-06-06T08:35:01Z</time>
<extensions>
<tp1:TrackPointExtension>
<tp1:hr>130</tp1:hr>
</tp1:TrackPointExtension>
</extensions>
</trkpt>
<trkpt lat="58.56219007" lon="15.28495129">
<ele>96.0</ele>
<time>2023-06-06T08:35:06Z</time>
<extensions>
<tp1:TrackPointExtension>
<tp1:hr>131</tp1:hr>
</tp1:TrackPointExtension>
</extensions>
</trkpt>
<trkpt lat="58.56214682" lon="15.28498893">
<ele>95.7</ele>
<time>2023-06-06T08:35:07Z</time>
<extensions>
<tp1:TrackPointExtension>
<tp1:hr>132</tp1:hr>
</tp1:TrackPointExtension>
</extensions>
</trkpt>
<trkpt lat="58.56206216" lon="15.28507182">
<ele>95.7</ele>
<time>2023-06-06T08:35:09Z</time>
<extensions>
<tp1:TrackPointExtension>
<tp1:hr>131</tp1:hr>
</tp1:TrackPointExtension>
</extensions>
</trkpt>
<trkpt lat="58.56202721" lon="15.2851222">
<ele>95.7</ele>
<time>2023-06-06T08:35:10Z</time>
<extensions>
<tp1:TrackPointExtension>
<tp1:hr>129</tp1:hr>
</tp1:TrackPointExtension>
</extensions>
</trkpt>
<trkpt lat="58.56200064" lon="15.28518347">
<ele>95.5</ele>
<time>2023-06-06T08:35:11Z</time>
<extensions>
<tp1:TrackPointExtension>
<tp1:hr>132</tp1:hr>
</tp1:TrackPointExtension>
</extensions>
</trkpt>
<trkpt lat="58.5619889" lon="15.28534734">
<ele>95.5</ele>
<time>2023-06-06T08:35:13Z</time>
<extensions>
<tp1:TrackPointExtension>
<tp1:hr>129</tp1:hr>
</tp1:TrackPointExtension>
</extensions>
</trkpt>
<trkpt lat="58.56201178" lon="15.28550114">
<ele>95.2</ele>
<time>2023-06-06T08:35:15Z</time>
<extensions>
<tp1:TrackPointExtension>
<tp1:hr>133</tp1:hr>
</tp1:TrackPointExtension>
</extensions>
</trkpt>
<trkpt lat="58.56202637" lon="15.28558689">
<ele>95.2</ele>
<time>2023-06-06T08:35:16Z</time>
<extensions>
<tp1:TrackPointExtension>
<tp1:hr>133</tp1:hr>
</tp1:TrackPointExtension>
</extensions>
</trkpt>
<trkpt lat="58.56203542" lon="15.28568337">
<ele>95.2</ele>
<time>2023-06-06T08:35:17Z</time>
<extensions>
<tp1:TrackPointExtension>
<tp1:hr>134</tp1:hr>
</tp1:TrackPointExtension>
</extensions>
</trkpt>
<trkpt lat="58.56204649" lon="15.28592996">
<ele>94.8</ele>
<time>2023-06-06T08:35:20Z</time>
<extensions>
<tp1:TrackPointExtension>
<tp1:hr>133</tp1:hr>
</tp1:TrackPointExtension>
</extensions>
</trkpt>
<trkpt lat="58.5620262" lon="15.28596877">
<ele>94.7</ele>
<time>2023-06-06T08:35:22Z</time>
<extensions>
<tp1:TrackPointExtension>
<tp1:hr>131</tp1:hr>
</tp1:TrackPointExtension>
</extensions>
</trkpt>
<trkpt lat="58.56200567" lon="15.28595285">
<ele>94.5</ele>
<time>2023-06-06T08:35:23Z</time>
<extensions>
<tp1:TrackPointExtension>
<tp1:hr>131</tp1:hr>
</tp1:TrackPointExtension>
</extensions>
</trkpt>
<trkpt lat="58.5619169" lon="15.28581069">
<ele>94.3</ele>
<time>2023-06-06T08:35:26Z</time>
<extensions>
<tp1:TrackPointExtension>
<tp1:hr>131</tp1:hr>
</tp1:TrackPointExtension>
</extensions>
</trkpt>
<trkpt lat="58.5618822" lon="15.28574355">
<ele>94.1</ele>
<time>2023-06-06T08:35:27Z</time>
<extensions>
<tp1:TrackPointExtension>
<tp1:hr>133</tp1:hr>
</tp1:TrackPointExtension>
</extensions>
</trkpt>
<trkpt lat="58.56184649" lon="15.28566551">
<ele>94.1</ele>
<time>2023-06-06T08:35:28Z</time>
<extensions>
<tp1:TrackPointExtension>
<tp1:hr>133</tp1:hr>
</tp1:TrackPointExtension>
</extensions>
</trkpt>
<trkpt lat="58.56178271" lon="15.28549897">
<ele>93.6</ele>
<time>2023-06-06T08:35:30Z</time>
<extensions>
<tp1:TrackPointExtension>
<tp1:hr>130</tp1:hr>
</tp1:TrackPointExtension>
</extensions>
</trkpt>
<trkpt lat="58.561719" lon="15.28532739">
<ele>93.4</ele>
<time>2023-06-06T08:35:32Z</time>
<extensions>
<tp1:TrackPointExtension>
<tp1:hr>130</tp1:hr>
</tp1:TrackPointExtension>
</extensions>
</trkpt>
<trkpt lat="58.56163099" lon="15.28507526">
<ele>93.0</ele>
<time>2023-06-06T08:35:35Z</time>
<extensions>
<tp1:TrackPointExtension>
<tp1:hr>130</tp1:hr>
</tp1:TrackPointExtension>
</extensions>
</trkpt>
<trkpt lat="58.56159797" lon="15.28489999">
<ele>92.7</ele>
<time>2023-06-06T08:35:37Z</time>
<extensions>
<tp1:TrackPointExtension>
<tp1:hr>131</tp1:hr>
</tp1:TrackPointExtension>
</extensions>
</trkpt>
<trkpt lat="58.56155707" lon="15.28464016">
<ele>92.5</ele>
<time>2023-06-06T08:35:40Z</time>
<extensions>
<tp1:TrackPointExtension>
<tp1:hr>134</tp1:hr>
</tp1:TrackPointExtension>
</extensions>
</trkpt>
<trkpt lat="58.56153351" lon="15.28447143">
<ele>92.1</ele>
<time>2023-06-06T08:35:42Z</time>
<extensions>
<tp1:TrackPointExtension>
<tp1:hr>137</tp1:hr>
</tp1:TrackPointExtension>
</extensions>
</trkpt>
<trkpt lat="58.56152019" lon="15.28438702">
<ele>92.1</ele>
<time>2023-06-06T08:35:43Z</time>
<extensions>
<tp1:TrackPointExtension>
<tp1:hr>132</tp1:hr>
</tp1:TrackPointExtension>
</extensions>
</trkpt>
<trkpt lat="58.56150636" lon="15.28430421">
<ele>91.8</ele>
<time>2023-06-06T08:35:44Z</time>
<extensions>
<tp1:TrackPointExtension>
<tp1:hr>133</tp1:hr>
</tp1:TrackPointExtension>
</extensions>
</trkpt>
<trkpt lat="58.56143519" lon="15.28397103">
<ele>91.6</ele>
<time>2023-06-06T08:35:48Z</time>
<extensions>
<tp1:TrackPointExtension>
<tp1:hr>133</tp1:hr>
</tp1:TrackPointExtension>
</extensions>
</trkpt>
<trkpt lat="58.5614103" lon="15.28390498">
<ele>91.4</ele>
<time>2023-06-06T08:35:49Z</time>
<extensions>
<tp1:TrackPointExtension>
<tp1:hr>134</tp1:hr>
</tp1:TrackPointExtension>
</extensions>
</trkpt>
<trkpt lat="58.5613326" lon="15.28381823">
<ele>91.4</ele>
<time>2023-06-06T08:35:51Z</time>
<extensions>
<tp1:TrackPointExtension>
<tp1:hr>134</tp1:hr>
</tp1:TrackPointExtension>
</extensions>
</trkpt>
<trkpt lat="58.56125004" lon="15.28379576">
<ele>91.1</ele>
<time>2023-06-06T08:35:53Z</time>
<extensions>
<tp1:TrackPointExtension>
<tp1:hr>133</tp1:hr>
</tp1:TrackPointExtension>
</extensions>
</trkpt>
<trkpt lat="58.5611658" lon="15.28380155">
<ele>90.9</ele>
<time>2023-06-06T08:35:55Z</time>
<extensions>
<tp1:TrackPointExtension>
<tp1:hr>131</tp1:hr>
</tp1:TrackPointExtension>
</extensions>
</trkpt>
<trkpt lat="58.5611093" lon="15.28379249">
<ele>90.7</ele>
<time>2023-06-06T08:35:57Z</time>
<extensions>
<tp1:TrackPointExtension>
<tp1:hr>130</tp1:hr>
</tp1:TrackPointExtension>
</extensions>
</trkpt>
<trkpt lat="58.56116169" lon="15.2837163">
<ele>90.4</ele>
<time>2023-06-06T08:36:00Z</time>
<extensions>
<tp1:TrackPointExtension>
<tp1:hr>130</tp1:hr>
</tp1:TrackPointExtension>
</extensions>
</trkpt>
<trkpt lat="58.56127778" lon="15.28366509">
<ele>90.2</ele>
<time>2023-06-06T08:36:03Z</time>
<extensions>
<tp1:TrackPointExtension>
<tp1:hr>132</tp1:hr>
</tp1:TrackPointExtension>
</extensions>
</trkpt>
<trkpt lat="58.56131064" lon="15.28361907">
<ele>90.0</ele>
<time>2023-06-06T08:36:04Z</time>
<extensions>
<tp1:TrackPointExtension>
<tp1:hr>132</tp1:hr>
</tp1:TrackPointExtension>
</extensions>
</trkpt>
<trkpt lat="58.56132698" lon="15.28356032">
<ele>90.0</ele>
<time>2023-06-06T08:36:05Z</time>
<extensions>
<tp1:TrackPointExtension>
<tp1:hr>130</tp1:hr>
</tp1:TrackPointExtension>
</extensions>
</trkpt>
<trkpt lat="58.56133377" lon="15.28341908">
<ele>89.7</ele>
<time>2023-06-06T08:36:07Z</time>
<extensions>
<tp1:TrackPointExtension>
<tp1:hr>132</tp1:hr>
</tp1:TrackPointExtension>
</extensions>
</trkpt>
<trkpt lat="58.56134316" lon="15.28325806">
<ele>89.7</ele>
<time>2023-06-06T08:36:09Z</time>
<extensions>
<tp1:TrackPointExtension>
<tp1:hr>135</tp1:hr>
</tp1:TrackPointExtension>
</extensions>
</trkpt>
<trkpt lat="58.56135825" lon="15.28307928">
<ele>89.5</ele>
<time>2023-06-06T08:36:11Z</time>
<extensions>
<tp1:TrackPointExtension>
<tp1:hr>133</tp1:hr>
</tp1:TrackPointExtension>
</extensions>
</trkpt>
<trkpt lat="58.56144726" lon="15.28297358">
<ele>89.5</ele>
<time>2023-06-06T08:36:13Z</time>
<extensions>
<tp1:TrackPointExtension>
<tp1:hr>130</tp1:hr>
</tp1:TrackPointExtension>
</extensions>
</trkpt>
<trkpt lat="58.56149479" lon="15.28296721">
<ele>89.2</ele>
<time>2023-06-06T08:36:14Z</time>
<extensions>
<tp1:TrackPointExtension>
<tp1:hr>129</tp1:hr>
</tp1:TrackPointExtension>
</extensions>
</trkpt>
<trkpt lat="58.56154474" lon="15.28294601">
<ele>89.2</ele>
<time>2023-06-06T08:36:15Z</time>
<extensions>
<tp1:TrackPointExtension>
<tp1:hr>128</tp1:hr>
</tp1:TrackPointExtension>
</extensions>
</trkpt>
<trkpt lat="58.56163812" lon="15.28293989">
<ele>89.2</ele>
<time>2023-06-06T08:36:17Z</time>
<extensions>
<tp1:TrackPointExtension>
<tp1:hr>128</tp1:hr>
</tp1:TrackPointExtension>
</extensions>
</trkpt>
<trkpt lat="58.56171766" lon="15.28289312">
<ele>89.0</ele>
<time>2023-06-06T08:36:19Z</time>
<extensions>
<tp1:TrackPointExtension>
<tp1:hr>128</tp1:hr>
</tp1:TrackPointExtension>
</extensions>
</trkpt>
<trkpt lat="58.56179042" lon="15.2827984">
<ele>89.0</ele>
<time>2023-06-06T08:36:21Z</time>
<extensions>
<tp1:TrackPointExtension>
<tp1:hr>128</tp1:hr>
</tp1:TrackPointExtension>
</extensions>
</trkpt>
<trkpt lat="58.56185412" lon="15.28268902">
<ele>88.9</ele>
<time>2023-06-06T08:36:23Z</time>
<extensions>
<tp1:TrackPointExtension>
<tp1:hr>128</tp1:hr>
</tp1:TrackPointExtension>
</extensions>
</trkpt>
<trkpt lat="58.56188765" lon="15.28263495">
<ele>88.7</ele>
<time>2023-06-06T08:36:24Z</time>
<extensions>
<tp1:TrackPointExtension>
<tp1:hr>129</tp1:hr>
</tp1:TrackPointExtension>
</extensions>
</trkpt>
<trkpt lat="58.56192285" lon="15.2825917">
<ele>88.7</ele>
<time>2023-06-06T08:36:25Z</time>
<extensions>
<tp1:TrackPointExtension>
<tp1:hr>128</tp1:hr>
</tp1:TrackPointExtension>
</extensions>
</trkpt>
<trkpt lat="58.56200432" lon="15.28257578">
<ele>88.7</ele>
<time>2023-06-06T08:36:27Z</time>
<extensions>
<tp1:TrackPointExtension>
<tp1:hr>124</tp1:hr>
</tp1:TrackPointExtension>
</extensions>
</trkpt>
<trkpt lat="58.56207968" lon="15.28264878">
<ele>88.7</ele>
<time>2023-06-06T08:36:29Z</time>
<extensions>
<tp1:TrackPointExtension>
<tp1:hr>125</tp1:hr>
</tp1:TrackPointExtension>
</extensions>
</trkpt>
<trkpt lat="58.56210692" lon="15.28270343">
<ele>88.6</ele>
<time>2023-06-06T08:36:30Z</time>
<extensions>
<tp1:TrackPointExtension>
<tp1:hr>125</tp1:hr>
</tp1:TrackPointExtension>
</extensions>
</trkpt>
<trkpt lat="58.56213198" lon="15.2827647">
<ele>88.4</ele>
<time>2023-06-06T08:36:31Z</time>
<extensions>
<tp1:TrackPointExtension>
<tp1:hr>124</tp1:hr>
</tp1:TrackPointExtension>
</extensions>
</trkpt>
<trkpt lat="58.5621609" lon="15.2828305">
<ele>88.4</ele>
<time>2023-06-06T08:36:32Z</time>
<extensions>
<tp1:TrackPointExtension>
<tp1:hr>130</tp1:hr>
</tp1:TrackPointExtension>
</extensions>
</trkpt>
<trkpt lat="58.56218504" lon="15.28289638">
<ele>88.4</ele>
<time>2023-06-06T08:36:33Z</time>
<extensions>
<tp1:TrackPointExtension>
<tp1:hr>130</tp1:hr>
</tp1:TrackPointExtension>
</extensions>
</trkpt>
<trkpt lat="58.56223181" lon="15.28303418">
<ele>88.4</ele>
<time>2023-06-06T08:36:35Z</time>
<extensions>
<tp1:TrackPointExtension>
<tp1:hr>129</tp1:hr>
</tp1:TrackPointExtension>
</extensions>
</trkpt>
<trkpt lat="58.56226953" lon="15.2831672">
<ele>88.3</ele>
<time>2023-06-06T08:36:37Z</time>
<extensions>
<tp1:TrackPointExtension>
<tp1:hr>128</tp1:hr>
</tp1:TrackPointExtension>
</extensions>
</trkpt>
<trkpt lat="58.56229945" lon="15.2833071">
<ele>88.3</ele>
<time>2023-06-06T08:36:39Z</time>
<extensions>
<tp1:TrackPointExtension>
<tp1:hr>131</tp1:hr>
</tp1:TrackPointExtension>
</extensions>
</trkpt>
<trkpt lat="58.56233331" lon="15.28343207">
<ele>88.3</ele>
<time>2023-06-06T08:36:41Z</time>
<extensions>
<tp1:TrackPointExtension>
<tp1:hr>131</tp1:hr>
</tp1:TrackPointExtension>
</extensions>
</trkpt>
<trkpt lat="58.56236642" lon="15.28355612">
<ele>88.3</ele>
<time>2023-06-06T08:36:43Z</time>
<extensions>
<tp1:TrackPointExtension>
<tp1:hr>133</tp1:hr>
</tp1:TrackPointExtension>
</extensions>
</trkpt>
<trkpt lat="58.56239777" lon="15.28368604">
<ele>88.2</ele>
<time>2023-06-06T08:36:45Z</time>
<extensions>
<tp1:TrackPointExtension>
<tp1:hr>134</tp1:hr>
</tp1:TrackPointExtension>
</extensions>
</trkpt>
<trkpt lat="58.56242929" lon="15.28381479">
<ele>88.4</ele>
<time>2023-06-06T08:36:47Z</time>
<extensions>
<tp1:TrackPointExtension>
<tp1:hr>134</tp1:hr>
</tp1:TrackPointExtension>
</extensions>
</trkpt>
<trkpt lat="58.56244488" lon="15.28388226">
<ele>88.4</ele>
<time>2023-06-06T08:36:48Z</time>
<extensions>
<tp1:TrackPointExtension>
<tp1:hr>133</tp1:hr>
</tp1:TrackPointExtension>
</extensions>
</trkpt>
<trkpt lat="58.56245359" lon="15.28404236">
<ele>88.4</ele>
<time>2023-06-06T08:36:51Z</time>
<extensions>
<tp1:TrackPointExtension>
<tp1:hr>132</tp1:hr>
</tp1:TrackPointExtension>
</extensions>
</trkpt>
<trkpt lat="58.56245946" lon="15.28402668">
<ele>88.5</ele>
<time>2023-06-06T08:36:52Z</time>
<extensions>
<tp1:TrackPointExtension>
<tp1:hr>131</tp1:hr>
</tp1:TrackPointExtension>
</extensions>
</trkpt>
<trkpt lat="58.56247321" lon="15.2839753">
<ele>88.5</ele>
<time>2023-06-06T08:36:53Z</time>
<extensions>
<tp1:TrackPointExtension>
<tp1:hr>132</tp1:hr>
</tp1:TrackPointExtension>
</extensions>
</trkpt>
<trkpt lat="58.56250271" lon="15.28369292">
<ele>88.7</ele>
<time>2023-06-06T08:36:58Z</time>
<extensions>
<tp1:TrackPointExtension>
<tp1:hr>133</tp1:hr>
</tp1:TrackPointExtension>
</extensions>
</trkpt>
<trkpt lat="58.5625618" lon="15.28334264">
<ele>88.8</ele>
<time>2023-06-06T08:37:03Z</time>
<extensions>
<tp1:TrackPointExtension>
<tp1:hr>136</tp1:hr>
</tp1:TrackPointExtension>
</extensions>
</trkpt>
<trkpt lat="58.56268611" lon="15.28303276">
<ele>88.9</ele>
<time>2023-06-06T08:37:08Z</time>
<extensions>
<tp1:TrackPointExtension>
<tp1:hr>135</tp1:hr>
</tp1:TrackPointExtension>
</extensions>
</trkpt>
<trkpt lat="58.56272064" lon="15.28297568">
<ele>88.9</ele>
<time>2023-06-06T08:37:09Z</time>
<extensions>
<tp1:TrackPointExtension>
<tp1:hr>136</tp1:hr>
</tp1:TrackPointExtension>
</extensions>
</trkpt>
<trkpt lat="58.56282751" lon="15.28282103">
<ele>89.1</ele>
<time>2023-06-06T08:37:12Z</time>
<extensions>
<tp1:TrackPointExtension>
<tp1:hr>133</tp1:hr>
</tp1:TrackPointExtension>
</extensions>
</trkpt>
<trkpt lat="58.5628638" lon="15.28277032">
<ele>89.1</ele>
<time>2023-06-06T08:37:13Z</time>
<extensions>
<tp1:TrackPointExtension>
<tp1:hr>134</tp1:hr>
</tp1:TrackPointExtension>
</extensions>
</trkpt>
<trkpt lat="58.56293145" lon="15.28266404">
<ele>89.2</ele>
<time>2023-06-06T08:37:15Z</time>
<extensions>
<tp1:TrackPointExtension>
<tp1:hr>131</tp1:hr>
</tp1:TrackPointExtension>
</extensions>
</trkpt>
<trkpt lat="58.5629581" lon="15.28260838">
<ele>89.2</ele>
<time>2023-06-06T08:37:16Z</time>
<extensions>
<tp1:TrackPointExtension>
<tp1:hr>132</tp1:hr>
</tp1:TrackPointExtension>
</extensions>
</trkpt>
<trkpt lat="58.56298191" lon="15.28241074">
<ele>89.2</ele>
<time>2023-06-06T08:37:19Z</time>
<extensions>
<tp1:TrackPointExtension>
<tp1:hr>130</tp1:hr>
</tp1:TrackPointExtension>
</extensions>
</trkpt>
<trkpt lat="58.56287939" lon="15.28221871">
<ele>89.3</ele>
<time>2023-06-06T08:37:22Z</time>
<extensions>
<tp1:TrackPointExtension>
<tp1:hr>129</tp1:hr>
</tp1:TrackPointExtension>
</extensions>
</trkpt>
<trkpt lat="58.56284075" lon="15.28216414">
<ele>89.3</ele>
<time>2023-06-06T08:37:23Z</time>
<extensions>
<tp1:TrackPointExtension>
<tp1:hr>130</tp1:hr>
</tp1:TrackPointExtension>
</extensions>
</trkpt>
<trkpt lat="58.56268435" lon="15.28195367">
<ele>89.3</ele>
<time>2023-06-06T08:37:27Z</time>
<extensions>
<tp1:TrackPointExtension>
<tp1:hr>130</tp1:hr>
</tp1:TrackPointExtension>
</extensions>
</trkpt>
<trkpt lat="58.56265074" lon="15.28191159">
<ele>89.3</ele>
<time>2023-06-06T08:37:28Z</time>
<extensions>
<tp1:TrackPointExtension>
<tp1:hr>133</tp1:hr>
</tp1:TrackPointExtension>
</extensions>
</trkpt>
<trkpt lat="58.56261729" lon="15.28189852">
<ele>89.3</ele>
<time>2023-06-06T08:37:29Z</time>
<extensions>
<tp1:TrackPointExtension>
<tp1:hr>132</tp1:hr>
</tp1:TrackPointExtension>
</extensions>
</trkpt>
<trkpt lat="58.56259583" lon="15.2819178">
<ele>89.2</ele>
<time>2023-06-06T08:37:30Z</time>
<extensions>
<tp1:TrackPointExtension>
<tp1:hr>132</tp1:hr>
</tp1:TrackPointExtension>
</extensions>
</trkpt>
<trkpt lat="58.56252157" lon="15.28211494">
<ele>89.2</ele>
<time>2023-06-06T08:37:33Z</time>
<extensions>
<tp1:TrackPointExtension>
<tp1:hr>128</tp1:hr>
</tp1:TrackPointExtension>
</extensions>
</trkpt>
<trkpt lat="58.56245577" lon="15.28223547">
<ele>89.2</ele>
<time>2023-06-06T08:37:35Z</time>
<extensions>
<tp1:TrackPointExtension>
<tp1:hr>129</tp1:hr>
</tp1:TrackPointExtension>
</extensions>
</trkpt>
<trkpt lat="58.5624204" lon="15.28227746">
<ele>89.2</ele>
<time>2023-06-06T08:37:36Z</time>
<extensions>
<tp1:TrackPointExtension>
<tp1:hr>130</tp1:hr>
</tp1:TrackPointExtension>
</extensions>
</trkpt>
<trkpt lat="58.56238805" lon="15.28228652">
<ele>89.1</ele>
<time>2023-06-06T08:37:39Z</time>
<extensions>
<tp1:TrackPointExtension>
<tp1:hr>132</tp1:hr>
</tp1:TrackPointExtension>
</extensions>
</trkpt>
<trkpt lat="58.56249123" lon="15.28213774">
<ele>88.9</ele>
<time>2023-06-06T08:37:42Z</time>
<extensions>
<tp1:TrackPointExtension>
<tp1:hr>130</tp1:hr>
</tp1:TrackPointExtension>
</extensions>
</trkpt>
<trkpt lat="58.5625955" lon="15.28194118">
<ele>88.8</ele>
<time>2023-06-06T08:37:46Z</time>
<extensions>
<tp1:TrackPointExtension>
<tp1:hr>129</tp1:hr>
</tp1:TrackPointExtension>
</extensions>
</trkpt>
<trkpt lat="58.56269181" lon="15.28194638">
<ele>88.8</ele>
<time>2023-06-06T08:37:49Z</time>
<extensions>
<tp1:TrackPointExtension>
<tp1:hr>132</tp1:hr>
</tp1:TrackPointExtension>
</extensions>
</trkpt>
<trkpt lat="58.56271796" lon="15.281938">
<ele>88.8</ele>
<time>2023-06-06T08:37:50Z</time>
<extensions>
<tp1:TrackPointExtension>
<tp1:hr>132</tp1:hr>
</tp1:TrackPointExtension>
</extensions>
</trkpt>
<trkpt lat="58.56271259" lon="15.28188846">
<ele>88.7</ele>
<time>2023-06-06T08:37:53Z</time>
<extensions>
<tp1:TrackPointExtension>
<tp1:hr>137</tp1:hr>
</tp1:TrackPointExtension>
</extensions>
</trkpt>
<trkpt lat="58.56254915" lon="15.28174396">
<ele>88.7</ele>
<time>2023-06-06T08:37:57Z</time>
<extensions>
<tp1:TrackPointExtension>
<tp1:hr>137</tp1:hr>
</tp1:TrackPointExtension>
</extensions>
</trkpt>
<trkpt lat="58.56250581" lon="15.28171982">
<ele>88.7</ele>
<time>2023-06-06T08:37:58Z</time>
<extensions>
<tp1:TrackPointExtension>
<tp1:hr>134</tp1:hr>
</tp1:TrackPointExtension>
</extensions>
</trkpt>
<trkpt lat="58.56239065" lon="15.28164513">
<ele>88.6</ele>
<time>2023-06-06T08:38:01Z</time>
<extensions>
<tp1:TrackPointExtension>
<tp1:hr>131</tp1:hr>
</tp1:TrackPointExtension>
</extensions>
</trkpt>
<trkpt lat="58.56237086" lon="15.28159526">
<ele>88.6</ele>
<time>2023-06-06T08:38:02Z</time>
<extensions>
<tp1:TrackPointExtension>
<tp1:hr>132</tp1:hr>
</tp1:TrackPointExtension>
</extensions>
</trkpt>
<trkpt lat="58.56236827" lon="15.28155067">
<ele>88.6</ele>
<time>2023-06-06T08:38:03Z</time>
<extensions>
<tp1:TrackPointExtension>
<tp1:hr>132</tp1:hr>
</tp1:TrackPointExtension>
</extensions>
</trkpt>
<trkpt lat="58.56240305" lon="15.28146333">
<ele>88.6</ele>
<time>2023-06-06T08:38:05Z</time>
<extensions>
<tp1:TrackPointExtension>
<tp1:hr>131</tp1:hr>
</tp1:TrackPointExtension>
</extensions>
</trkpt>
<trkpt lat="58.56254077" lon="15.28116301">
<ele>88.5</ele>
<time>2023-06-06T08:38:10Z</time>
<extensions>
<tp1:TrackPointExtension>
<tp1:hr>134</tp1:hr>
</tp1:TrackPointExtension>
</extensions>
</trkpt>
<trkpt lat="58.56256926" lon="15.28110475">
<ele>88.5</ele>
<time>2023-06-06T08:38:11Z</time>
<extensions>
<tp1:TrackPointExtension>
<tp1:hr>131</tp1:hr>
</tp1:TrackPointExtension>
</extensions>
</trkpt>
<trkpt lat="58.56270975" lon="15.28078834">
<ele>88.4</ele>
<time>2023-06-06T08:38:16Z</time>
<extensions>
<tp1:TrackPointExtension>
<tp1:hr>128</tp1:hr>
</tp1:TrackPointExtension>
</extensions>
</trkpt>
<trkpt lat="58.56273849" lon="15.28072463">
<ele>88.4</ele>
<time>2023-06-06T08:38:17Z</time>
<extensions>
<tp1:TrackPointExtension>
<tp1:hr>132</tp1:hr>
</tp1:TrackPointExtension>
</extensions>
</trkpt>
<trkpt lat="58.56284696" lon="15.2804549">
<ele>88.2</ele>
<time>2023-06-06T08:38:21Z</time>
<extensions>
<tp1:TrackPointExtension>
<tp1:hr>130</tp1:hr>
</tp1:TrackPointExtension>
</extensions>
</trkpt>
<trkpt lat="58.56297277" lon="15.28021057">
<ele>88.1</ele>
<time>2023-06-06T08:38:25Z</time>
<extensions>
<tp1:TrackPointExtension>
<tp1:hr>130</tp1:hr>
</tp1:TrackPointExtension>
</extensions>
</trkpt>
<trkpt lat="58.56301568" lon="15.2801519">
<ele>88.1</ele>
<time>2023-06-06T08:38:26Z</time>
<extensions>
<tp1:TrackPointExtension>
<tp1:hr>131</tp1:hr>
</tp1:TrackPointExtension>
</extensions>
</trkpt>
<trkpt lat="58.56304837" lon="15.2800954">
<ele>88.3</ele>
<time>2023-06-06T08:38:27Z</time>
<extensions>
<tp1:TrackPointExtension>
<tp1:hr>131</tp1:hr>
</tp1:TrackPointExtension>
</extensions>
</trkpt>
<trkpt lat="58.56318944" lon="15.27987806">
<ele>88.2</ele>
<time>2023-06-06T08:38:31Z</time>
<extensions>
<tp1:TrackPointExtension>
<tp1:hr>130</tp1:hr>
</tp1:TrackPointExtension>
</extensions>
</trkpt>
<trkpt lat="58.56320629" lon="15.27983137">
<ele>88.2</ele>
<time>2023-06-06T08:38:32Z</time>
<extensions>
<tp1:TrackPointExtension>
<tp1:hr>132</tp1:hr>
</tp1:TrackPointExtension>
</extensions>
</trkpt>
<trkpt lat="58.56322138" lon="15.27977404">
<ele>88.2</ele>
<time>2023-06-06T08:38:35Z</time>
<extensions>
<tp1:TrackPointExtension>
<tp1:hr>131</tp1:hr>
</tp1:TrackPointExtension>
</extensions>
</trkpt>
<trkpt lat="58.56323881" lon="15.27974093">
<ele>88.2</ele>
<time>2023-06-06T08:38:36Z</time>
<extensions>
<tp1:TrackPointExtension>
<tp1:hr>132</tp1:hr>
</tp1:TrackPointExtension>
</extensions>
</trkpt>
<trkpt lat="58.56329338" lon="15.2796888">
<ele>88.1</ele>
<time>2023-06-06T08:38:38Z</time>
<extensions>
<tp1:TrackPointExtension>
<tp1:hr>132</tp1:hr>
</tp1:TrackPointExtension>
</extensions>
</trkpt>
<trkpt lat="58.56343822" lon="15.27947942">
<ele>88.1</ele>
<time>2023-06-06T08:38:43Z</time>
<extensions>
<tp1:TrackPointExtension>
<tp1:hr>131</tp1:hr>
</tp1:TrackPointExtension>
</extensions>
</trkpt>
<trkpt lat="58.56345548" lon="15.27945176">
<ele>88.1</ele>
<time>2023-06-06T08:38:44Z</time>
<extensions>
<tp1:TrackPointExtension>
<tp1:hr>131</tp1:hr>
</tp1:TrackPointExtension>
</extensions>
</trkpt>
<trkpt lat="58.5634274" lon="15.2793645">
<ele>88.0</ele>
<time>2023-06-06T08:38:46Z</time>
<extensions>
<tp1:TrackPointExtension>
<tp1:hr>132</tp1:hr>
</tp1:TrackPointExtension>
</extensions>
</trkpt>
<trkpt lat="58.56332405" lon="15.27914288">
<ele>88.0</ele>
<time>2023-06-06T08:38:49Z</time>
<extensions>
<tp1:TrackPointExtension>
<tp1:hr>133</tp1:hr>
</tp1:TrackPointExtension>
</extensions>
</trkpt>
<trkpt lat="58.5632881" lon="15.27889604">
<ele>87.7</ele>
<time>2023-06-06T08:38:53Z</time>
<extensions>
<tp1:TrackPointExtension>
<tp1:hr>132</tp1:hr>
</tp1:TrackPointExtension>
</extensions>
</trkpt>
<trkpt lat="58.56326521" lon="15.27888816">
<ele>87.7</ele>
<time>2023-06-06T08:38:54Z</time>
<extensions>
<tp1:TrackPointExtension>
<tp1:hr>131</tp1:hr>
</tp1:TrackPointExtension>
</extensions>
</trkpt>
<trkpt lat="58.5631933" lon="15.2789579">
<ele>87.7</ele>
<time>2023-06-06T08:38:56Z</time>
<extensions>
<tp1:TrackPointExtension>
<tp1:hr>134</tp1:hr>
</tp1:TrackPointExtension>
</extensions>
</trkpt>
<trkpt lat="58.56307704" lon="15.27908103">
<ele>87.7</ele>
<time>2023-06-06T08:38:59Z</time>
<extensions>
<tp1:TrackPointExtension>
<tp1:hr>133</tp1:hr>
</tp1:TrackPointExtension>
</extensions>
</trkpt>
<trkpt lat="58.56299456" lon="15.27917247">
<ele>87.6</ele>
<time>2023-06-06T08:39:01Z</time>
<extensions>
<tp1:TrackPointExtension>
<tp1:hr>135</tp1:hr>
</tp1:TrackPointExtension>
</extensions>
</trkpt>
<trkpt lat="58.56283153" lon="15.27932351">
<ele>87.4</ele>
<time>2023-06-06T08:39:05Z</time>
<extensions>
<tp1:TrackPointExtension>
<tp1:hr>136</tp1:hr>
</tp1:TrackPointExtension>
</extensions>
</trkpt>
<trkpt lat="58.56280396" lon="15.27936819">
<ele>87.4</ele>
<time>2023-06-06T08:39:06Z</time>
<extensions>
<tp1:TrackPointExtension>
<tp1:hr>137</tp1:hr>
</tp1:TrackPointExtension>
</extensions>
</trkpt>
<trkpt lat="58.56278988" lon="15.2794184">
<ele>87.4</ele>
<time>2023-06-06T08:39:07Z</time>
<extensions>
<tp1:TrackPointExtension>
<tp1:hr>137</tp1:hr>
</tp1:TrackPointExtension>
</extensions>
</trkpt>
<trkpt lat="58.56269751" lon="15.27954765">
<ele>87.1</ele>
<time>2023-06-06T08:39:11Z</time>
<extensions>
<tp1:TrackPointExtension>
<tp1:hr>138</tp1:hr>
</tp1:TrackPointExtension>
</extensions>
</trkpt>
<trkpt lat="58.56268552" lon="15.2795852">
<ele>87.1</ele>
<time>2023-06-06T08:39:12Z</time>
<extensions>
<tp1:TrackPointExtension>
<tp1:hr>139</tp1:hr>
</tp1:TrackPointExtension>
</extensions>
</trkpt>
<trkpt lat="58.56268628" lon="15.27970389">
<ele>87.1</ele>
<time>2023-06-06T08:39:14Z</time>
<extensions>
<tp1:TrackPointExtension>
<tp1:hr>140</tp1:hr>
</tp1:TrackPointExtension>
</extensions>
</trkpt>
<trkpt lat="58.56267848" lon="15.27985317">
<ele>86.8</ele>
<time>2023-06-06T08:39:16Z</time>
<extensions>
<tp1:TrackPointExtension>
<tp1:hr>142</tp1:hr>
</tp1:TrackPointExtension>
</extensions>
</trkpt>
<trkpt lat="58.56265669" lon="15.27990103">
<ele>86.8</ele>
<time>2023-06-06T08:39:17Z</time>
<extensions>
<tp1:TrackPointExtension>
<tp1:hr>145</tp1:hr>
</tp1:TrackPointExtension>
</extensions>
</trkpt>
<trkpt lat="58.56263875" lon="15.27991586">
<ele>86.8</ele>
<time>2023-06-06T08:39:18Z</time>
<extensions>
<tp1:TrackPointExtension>
<tp1:hr>147</tp1:hr>
</tp1:TrackPointExtension>
</extensions>
</trkpt>
<trkpt lat="58.56260279" lon="15.27986071">
<ele>86.8</ele>
<time>2023-06-06T08:39:21Z</time>
<extensions>
<tp1:TrackPointExtension>
<tp1:hr>152</tp1:hr>
</tp1:TrackPointExtension>
</extensions>
</trkpt>
<trkpt lat="58.56255627" lon="15.27971076">
<ele>86.5</ele>
<time>2023-06-06T08:39:26Z</time>
<extensions>
<tp1:TrackPointExtension>
<tp1:hr>154</tp1:hr>
</tp1:TrackPointExtension>
</extensions>
</trkpt>
<trkpt lat="58.56255082" lon="15.27969316">
<ele>86.5</ele>
<time>2023-06-06T08:39:27Z</time>
<extensions>
<tp1:TrackPointExtension>
<tp1:hr>155</tp1:hr>
</tp1:TrackPointExtension>
</extensions>
</trkpt>
<trkpt lat="58.56257304" lon="15.27958847">
<ele>86.5</ele>
<time>2023-06-06T08:39:29Z</time>
<extensions>
<tp1:TrackPointExtension>
<tp1:hr>159</tp1:hr>
</tp1:TrackPointExtension>
</extensions>
</trkpt>
<trkpt lat="58.56262903" lon="15.27946441">
<ele>86.2</ele>
<time>2023-06-06T08:39:31Z</time>
<extensions>
<tp1:TrackPointExtension>
<tp1:hr>162</tp1:hr>
</tp1:TrackPointExtension>
</extensions>
</trkpt>
<trkpt lat="58.5627473" lon="15.27928722">
<ele>86.2</ele>
<time>2023-06-06T08:39:34Z</time>
<extensions>
<tp1:TrackPointExtension>
<tp1:hr>163</tp1:hr>
</tp1:TrackPointExtension>
</extensions>
</trkpt>
<trkpt lat="58.5628265" lon="15.27915169">
<ele>86.2</ele>
<time>2023-06-06T08:39:36Z</time>
<extensions>
<tp1:TrackPointExtension>
<tp1:hr>163</tp1:hr>
</tp1:TrackPointExtension>
</extensions>
</trkpt>
<trkpt lat="58.56290387" lon="15.27904968">
<ele>86.5</ele>
<time>2023-06-06T08:39:38Z</time>
<extensions>
<tp1:TrackPointExtension>
<tp1:hr>163</tp1:hr>
</tp1:TrackPointExtension>
</extensions>
</trkpt>
<trkpt lat="58.56292809" lon="15.27889688">
<ele>85.5</ele>
<time>2023-06-06T08:39:40Z</time>
<extensions>
<tp1:TrackPointExtension>
<tp1:hr>163</tp1:hr>
</tp1:TrackPointExtension>
</extensions>
</trkpt>
<trkpt lat="58.56291083" lon="15.27881457">
<ele>84.3</ele>
<time>2023-06-06T08:39:41Z</time>
<extensions>
<tp1:TrackPointExtension>
<tp1:hr>163</tp1:hr>
</tp1:TrackPointExtension>
</extensions>
</trkpt>
<trkpt lat="58.56288283" lon="15.27873854">
<ele>83.7</ele>
<time>2023-06-06T08:39:42Z</time>
<extensions>
<tp1:TrackPointExtension>
<tp1:hr>164</tp1:hr>
</tp1:TrackPointExtension>
</extensions>
</trkpt>
<trkpt lat="58.56277336" lon="15.27850829">
<ele>83.6</ele>
<time>2023-06-06T08:39:45Z</time>
<extensions>
<tp1:TrackPointExtension>
<tp1:hr>165</tp1:hr>
</tp1:TrackPointExtension>
</extensions>
</trkpt>
<trkpt lat="58.56264219" lon="15.27819087">
<ele>83.6</ele>
<time>2023-06-06T08:39:49Z</time>
<extensions>
<tp1:TrackPointExtension>
<tp1:hr>164</tp1:hr>
</tp1:TrackPointExtension>
</extensions>
</trkpt>
<trkpt lat="58.56260967" lon="15.27811862">
<ele>83.6</ele>
<time>2023-06-06T08:39:50Z</time>
<extensions>
<tp1:TrackPointExtension>
<tp1:hr>163</tp1:hr>
</tp1:TrackPointExtension>
</extensions>
</trkpt>
<trkpt lat="58.56254035" lon="15.27795475">
<ele>83.6</ele>
<time>2023-06-06T08:39:52Z</time>
<extensions>
<tp1:TrackPointExtension>
<tp1:hr>163</tp1:hr>
</tp1:TrackPointExtension>
</extensions>
</trkpt>
<trkpt lat="58.56245762" lon="15.27773255">
<ele>83.5</ele>
<time>2023-06-06T08:39:55Z</time>
<extensions>
<tp1:TrackPointExtension>
<tp1:hr>165</tp1:hr>
</tp1:TrackPointExtension>
</extensions>
</trkpt>
<trkpt lat="58.56235871" lon="15.27747665">
<ele>83.5</ele>
<time>2023-06-06T08:39:59Z</time>
<extensions>
<tp1:TrackPointExtension>
<tp1:hr>164</tp1:hr>
</tp1:TrackPointExtension>
</extensions>
</trkpt>
<trkpt lat="58.56224346" lon="15.27732678">
<ele>83.4</ele>
<time>2023-06-06T08:40:03Z</time>
<extensions>
<tp1:TrackPointExtension>
<tp1:hr>164</tp1:hr>
</tp1:TrackPointExtension>
</extensions>
</trkpt>
<trkpt lat="58.56212368" lon="15.27706451">
<ele>83.2</ele>
<time>2023-06-06T08:40:07Z</time>
<extensions>
<tp1:TrackPointExtension>
<tp1:hr>165</tp1:hr>
</tp1:TrackPointExtension>
</extensions>
</trkpt>
<trkpt lat="58.56206643" lon="15.27693132">
<ele>83.1</ele>
<time>2023-06-06T08:40:09Z</time>
<extensions>
<tp1:TrackPointExtension>
<tp1:hr>167</tp1:hr>
</tp1:TrackPointExtension>
</extensions>
</trkpt>
<trkpt lat="58.56204271" lon="15.27686921">
<ele>83.1</ele>
<time>2023-06-06T08:40:10Z</time>
<extensions>
<tp1:TrackPointExtension>
<tp1:hr>166</tp1:hr>
</tp1:TrackPointExtension>
</extensions>
</trkpt>
<trkpt lat="58.56198421" lon="15.27677751">
<ele>83.1</ele>
<time>2023-06-06T08:40:12Z</time>
<extensions>
<tp1:TrackPointExtension>
<tp1:hr>165</tp1:hr>
</tp1:TrackPointExtension>
</extensions>
</trkpt>
<trkpt lat="58.56194967" lon="15.27676494">
<ele>83.1</ele>
<time>2023-06-06T08:40:13Z</time>
<extensions>
<tp1:TrackPointExtension>
<tp1:hr>165</tp1:hr>
</tp1:TrackPointExtension>
</extensions>
</trkpt>
<trkpt lat="58.56191497" lon="15.27678019">
<ele>83.1</ele>
<time>2023-06-06T08:40:14Z</time>
<extensions>
<tp1:TrackPointExtension>
<tp1:hr>165</tp1:hr>
</tp1:TrackPointExtension>
</extensions>
</trkpt>
<trkpt lat="58.56184792" lon="15.27691422">
<ele>82.8</ele>
<time>2023-06-06T08:40:16Z</time>
<extensions>
<tp1:TrackPointExtension>
<tp1:hr>165</tp1:hr>
</tp1:TrackPointExtension>
</extensions>
</trkpt>
<trkpt lat="58.56171959" lon="15.27719669">
<ele>82.8</ele>
<time>2023-06-06T08:40:21Z</time>
<extensions>
<tp1:TrackPointExtension>
<tp1:hr>165</tp1:hr>
</tp1:TrackPointExtension>
</extensions>
</trkpt>
<trkpt lat="58.56171959" lon="15.27727137">
<ele>82.8</ele>
<time>2023-06-06T08:40:22Z</time>
<extensions>
<tp1:TrackPointExtension>
<tp1:hr>166</tp1:hr>
</tp1:TrackPointExtension>
</extensions>
</trkpt>
<trkpt lat="58.56171817" lon="15.27729811">
<ele>82.7</ele>
<time>2023-06-06T08:40:23Z</time>
<extensions>
<tp1:TrackPointExtension>
<tp1:hr>166</tp1:hr>
</tp1:TrackPointExtension>
</extensions>
</trkpt>
<trkpt lat="58.56173476" lon="15.27738998">
<ele>82.7</ele>
<time>2023-06-06T08:40:25Z</time>
<extensions>
<tp1:TrackPointExtension>
<tp1:hr>167</tp1:hr>
</tp1:TrackPointExtension>
</extensions>
</trkpt>
<trkpt lat="58.56175714" lon="15.27743692">
<ele>82.7</ele>
<time>2023-06-06T08:40:26Z</time>
<extensions>
<tp1:TrackPointExtension>
<tp1:hr>167</tp1:hr>
</tp1:TrackPointExtension>
</extensions>
</trkpt>
<trkpt lat="58.56180416" lon="15.27757111">
<ele>82.7</ele>
<time>2023-06-06T08:40:28Z</time>
<extensions>
<tp1:TrackPointExtension>
<tp1:hr>167</tp1:hr>
</tp1:TrackPointExtension>
</extensions>
</trkpt>
<trkpt lat="58.56185353" lon="15.27781444">
<ele>82.6</ele>
<time>2023-06-06T08:40:30Z</time>
<extensions>
<tp1:TrackPointExtension>
<tp1:hr>167</tp1:hr>
</tp1:TrackPointExtension>
</extensions>
</trkpt>
<trkpt lat="58.56186837" lon="15.27790681">
<ele>82.6</ele>
<time>2023-06-06T08:40:32Z</time>
<extensions>
<tp1:TrackPointExtension>
<tp1:hr>167</tp1:hr>
</tp1:TrackPointExtension>
</extensions>
</trkpt>
<trkpt lat="58.56188019" lon="15.27798928">
<ele>82.6</ele>
<time>2023-06-06T08:40:33Z</time>
<extensions>
<tp1:TrackPointExtension>
<tp1:hr>167</tp1:hr>
</tp1:TrackPointExtension>
</extensions>
</trkpt>
<trkpt lat="58.56190525" lon="15.27814787">
<ele>82.4</ele>
<time>2023-06-06T08:40:35Z</time>
<extensions>
<tp1:TrackPointExtension>
<tp1:hr>167</tp1:hr>
</tp1:TrackPointExtension>
</extensions>
</trkpt>
<trkpt lat="58.56190735" lon="15.27821274">
<ele>82.4</ele>
<time>2023-06-06T08:40:36Z</time>
<extensions>
<tp1:TrackPointExtension>
<tp1:hr>166</tp1:hr>
</tp1:TrackPointExtension>
</extensions>
</trkpt>
<trkpt lat="58.56190466" lon="15.27821509">
<ele>82.3</ele>
<time>2023-06-06T08:40:38Z</time>
<extensions>
<tp1:TrackPointExtension>
<tp1:hr>166</tp1:hr>
</tp1:TrackPointExtension>
</extensions>
</trkpt>
<trkpt lat="58.5618625" lon="15.27812683">
<ele>82.3</ele>
<time>2023-06-06T08:40:40Z</time>
<extensions>
<tp1:TrackPointExtension>
<tp1:hr>166</tp1:hr>
</tp1:TrackPointExtension>
</extensions>
</trkpt>
<trkpt lat="58.56182302" lon="15.27810152">
<ele>82.3</ele>
<time>2023-06-06T08:40:41Z</time>
<extensions>
<tp1:TrackPointExtension>
<tp1:hr>165</tp1:hr>
</tp1:TrackPointExtension>
</extensions>
</trkpt>
<trkpt lat="58.56162932" lon="15.27805491">
<ele>82.2</ele>
<time>2023-06-06T08:40:45Z</time>
<extensions>
<tp1:TrackPointExtension>
<tp1:hr>166</tp1:hr>
</tp1:TrackPointExtension>
</extensions>
</trkpt>
<trkpt lat="58.56153779" lon="15.27805919">
<ele>82.2</ele>
<time>2023-06-06T08:40:47Z</time>
<extensions>
<tp1:TrackPointExtension>
<tp1:hr>168</tp1:hr>
</tp1:TrackPointExtension>
</extensions>
</trkpt>
<trkpt lat="58.56144533" lon="15.27810168">
<ele>82.2</ele>
<time>2023-06-06T08:40:50Z</time>
<extensions>
<tp1:TrackPointExtension>
<tp1:hr>169</tp1:hr>
</tp1:TrackPointExtension>
</extensions>
</trkpt>
<trkpt lat="58.56140736" lon="15.27834501">
<ele>81.9</ele>
<time>2023-06-06T08:40:53Z</time>
<extensions>
<tp1:TrackPointExtension>
<tp1:hr>166</tp1:hr>
</tp1:TrackPointExtension>
</extensions>
</trkpt>
<trkpt lat="58.56139991" lon="15.2784544">
<ele>81.9</ele>
<time>2023-06-06T08:40:54Z</time>
<extensions>
<tp1:TrackPointExtension>
<tp1:hr>166</tp1:hr>
</tp1:TrackPointExtension>
</extensions>
</trkpt>
<trkpt lat="58.56138281" lon="15.27883485">
<ele>81.9</ele>
<time>2023-06-06T08:40:58Z</time>
<extensions>
<tp1:TrackPointExtension>
<tp1:hr>167</tp1:hr>
</tp1:TrackPointExtension>
</extensions>
</trkpt>
<trkpt lat="58.56137996" lon="15.27892596">
<ele>81.9</ele>
<time>2023-06-06T08:40:59Z</time>
<extensions>
<tp1:TrackPointExtension>
<tp1:hr>170</tp1:hr>
</tp1:TrackPointExtension>
</extensions>
</trkpt>
<trkpt lat="58.56137577" lon="15.27901364">
<ele>81.9</ele>
<time>2023-06-06T08:41:00Z</time>
<extensions>
<tp1:TrackPointExtension>
<tp1:hr>167</tp1:hr>
</tp1:TrackPointExtension>
</extensions>
</trkpt>
<trkpt lat="58.56138574" lon="15.27929175">
<ele>81.6</ele>
<time>2023-06-06T08:41:03Z</time>
<extensions>
<tp1:TrackPointExtension>
<tp1:hr>168</tp1:hr>
</tp1:TrackPointExtension>
</extensions>
</trkpt>
<trkpt lat="58.56139077" lon="15.27947313">
<ele>81.6</ele>
<time>2023-06-06T08:41:05Z</time>
<extensions>
<tp1:TrackPointExtension>
<tp1:hr>169</tp1:hr>
</tp1:TrackPointExtension>
</extensions>
</trkpt>
<trkpt lat="58.56138867" lon="15.27965678">
<ele>81.6</ele>
<time>2023-06-06T08:41:07Z</time>
<extensions>
<tp1:TrackPointExtension>
<tp1:hr>170</tp1:hr>
</tp1:TrackPointExtension>
</extensions>
</trkpt>
<trkpt lat="58.5613901" lon="15.27974035">
<ele>81.5</ele>
<time>2023-06-06T08:41:08Z</time>
<extensions>
<tp1:TrackPointExtension>
<tp1:hr>170</tp1:hr>
</tp1:TrackPointExtension>
</extensions>
</trkpt>
<trkpt lat="58.56142765" lon="15.28008627">
<ele>81.5</ele>
<time>2023-06-06T08:41:12Z</time>
<extensions>
<tp1:TrackPointExtension>
<tp1:hr>170</tp1:hr>
</tp1:TrackPointExtension>
</extensions>
</trkpt>
<trkpt lat="58.56143829" lon="15.28017361">
<ele>81.5</ele>
<time>2023-06-06T08:41:13Z</time>
<extensions>
<tp1:TrackPointExtension>
<tp1:hr>170</tp1:hr>
</tp1:TrackPointExtension>
</extensions>
</trkpt>
<trkpt lat="58.56146964" lon="15.28052674">
<ele>81.4</ele>
<time>2023-06-06T08:41:17Z</time>
<extensions>
<tp1:TrackPointExtension>
<tp1:hr>168</tp1:hr>
</tp1:TrackPointExtension>
</extensions>
</trkpt>
<trkpt lat="58.56148775" lon="15.28070401">
<ele>81.2</ele>
<time>2023-06-06T08:41:19Z</time>
<extensions>
<tp1:TrackPointExtension>
<tp1:hr>169</tp1:hr>
</tp1:TrackPointExtension>
</extensions>
</trkpt>
<trkpt lat="58.56151063" lon="15.28104809">
<ele>81.1</ele>
<time>2023-06-06T08:41:23Z</time>
<extensions>
<tp1:TrackPointExtension>
<tp1:hr>170</tp1:hr>
</tp1:TrackPointExtension>
</extensions>
</trkpt>
<trkpt lat="58.56152304" lon="15.2812278">
<ele>81.1</ele>
<time>2023-06-06T08:41:25Z</time>
<extensions>
<tp1:TrackPointExtension>
<tp1:hr>169</tp1:hr>
</tp1:TrackPointExtension>
</extensions>
</trkpt>
<trkpt lat="58.56152731" lon="15.28131405">
<ele>81.1</ele>
<time>2023-06-06T08:41:26Z</time>
<extensions>
<tp1:TrackPointExtension>
<tp1:hr>168</tp1:hr>
</tp1:TrackPointExtension>
</extensions>
</trkpt>
<trkpt lat="58.56155891" lon="15.28155863">
<ele>81.1</ele>
<time>2023-06-06T08:41:29Z</time>
<extensions>
<tp1:TrackPointExtension>
<tp1:hr>169</tp1:hr>
</tp1:TrackPointExtension>
</extensions>
</trkpt>
<trkpt lat="58.56155497" lon="15.28160691">
<ele>81.1</ele>
<time>2023-06-06T08:41:30Z</time>
<extensions>
<tp1:TrackPointExtension>
<tp1:hr>168</tp1:hr>
</tp1:TrackPointExtension>
</extensions>
</trkpt>
<trkpt lat="58.56155237" lon="15.28161244">
<ele>81.0</ele>
<time>2023-06-06T08:41:31Z</time>
<extensions>
<tp1:TrackPointExtension>
<tp1:hr>169</tp1:hr>
</tp1:TrackPointExtension>
</extensions>
</trkpt>
<trkpt lat="58.56156344" lon="15.28155017">
<ele>81.0</ele>
<time>2023-06-06T08:41:33Z</time>
<extensions>
<tp1:TrackPointExtension>
<tp1:hr>169</tp1:hr>
</tp1:TrackPointExtension>
</extensions>
</trkpt>
<trkpt lat="58.56161281" lon="15.28119293">
<ele>80.7</ele>
<time>2023-06-06T08:41:38Z</time>
<extensions>
<tp1:TrackPointExtension>
<tp1:hr>168</tp1:hr>
</tp1:TrackPointExtension>
</extensions>
</trkpt>
<trkpt lat="58.56176301" lon="15.28098674">
<ele>80.7</ele>
<time>2023-06-06T08:41:42Z</time>
<extensions>
<tp1:TrackPointExtension>
<tp1:hr>168</tp1:hr>
</tp1:TrackPointExtension>
</extensions>
</trkpt>
<trkpt lat="58.5618009" lon="15.28095514">
<ele>80.7</ele>
<time>2023-06-06T08:41:43Z</time>
<extensions>
<tp1:TrackPointExtension>
<tp1:hr>169</tp1:hr>
</tp1:TrackPointExtension>
</extensions>
</trkpt>
<trkpt lat="58.56192746" lon="15.28085782">
<ele>80.6</ele>
<time>2023-06-06T08:41:46Z</time>
<extensions>
<tp1:TrackPointExtension>
<tp1:hr>169</tp1:hr>
</tp1:TrackPointExtension>
</extensions>
</trkpt>
<trkpt lat="58.56200173" lon="15.28080996">
<ele>80.6</ele>
<time>2023-06-06T08:41:48Z</time>
<extensions>
<tp1:TrackPointExtension>
<tp1:hr>171</tp1:hr>
</tp1:TrackPointExtension>
</extensions>
</trkpt>
<trkpt lat="58.56207415" lon="15.2807678">
<ele>80.6</ele>
<time>2023-06-06T08:41:50Z</time>
<extensions>
<tp1:TrackPointExtension>
<tp1:hr>169</tp1:hr>
</tp1:TrackPointExtension>
</extensions>
</trkpt>
<trkpt lat="58.56214631" lon="15.28071122">
<ele>80.6</ele>
<time>2023-06-06T08:41:52Z</time>
<extensions>
<tp1:TrackPointExtension>
<tp1:hr>169</tp1:hr>
</tp1:TrackPointExtension>
</extensions>
</trkpt>
<trkpt lat="58.56225561" lon="15.28064299">
<ele>80.5</ele>
<time>2023-06-06T08:41:55Z</time>
<extensions>
<tp1:TrackPointExtension>
<tp1:hr>169</tp1:hr>
</tp1:TrackPointExtension>
</extensions>
</trkpt>
<trkpt lat="58.5623401" lon="15.28060787">
<ele>80.5</ele>
<time>2023-06-06T08:41:57Z</time>
<extensions>
<tp1:TrackPointExtension>
<tp1:hr>170</tp1:hr>
</tp1:TrackPointExtension>
</extensions>
</trkpt>
<trkpt lat="58.56239995" lon="15.28053545">
<ele>80.5</ele>
<time>2023-06-06T08:41:59Z</time>
<extensions>
<tp1:TrackPointExtension>
<tp1:hr>170</tp1:hr>
</tp1:TrackPointExtension>
</extensions>
</trkpt>
<trkpt lat="58.5624572" lon="15.28046538">
<ele>80.4</ele>
<time>2023-06-06T08:42:01Z</time>
<extensions>
<tp1:TrackPointExtension>
<tp1:hr>170</tp1:hr>
</tp1:TrackPointExtension>
</extensions>
</trkpt>
<trkpt lat="58.56253808" lon="15.28050327">
<ele>80.4</ele>
<time>2023-06-06T08:42:03Z</time>
<extensions>
<tp1:TrackPointExtension>
<tp1:hr>170</tp1:hr>
</tp1:TrackPointExtension>
</extensions>
</trkpt>
<trkpt lat="58.56257195" lon="15.2805544">
<ele>80.4</ele>
<time>2023-06-06T08:42:04Z</time>
<extensions>
<tp1:TrackPointExtension>
<tp1:hr>170</tp1:hr>
</tp1:TrackPointExtension>
</extensions>
</trkpt>
<trkpt lat="58.5626525" lon="15.28073184">
<ele>80.4</ele>
<time>2023-06-06T08:42:07Z</time>
<extensions>
<tp1:TrackPointExtension>
<tp1:hr>170</tp1:hr>
</tp1:TrackPointExtension>
</extensions>
</trkpt>
<trkpt lat="58.5626815" lon="15.28078515">
<ele>80.3</ele>
<time>2023-06-06T08:42:09Z</time>
<extensions>
<tp1:TrackPointExtension>
<tp1:hr>170</tp1:hr>
</tp1:TrackPointExtension>
</extensions>
</trkpt>
<trkpt lat="58.56269256" lon="15.28080041">
<ele>80.3</ele>
<time>2023-06-06T08:42:10Z</time>
<extensions>
<tp1:TrackPointExtension>
<tp1:hr>170</tp1:hr>
</tp1:TrackPointExtension>
</extensions>
</trkpt>
<trkpt lat="58.56269801" lon="15.2808678">
<ele>80.3</ele>
<time>2023-06-06T08:42:12Z</time>
<extensions>
<tp1:TrackPointExtension>
<tp1:hr>170</tp1:hr>
</tp1:TrackPointExtension>
</extensions>
</trkpt>
<trkpt lat="58.56268301" lon="15.28096721">
<ele>80.5</ele>
<time>2023-06-06T08:42:14Z</time>
<extensions>
<tp1:TrackPointExtension>
<tp1:hr>169</tp1:hr>
</tp1:TrackPointExtension>
</extensions>
</trkpt>
<trkpt lat="58.56260497" lon="15.28121078">
<ele>80.4</ele>
<time>2023-06-06T08:42:18Z</time>
<extensions>
<tp1:TrackPointExtension>
<tp1:hr>166</tp1:hr>
</tp1:TrackPointExtension>
</extensions>
</trkpt>
<trkpt lat="58.5625753" lon="15.28133475">
<ele>80.6</ele>
<time>2023-06-06T08:42:20Z</time>
<extensions>
<tp1:TrackPointExtension>
<tp1:hr>166</tp1:hr>
</tp1:TrackPointExtension>
</extensions>
</trkpt>
<trkpt lat="58.56247187" lon="15.28159283">
<ele>80.5</ele>
<time>2023-06-06T08:42:24Z</time>
<extensions>
<tp1:TrackPointExtension>
<tp1:hr>167</tp1:hr>
</tp1:TrackPointExtension>
</extensions>
</trkpt>
<trkpt lat="58.56246189" lon="15.28165243">
<ele>80.5</ele>
<time>2023-06-06T08:42:25Z</time>
<extensions>
<tp1:TrackPointExtension>
<tp1:hr>166</tp1:hr>
</tp1:TrackPointExtension>
</extensions>
</trkpt>
<trkpt lat="58.56246902" lon="15.28171705">
<ele>80.5</ele>
<time>2023-06-06T08:42:26Z</time>
<extensions>
<tp1:TrackPointExtension>
<tp1:hr>167</tp1:hr>
</tp1:TrackPointExtension>
</extensions>
</trkpt>
<trkpt lat="58.56250992" lon="15.28178444">
<ele>80.7</ele>
<time>2023-06-06T08:42:28Z</time>
<extensions>
<tp1:TrackPointExtension>
<tp1:hr>166</tp1:hr>
</tp1:TrackPointExtension>
</extensions>
</trkpt>
<trkpt lat="58.56263012" lon="15.28185451">
<ele>80.6</ele>
<time>2023-06-06T08:42:32Z</time>
<extensions>
<tp1:TrackPointExtension>
<tp1:hr>166</tp1:hr>
</tp1:TrackPointExtension>
</extensions>
</trkpt>
<trkpt lat="58.5626297" lon="15.28181839">
<ele>80.6</ele>
<time>2023-06-06T08:42:34Z</time>
<extensions>
<tp1:TrackPointExtension>
<tp1:hr>166</tp1:hr>
</tp1:TrackPointExtension>
</extensions>
</trkpt>
<trkpt lat="58.56261495" lon="15.28175745">
<ele>80.6</ele>
<time>2023-06-06T08:42:35Z</time>
<extensions>
<tp1:TrackPointExtension>
<tp1:hr>166</tp1:hr>
</tp1:TrackPointExtension>
</extensions>
</trkpt>
<trkpt lat="58.56261025" lon="15.28168394">
<ele>80.8</ele>
<time>2023-06-06T08:42:36Z</time>
<extensions>
<tp1:TrackPointExtension>
<tp1:hr>165</tp1:hr>
</tp1:TrackPointExtension>
</extensions>
</trkpt>
<trkpt lat="58.56262953" lon="15.28153541">
<ele>80.7</ele>
<time>2023-06-06T08:42:38Z</time>
<extensions>
<tp1:TrackPointExtension>
<tp1:hr>166</tp1:hr>
</tp1:TrackPointExtension>
</extensions>
</trkpt>
<trkpt lat="58.56273489" lon="15.28126703">
<ele>80.9</ele>
<time>2023-06-06T08:42:42Z</time>
<extensions>
<tp1:TrackPointExtension>
<tp1:hr>164</tp1:hr>
</tp1:TrackPointExtension>
</extensions>
</trkpt>
<trkpt lat="58.56281133" lon="15.28107332">
<ele>80.9</ele>
<time>2023-06-06T08:42:45Z</time>
<extensions>
<tp1:TrackPointExtension>
<tp1:hr>166</tp1:hr>
</tp1:TrackPointExtension>
</extensions>
</trkpt>
<trkpt lat="58.56283891" lon="15.28100568">
<ele>80.8</ele>
<time>2023-06-06T08:42:46Z</time>
<extensions>
<tp1:TrackPointExtension>
<tp1:hr>167</tp1:hr>
</tp1:TrackPointExtension>
</extensions>
</trkpt>
<trkpt lat="58.56291854" lon="15.2808072">
<ele>81.0</ele>
<time>2023-06-06T08:42:49Z</time>
<extensions>
<tp1:TrackPointExtension>
<tp1:hr>170</tp1:hr>
</tp1:TrackPointExtension>
</extensions>
</trkpt>
<trkpt lat="58.56297545" lon="15.28068205">
<ele>81.0</ele>
<time>2023-06-06T08:42:51Z</time>
<extensions>
<tp1:TrackPointExtension>
<tp1:hr>169</tp1:hr>
</tp1:TrackPointExtension>
</extensions>
</trkpt>
<trkpt lat="58.56300814" lon="15.28063528">
<ele>81.0</ele>
<time>2023-06-06T08:42:52Z</time>
<extensions>
<tp1:TrackPointExtension>
<tp1:hr>169</tp1:hr>
</tp1:TrackPointExtension>
</extensions>
</trkpt>
<trkpt lat="58.56304175" lon="15.28060117">
<ele>81.1</ele>
<time>2023-06-06T08:42:53Z</time>
<extensions>
<tp1:TrackPointExtension>
<tp1:hr>166</tp1:hr>
</tp1:TrackPointExtension>
</extensions>
</trkpt>
<trkpt lat="58.56314426" lon="15.28058256">
<ele>81.1</ele>
<time>2023-06-06T08:42:56Z</time>
<extensions>
<tp1:TrackPointExtension>
<tp1:hr>166</tp1:hr>
</tp1:TrackPointExtension>
</extensions>
</trkpt>
<trkpt lat="58.56325264" lon="15.28060787">
<ele>81.3</ele>
<time>2023-06-06T08:42:59Z</time>
<extensions>
<tp1:TrackPointExtension>
<tp1:hr>169</tp1:hr>
</tp1:TrackPointExtension>
</extensions>
</trkpt>
<trkpt lat="58.56328709" lon="15.2806176">
<ele>81.3</ele>
<time>2023-06-06T08:43:00Z</time>
<extensions>
<tp1:TrackPointExtension>
<tp1:hr>170</tp1:hr>
</tp1:TrackPointExtension>
</extensions>
</trkpt>
<trkpt lat="58.56346403" lon="15.28065288">
<ele>81.4</ele>
<time>2023-06-06T08:43:05Z</time>
<extensions>
<tp1:TrackPointExtension>
<tp1:hr>170</tp1:hr>
</tp1:TrackPointExtension>
</extensions>
</trkpt>
<trkpt lat="58.56358934" lon="15.28066135">
<ele>81.6</ele>
<time>2023-06-06T08:43:08Z</time>
<extensions>
<tp1:TrackPointExtension>
<tp1:hr>169</tp1:hr>
</tp1:TrackPointExtension>
</extensions>
</trkpt>
<trkpt lat="58.56362849" lon="15.28068851">
<ele>81.5</ele>
<time>2023-06-06T08:43:09Z</time>
<extensions>
<tp1:TrackPointExtension>
<tp1:hr>169</tp1:hr>
</tp1:TrackPointExtension>
</extensions>
</trkpt>
<trkpt lat="58.56377542" lon="15.2808797">
<ele>81.9</ele>
<time>2023-06-06T08:43:14Z</time>
<extensions>
<tp1:TrackPointExtension>
<tp1:hr>170</tp1:hr>
</tp1:TrackPointExtension>
</extensions>
</trkpt>
<trkpt lat="58.56391749" lon="15.28112386">
<ele>82.2</ele>
<time>2023-06-06T08:43:19Z</time>
<extensions>
<tp1:TrackPointExtension>
<tp1:hr>170</tp1:hr>
</tp1:TrackPointExtension>
</extensions>
</trkpt>
<trkpt lat="58.56395496" lon="15.28132604">
<ele>82.4</ele>
<time>2023-06-06T08:43:22Z</time>
<extensions>
<tp1:TrackPointExtension>
<tp1:hr>173</tp1:hr>
</tp1:TrackPointExtension>
</extensions>
</trkpt>
<trkpt lat="58.56396686" lon="15.28140709">
<ele>82.4</ele>
<time>2023-06-06T08:43:23Z</time>
<extensions>
<tp1:TrackPointExtension>
<tp1:hr>173</tp1:hr>
</tp1:TrackPointExtension>
</extensions>
</trkpt>
<trkpt lat="58.56401539" lon="15.28179416">
<ele>82.9</ele>
<time>2023-06-06T08:43:28Z</time>
<extensions>
<tp1:TrackPointExtension>
<tp1:hr>172</tp1:hr>
</tp1:TrackPointExtension>
</extensions>
</trkpt>
<trkpt lat="58.56404892" lon="15.28218728">
<ele>83.2</ele>
<time>2023-06-06T08:43:33Z</time>
<extensions>
<tp1:TrackPointExtension>
<tp1:hr>170</tp1:hr>
</tp1:TrackPointExtension>
</extensions>
</trkpt>
<trkpt lat="58.5640459" lon="15.28226607">
<ele>83.4</ele>
<time>2023-06-06T08:43:34Z</time>
<extensions>
<tp1:TrackPointExtension>
<tp1:hr>170</tp1:hr>
</tp1:TrackPointExtension>
</extensions>
</trkpt>
<trkpt lat="58.56402143" lon="15.28240504">
<ele>83.6</ele>
<time>2023-06-06T08:43:36Z</time>
<extensions>
<tp1:TrackPointExtension>
<tp1:hr>170</tp1:hr>
</tp1:TrackPointExtension>
</extensions>
</trkpt>
<trkpt lat="58.56399536" lon="15.28246799">
<ele>83.6</ele>
<time>2023-06-06T08:43:37Z</time>
<extensions>
<tp1:TrackPointExtension>
<tp1:hr>170</tp1:hr>
</tp1:TrackPointExtension>
</extensions>
</trkpt>
<trkpt lat="58.5638558" lon="15.28272573">
<ele>83.9</ele>
<time>2023-06-06T08:43:42Z</time>
<extensions>
<tp1:TrackPointExtension>
<tp1:hr>171</tp1:hr>
</tp1:TrackPointExtension>
</extensions>
</trkpt>
<trkpt lat="58.56372312" lon="15.28293544">
<ele>84.2</ele>
<time>2023-06-06T08:43:46Z</time>
<extensions>
<tp1:TrackPointExtension>
<tp1:hr>172</tp1:hr>
</tp1:TrackPointExtension>
</extensions>
</trkpt>
<trkpt lat="58.56366084" lon="15.28303326">
<ele>84.4</ele>
<time>2023-06-06T08:43:48Z</time>
<extensions>
<tp1:TrackPointExtension>
<tp1:hr>171</tp1:hr>
</tp1:TrackPointExtension>
</extensions>
</trkpt>
<trkpt lat="58.56362186" lon="15.28307735">
<ele>84.6</ele>
<time>2023-06-06T08:43:51Z</time>
<extensions>
<tp1:TrackPointExtension>
<tp1:hr>172</tp1:hr>
</tp1:TrackPointExtension>
</extensions>
</trkpt>
<trkpt lat="58.56370392" lon="15.28297836">
<ele>84.7</ele>
<time>2023-06-06T08:43:54Z</time>
<extensions>
<tp1:TrackPointExtension>
<tp1:hr>172</tp1:hr>
</tp1:TrackPointExtension>
</extensions>
</trkpt>
<trkpt lat="58.56377534" lon="15.28290083">
<ele>84.9</ele>
<time>2023-06-06T08:43:56Z</time>
<extensions>
<tp1:TrackPointExtension>
<tp1:hr>172</tp1:hr>
</tp1:TrackPointExtension>
</extensions>
</trkpt>
<trkpt lat="58.5638014" lon="15.28290477">
<ele>84.9</ele>
<time>2023-06-06T08:43:57Z</time>
<extensions>
<tp1:TrackPointExtension>
<tp1:hr>171</tp1:hr>
</tp1:TrackPointExtension>
</extensions>
</trkpt>
<trkpt lat="58.56385572" lon="15.28295673">
<ele>85.1</ele>
<time>2023-06-06T08:43:59Z</time>
<extensions>
<tp1:TrackPointExtension>
<tp1:hr>170</tp1:hr>
</tp1:TrackPointExtension>
</extensions>
</trkpt>
<trkpt lat="58.56402059" lon="15.28309017">
<ele>85.4</ele>
<time>2023-06-06T08:44:04Z</time>
<extensions>
<tp1:TrackPointExtension>
<tp1:hr>171</tp1:hr>
</tp1:TrackPointExtension>
</extensions>
</trkpt>
<trkpt lat="58.56417281" lon="15.28309839">
<ele>85.8</ele>
<time>2023-06-06T08:44:08Z</time>
<extensions>
<tp1:TrackPointExtension>
<tp1:hr>170</tp1:hr>
</tp1:TrackPointExtension>
</extensions>
</trkpt>
<trkpt lat="58.56433282" lon="15.28302597">
<ele>85.9</ele>
<time>2023-06-06T08:44:12Z</time>
<extensions>
<tp1:TrackPointExtension>
<tp1:hr>170</tp1:hr>
</tp1:TrackPointExtension>
</extensions>
</trkpt>
<trkpt lat="58.56441303" lon="15.2831869">
<ele>86.3</ele>
<time>2023-06-06T08:44:15Z</time>
<extensions>
<tp1:TrackPointExtension>
<tp1:hr>170</tp1:hr>
</tp1:TrackPointExtension>
</extensions>
</trkpt>
<trkpt lat="58.56444153" lon="15.28333861">
<ele>86.4</ele>
<time>2023-06-06T08:44:18Z</time>
<extensions>
<tp1:TrackPointExtension>
<tp1:hr>170</tp1:hr>
</tp1:TrackPointExtension>
</extensions>
</trkpt>
<trkpt lat="58.56442602" lon="15.28336292">
<ele>86.4</ele>
<time>2023-06-06T08:44:19Z</time>
<extensions>
<tp1:TrackPointExtension>
<tp1:hr>170</tp1:hr>
</tp1:TrackPointExtension>
</extensions>
</trkpt>
<trkpt lat="58.56438713" lon="15.28343224">
<ele>86.6</ele>
<time>2023-06-06T08:44:22Z</time>
<extensions>
<tp1:TrackPointExtension>
<tp1:hr>170</tp1:hr>
</tp1:TrackPointExtension>
</extensions>
</trkpt>
<trkpt lat="58.56438654" lon="15.28346811">
<ele>86.8</ele>
<time>2023-06-06T08:44:23Z</time>
<extensions>
<tp1:TrackPointExtension>
<tp1:hr>170</tp1:hr>
</tp1:TrackPointExtension>
</extensions>
</trkpt>
<trkpt lat="58.56438462" lon="15.28360482">
<ele>86.7</ele>
<time>2023-06-06T08:44:25Z</time>
<extensions>
<tp1:TrackPointExtension>
<tp1:hr>171</tp1:hr>
</tp1:TrackPointExtension>
</extensions>
</trkpt>
<trkpt lat="58.56435796" lon="15.28368881">
<ele>86.9</ele>
<time>2023-06-06T08:44:26Z</time>
<extensions>
<tp1:TrackPointExtension>
<tp1:hr>171</tp1:hr>
</tp1:TrackPointExtension>
</extensions>
</trkpt>
<trkpt lat="58.56423634" lon="15.28388402">
<ele>87.1</ele>
<time>2023-06-06T08:44:30Z</time>
<extensions>
<tp1:TrackPointExtension>
<tp1:hr>171</tp1:hr>
</tp1:TrackPointExtension>
</extensions>
</trkpt>
<trkpt lat="58.56411648" lon="15.28419566">
<ele>87.2</ele>
<time>2023-06-06T08:44:35Z</time>
<extensions>
<tp1:TrackPointExtension>
<tp1:hr>170</tp1:hr>
</tp1:TrackPointExtension>
</extensions>
</trkpt>
<trkpt lat="58.56413769" lon="15.28457662">
<ele>87.3</ele>
<time>2023-06-06T08:44:40Z</time>
<extensions>
<tp1:TrackPointExtension>
<tp1:hr>172</tp1:hr>
</tp1:TrackPointExtension>
</extensions>
</trkpt>
<trkpt lat="58.5641542" lon="15.28474468">
<ele>87.5</ele>
<time>2023-06-06T08:44:42Z</time>
<extensions>
<tp1:TrackPointExtension>
<tp1:hr>169</tp1:hr>
</tp1:TrackPointExtension>
</extensions>
</trkpt>
<trkpt lat="58.56416065" lon="15.28482632">
<ele>87.5</ele>
<time>2023-06-06T08:44:43Z</time>
<extensions>
<tp1:TrackPointExtension>
<tp1:hr>169</tp1:hr>
</tp1:TrackPointExtension>
</extensions>
</trkpt>
<trkpt lat="58.56417264" lon="15.28490544">
<ele>87.5</ele>
<time>2023-06-06T08:44:44Z</time>
<extensions>
<tp1:TrackPointExtension>
<tp1:hr>169</tp1:hr>
</tp1:TrackPointExtension>
</extensions>
</trkpt>
<trkpt lat="58.56418278" lon="15.28497485">
<ele>87.7</ele>
<time>2023-06-06T08:44:45Z</time>
<extensions>
<tp1:TrackPointExtension>
<tp1:hr>170</tp1:hr>
</tp1:TrackPointExtension>
</extensions>
</trkpt>
<trkpt lat="58.56419753" lon="15.28512446">
<ele>87.8</ele>
<time>2023-06-06T08:44:47Z</time>
<extensions>
<tp1:TrackPointExtension>
<tp1:hr>169</tp1:hr>
</tp1:TrackPointExtension>
</extensions>
</trkpt>
<trkpt lat="58.56417532" lon="15.28527869">
<ele>87.8</ele>
<time>2023-06-06T08:44:49Z</time>
<extensions>
<tp1:TrackPointExtension>
<tp1:hr>169</tp1:hr>
</tp1:TrackPointExtension>
</extensions>
</trkpt>
<trkpt lat="58.56406292" lon="15.28561757">
<ele>88.1</ele>
<time>2023-06-06T08:44:54Z</time>
<extensions>
<tp1:TrackPointExtension>
<tp1:hr>169</tp1:hr>
</tp1:TrackPointExtension>
</extensions>
</trkpt>
<trkpt lat="58.56404155" lon="15.28568706">
<ele>88.3</ele>
<time>2023-06-06T08:44:55Z</time>
<extensions>
<tp1:TrackPointExtension>
<tp1:hr>169</tp1:hr>
</tp1:TrackPointExtension>
</extensions>
</trkpt>
<trkpt lat="58.56399721" lon="15.28582544">
<ele>88.5</ele>
<time>2023-06-06T08:44:57Z</time>
<extensions>
<tp1:TrackPointExtension>
<tp1:hr>167</tp1:hr>
</tp1:TrackPointExtension>
</extensions>
</trkpt>
<trkpt lat="58.56395974" lon="15.28595259">
<ele>88.5</ele>
<time>2023-06-06T08:44:59Z</time>
<extensions>
<tp1:TrackPointExtension>
<tp1:hr>166</tp1:hr>
</tp1:TrackPointExtension>
</extensions>
</trkpt>
<trkpt lat="58.56393476" lon="15.28607757">
<ele>88.6</ele>
<time>2023-06-06T08:45:01Z</time>
<extensions>
<tp1:TrackPointExtension>
<tp1:hr>166</tp1:hr>
</tp1:TrackPointExtension>
</extensions>
</trkpt>
<trkpt lat="58.56388958" lon="15.28627982">
<ele>88.8</ele>
<time>2023-06-06T08:45:04Z</time>
<extensions>
<tp1:TrackPointExtension>
<tp1:hr>167</tp1:hr>
</tp1:TrackPointExtension>
</extensions>
</trkpt>
<trkpt lat="58.56385731" lon="15.2865022">
<ele>89.0</ele>
<time>2023-06-06T08:45:07Z</time>
<extensions>
<tp1:TrackPointExtension>
<tp1:hr>167</tp1:hr>
</tp1:TrackPointExtension>
</extensions>
</trkpt>
<trkpt lat="58.56384818" lon="15.28657772">
<ele>89.0</ele>
<time>2023-06-06T08:45:08Z</time>
<extensions>
<tp1:TrackPointExtension>
<tp1:hr>167</tp1:hr>
</tp1:TrackPointExtension>
</extensions>
</trkpt>
<trkpt lat="58.56384331" lon="15.28670529">
<ele>89.1</ele>
<time>2023-06-06T08:45:10Z</time>
<extensions>
<tp1:TrackPointExtension>
<tp1:hr>169</tp1:hr>
</tp1:TrackPointExtension>
</extensions>
</trkpt>
<trkpt lat="58.56385522" lon="15.2867524">
<ele>89.1</ele>
<time>2023-06-06T08:45:11Z</time>
<extensions>
<tp1:TrackPointExtension>
<tp1:hr>169</tp1:hr>
</tp1:TrackPointExtension>
</extensions>
</trkpt>
<trkpt lat="58.56388112" lon="15.2867907">
<ele>89.1</ele>
<time>2023-06-06T08:45:12Z</time>
<extensions>
<tp1:TrackPointExtension>
<tp1:hr>168</tp1:hr>
</tp1:TrackPointExtension>
</extensions>
</trkpt>
<trkpt lat="58.56394725" lon="15.28685977">
<ele>89.3</ele>
<time>2023-06-06T08:45:14Z</time>
<extensions>
<tp1:TrackPointExtension>
<tp1:hr>168</tp1:hr>
</tp1:TrackPointExtension>
</extensions>
</trkpt>
<trkpt lat="58.5639817" lon="15.28688743">
<ele>89.3</ele>
<time>2023-06-06T08:45:15Z</time>
<extensions>
<tp1:TrackPointExtension>
<tp1:hr>168</tp1:hr>
</tp1:TrackPointExtension>
</extensions>
</trkpt>
<trkpt lat="58.56408195" lon="15.28695415">
<ele>89.4</ele>
<time>2023-06-06T08:45:18Z</time>
<extensions>
<tp1:TrackPointExtension>
<tp1:hr>171</tp1:hr>
</tp1:TrackPointExtension>
</extensions>
</trkpt>
<trkpt lat="58.56411304" lon="15.28698348">
<ele>89.4</ele>
<time>2023-06-06T08:45:19Z</time>
<extensions>
<tp1:TrackPointExtension>
<tp1:hr>170</tp1:hr>
</tp1:TrackPointExtension>
</extensions>
</trkpt>
<trkpt lat="58.56427004" lon="15.28714961">
<ele>89.9</ele>
<time>2023-06-06T08:45:25Z</time>
<extensions>
<tp1:TrackPointExtension>
<tp1:hr>171</tp1:hr>
</tp1:TrackPointExtension>
</extensions>
</trkpt>
<trkpt lat="58.56429175" lon="15.28714316">
<ele>89.9</ele>
<time>2023-06-06T08:45:26Z</time>
<extensions>
<tp1:TrackPointExtension>
<tp1:hr>169</tp1:hr>
</tp1:TrackPointExtension>
</extensions>
</trkpt>
<trkpt lat="58.56431907" lon="15.28712103">
<ele>90.1</ele>
<time>2023-06-06T08:45:27Z</time>
<extensions>
<tp1:TrackPointExtension>
<tp1:hr>168</tp1:hr>
</tp1:TrackPointExtension>
</extensions>
</trkpt>
<trkpt lat="58.56435352" lon="15.28709572">
<ele>90.1</ele>
<time>2023-06-06T08:45:28Z</time>
<extensions>
<tp1:TrackPointExtension>
<tp1:hr>168</tp1:hr>
</tp1:TrackPointExtension>
</extensions>
</trkpt>
<trkpt lat="58.56451755" lon="15.28696203">
<ele>90.4</ele>
<time>2023-06-06T08:45:32Z</time>
<extensions>
<tp1:TrackPointExtension>
<tp1:hr>169</tp1:hr>
</tp1:TrackPointExtension>
</extensions>
</trkpt>
<trkpt lat="58.56456256" lon="15.28691668">
<ele>90.6</ele>
<time>2023-06-06T08:45:33Z</time>
<extensions>
<tp1:TrackPointExtension>
<tp1:hr>169</tp1:hr>
</tp1:TrackPointExtension>
</extensions>
</trkpt>
<trkpt lat="58.56473926" lon="15.28678576">
<ele>91.0</ele>
<time>2023-06-06T08:45:37Z</time>
<extensions>
<tp1:TrackPointExtension>
<tp1:hr>170</tp1:hr>
</tp1:TrackPointExtension>
</extensions>
</trkpt>
<trkpt lat="58.56477287" lon="15.28673748">
<ele>91.0</ele>
<time>2023-06-06T08:45:38Z</time>
<extensions>
<tp1:TrackPointExtension>
<tp1:hr>171</tp1:hr>
</tp1:TrackPointExtension>
</extensions>
</trkpt>
<trkpt lat="58.56481712" lon="15.28672029">
<ele>91.1</ele>
<time>2023-06-06T08:45:39Z</time>
<extensions>
<tp1:TrackPointExtension>
<tp1:hr>171</tp1:hr>
</tp1:TrackPointExtension>
</extensions>
</trkpt>
<trkpt lat="58.56486121" lon="15.28672013">
<ele>91.1</ele>
<time>2023-06-06T08:45:40Z</time>
<extensions>
<tp1:TrackPointExtension>
<tp1:hr>171</tp1:hr>
</tp1:TrackPointExtension>
</extensions>
</trkpt>
<trkpt lat="58.56494" lon="15.28671803">
<ele>91.3</ele>
<time>2023-06-06T08:45:42Z</time>
<extensions>
<tp1:TrackPointExtension>
<tp1:hr>174</tp1:hr>
</tp1:TrackPointExtension>
</extensions>
</trkpt>
<trkpt lat="58.56502432" lon="15.28672197">
<ele>91.5</ele>
<time>2023-06-06T08:45:44Z</time>
<extensions>
<tp1:TrackPointExtension>
<tp1:hr>174</tp1:hr>
</tp1:TrackPointExtension>
</extensions>
</trkpt>
<trkpt lat="58.56511527" lon="15.28674343">
<ele>91.7</ele>
<time>2023-06-06T08:45:46Z</time>
<extensions>
<tp1:TrackPointExtension>
<tp1:hr>174</tp1:hr>
</tp1:TrackPointExtension>
</extensions>
</trkpt>
<trkpt lat="58.5652508" lon="15.28678861">
<ele>91.8</ele>
<time>2023-06-06T08:45:49Z</time>
<extensions>
<tp1:TrackPointExtension>
<tp1:hr>172</tp1:hr>
</tp1:TrackPointExtension>
</extensions>
</trkpt>
<trkpt lat="58.5654135" lon="15.28687796">
<ele>95.6</ele>
<time>2023-06-06T08:45:53Z</time>
<extensions>
<tp1:TrackPointExtension>
<tp1:hr>170</tp1:hr>
</tp1:TrackPointExtension>
</extensions>
</trkpt>
<trkpt lat="58.56545641" lon="15.28689807">
<ele>97.3</ele>
<time>2023-06-06T08:45:54Z</time>
<extensions>
<tp1:TrackPointExtension>
<tp1:hr>171</tp1:hr>
</tp1:TrackPointExtension>
</extensions>
</trkpt>
<trkpt lat="58.56550209" lon="15.28690972">
<ele>98.3</ele>
<time>2023-06-06T08:45:55Z</time>
<extensions>
<tp1:TrackPointExtension>
<tp1:hr>171</tp1:hr>
</tp1:TrackPointExtension>
</extensions>
</trkpt>
<trkpt lat="58.56554484" lon="15.28694124">
<ele>98.5</ele>
<time>2023-06-06T08:45:56Z</time>
<extensions>
<tp1:TrackPointExtension>
<tp1:hr>170</tp1:hr>
</tp1:TrackPointExtension>
</extensions>
</trkpt>
<trkpt lat="58.56560636" lon="15.28707091">
<ele>98.1</ele>
<time>2023-06-06T08:45:58Z</time>
<extensions>
<tp1:TrackPointExtension>
<tp1:hr>170</tp1:hr>
</tp1:TrackPointExtension>
</extensions>
</trkpt>
<trkpt lat="58.56562371" lon="15.28714551">
<ele>97.9</ele>
<time>2023-06-06T08:45:59Z</time>
<extensions>
<tp1:TrackPointExtension>
<tp1:hr>170</tp1:hr>
</tp1:TrackPointExtension>
</extensions>
</trkpt>
<trkpt lat="58.56561357" lon="15.2872543">
<ele>97.7</ele>
<time>2023-06-06T08:46:00Z</time>
<extensions>
<tp1:TrackPointExtension>
<tp1:hr>170</tp1:hr>
</tp1:TrackPointExtension>
</extensions>
</trkpt>
<trkpt lat="58.56558935" lon="15.28742705">
<ele>97.2</ele>
<time>2023-06-06T08:46:02Z</time>
<extensions>
<tp1:TrackPointExtension>
<tp1:hr>170</tp1:hr>
</tp1:TrackPointExtension>
</extensions>
</trkpt>
<trkpt lat="58.5655694" lon="15.2876356">
<ele>97.2</ele>
<time>2023-06-06T08:46:05Z</time>
<extensions>
<tp1:TrackPointExtension>
<tp1:hr>170</tp1:hr>
</tp1:TrackPointExtension>
</extensions>
</trkpt>
<trkpt lat="58.56556672" lon="15.28771598">
<ele>97.2</ele>
<time>2023-06-06T08:46:07Z</time>
<extensions>
<tp1:TrackPointExtension>
<tp1:hr>171</tp1:hr>
</tp1:TrackPointExtension>
</extensions>
</trkpt>
<trkpt lat="58.56557275" lon="15.28774163">
<ele>97.4</ele>
<time>2023-06-06T08:46:08Z</time>
<extensions>
<tp1:TrackPointExtension>
<tp1:hr>171</tp1:hr>
</tp1:TrackPointExtension>
</extensions>
</trkpt>
<trkpt lat="58.56565305" lon="15.28778949">
<ele>97.5</ele>
<time>2023-06-06T08:46:11Z</time>
<extensions>
<tp1:TrackPointExtension>
<tp1:hr>171</tp1:hr>
</tp1:TrackPointExtension>
</extensions>
</trkpt>
<trkpt lat="58.56583234" lon="15.28790424">
<ele>97.9</ele>
<time>2023-06-06T08:46:15Z</time>
<extensions>
<tp1:TrackPointExtension>
<tp1:hr>170</tp1:hr>
</tp1:TrackPointExtension>
</extensions>
</trkpt>
<trkpt lat="58.56586184" lon="15.28792921">
<ele>97.9</ele>
<time>2023-06-06T08:46:16Z</time>
<extensions>
<tp1:TrackPointExtension>
<tp1:hr>170</tp1:hr>
</tp1:TrackPointExtension>
</extensions>
</trkpt>
<trkpt lat="58.56603426" lon="15.28807975">
<ele>97.8</ele>
<time>2023-06-06T08:46:22Z</time>
<extensions>
<tp1:TrackPointExtension>
<tp1:hr>170</tp1:hr>
</tp1:TrackPointExtension>
</extensions>
</trkpt>
<trkpt lat="58.5660822" lon="15.2881598">
<ele>97.7</ele>
<time>2023-06-06T08:46:24Z</time>
<extensions>
<tp1:TrackPointExtension>
<tp1:hr>170</tp1:hr>
</tp1:TrackPointExtension>
</extensions>
</trkpt>
<trkpt lat="58.56609092" lon="15.28819744">
<ele>97.7</ele>
<time>2023-06-06T08:46:25Z</time>
<extensions>
<tp1:TrackPointExtension>
<tp1:hr>170</tp1:hr>
</tp1:TrackPointExtension>
</extensions>
</trkpt>
<trkpt lat="58.56609251" lon="15.28821856">
<ele>97.7</ele>
<time>2023-06-06T08:46:26Z</time>
<extensions>
<tp1:TrackPointExtension>
<tp1:hr>171</tp1:hr>
</tp1:TrackPointExtension>
</extensions>
</trkpt>
<trkpt lat="58.56608539" lon="15.28814815">
<ele>97.7</ele>
<time>2023-06-06T08:46:29Z</time>
<extensions>
<tp1:TrackPointExtension>
<tp1:hr>171</tp1:hr>
</tp1:TrackPointExtension>
</extensions>
</trkpt>
<trkpt lat="58.56609059" lon="15.28780499">
<ele>97.8</ele>
<time>2023-06-06T08:46:34Z</time>
<extensions>
<tp1:TrackPointExtension>
<tp1:hr>171</tp1:hr>
</tp1:TrackPointExtension>
</extensions>
</trkpt>
<trkpt lat="58.56607265" lon="15.28756485">
<ele>97.8</ele>
<time>2023-06-06T08:46:37Z</time>
<extensions>
<tp1:TrackPointExtension>
<tp1:hr>168</tp1:hr>
</tp1:TrackPointExtension>
</extensions>
</trkpt>
<trkpt lat="58.56606569" lon="15.28747559">
<ele>97.8</ele>
<time>2023-06-06T08:46:38Z</time>
<extensions>
<tp1:TrackPointExtension>
<tp1:hr>169</tp1:hr>
</tp1:TrackPointExtension>
</extensions>
</trkpt>
<trkpt lat="58.56606184" lon="15.28730015">
<ele>97.7</ele>
<time>2023-06-06T08:46:40Z</time>
<extensions>
<tp1:TrackPointExtension>
<tp1:hr>169</tp1:hr>
</tp1:TrackPointExtension>
</extensions>
</trkpt>
<trkpt lat="58.56607826" lon="15.28713578">
<ele>97.7</ele>
<time>2023-06-06T08:46:42Z</time>
<extensions>
<tp1:TrackPointExtension>
<tp1:hr>170</tp1:hr>
</tp1:TrackPointExtension>
</extensions>
</trkpt>
<trkpt lat="58.56612034" lon="15.28689614">
<ele>97.5</ele>
<time>2023-06-06T08:46:45Z</time>
<extensions>
<tp1:TrackPointExtension>
<tp1:hr>170</tp1:hr>
</tp1:TrackPointExtension>
</extensions>
</trkpt>
<trkpt lat="58.56616401" lon="15.2867472">
<ele>97.4</ele>
<time>2023-06-06T08:46:47Z</time>
<extensions>
<tp1:TrackPointExtension>
<tp1:hr>171</tp1:hr>
</tp1:TrackPointExtension>
</extensions>
</trkpt>
<trkpt lat="58.56624272" lon="15.28657545">
<ele>97.4</ele>
<time>2023-06-06T08:46:50Z</time>
<extensions>
<tp1:TrackPointExtension>
<tp1:hr>171</tp1:hr>
</tp1:TrackPointExtension>
</extensions>
</trkpt>
<trkpt lat="58.56626342" lon="15.28655333">
<ele>97.4</ele>
<time>2023-06-06T08:46:51Z</time>
<extensions>
<tp1:TrackPointExtension>
<tp1:hr>171</tp1:hr>
</tp1:TrackPointExtension>
</extensions>
</trkpt>
<trkpt lat="58.56631572" lon="15.28656196">
<ele>97.4</ele>
<time>2023-06-06T08:46:53Z</time>
<extensions>
<tp1:TrackPointExtension>
<tp1:hr>175</tp1:hr>
</tp1:TrackPointExtension>
</extensions>
</trkpt>
<trkpt lat="58.56635168" lon="15.28657847">
<ele>97.3</ele>
<time>2023-06-06T08:46:54Z</time>
<extensions>
<tp1:TrackPointExtension>
<tp1:hr>171</tp1:hr>
</tp1:TrackPointExtension>
</extensions>
</trkpt>
<trkpt lat="58.56641656" lon="15.28659523">
<ele>97.3</ele>
<time>2023-06-06T08:46:56Z</time>
<extensions>
<tp1:TrackPointExtension>
<tp1:hr>173</tp1:hr>
</tp1:TrackPointExtension>
</extensions>
</trkpt>
<trkpt lat="58.56646593" lon="15.28658065">
<ele>97.3</ele>
<time>2023-06-06T08:46:58Z</time>
<extensions>
<tp1:TrackPointExtension>
<tp1:hr>170</tp1:hr>
</tp1:TrackPointExtension>
</extensions>
</trkpt>
<trkpt lat="58.56654312" lon="15.28654595">
<ele>97.3</ele>
<time>2023-06-06T08:47:01Z</time>
<extensions>
<tp1:TrackPointExtension>
<tp1:hr>169</tp1:hr>
</tp1:TrackPointExtension>
</extensions>
</trkpt>
<trkpt lat="58.56671847" lon="15.28639323">
<ele>97.4</ele>
<time>2023-06-06T08:47:06Z</time>
<extensions>
<tp1:TrackPointExtension>
<tp1:hr>170</tp1:hr>
</tp1:TrackPointExtension>
</extensions>
</trkpt>
<trkpt lat="58.56689047" lon="15.28641385">
<ele>97.5</ele>
<time>2023-06-06T08:47:11Z</time>
<extensions>
<tp1:TrackPointExtension>
<tp1:hr>171</tp1:hr>
</tp1:TrackPointExtension>
</extensions>
</trkpt>
<trkpt lat="58.56698887" lon="15.28670579">
<ele>97.7</ele>
<time>2023-06-06T08:47:15Z</time>
<extensions>
<tp1:TrackPointExtension>
<tp1:hr>172</tp1:hr>
</tp1:TrackPointExtension>
</extensions>
</trkpt>
<trkpt lat="58.56711628" lon="15.28701735">
<ele>97.8</ele>
<time>2023-06-06T08:47:20Z</time>
<extensions>
<tp1:TrackPointExtension>
<tp1:hr>171</tp1:hr>
</tp1:TrackPointExtension>
</extensions>
</trkpt>
<trkpt lat="58.56728492" lon="15.28719127">
<ele>97.9</ele>
<time>2023-06-06T08:47:25Z</time>
<extensions>
<tp1:TrackPointExtension>
<tp1:hr>172</tp1:hr>
</tp1:TrackPointExtension>
</extensions>
</trkpt>
<trkpt lat="58.56742674" lon="15.28726956">
<ele>98.1</ele>
<time>2023-06-06T08:47:30Z</time>
<extensions>
<tp1:TrackPointExtension>
<tp1:hr>171</tp1:hr>
</tp1:TrackPointExtension>
</extensions>
</trkpt>
<trkpt lat="58.56749137" lon="15.2872274">
<ele>98.0</ele>
<time>2023-06-06T08:47:33Z</time>
<extensions>
<tp1:TrackPointExtension>
<tp1:hr>172</tp1:hr>
</tp1:TrackPointExtension>
</extensions>
</trkpt>
<trkpt lat="58.5675057" lon="15.28715464">
<ele>98.2</ele>
<time>2023-06-06T08:47:35Z</time>
<extensions>
<tp1:TrackPointExtension>
<tp1:hr>172</tp1:hr>
</tp1:TrackPointExtension>
</extensions>
</trkpt>
<trkpt lat="58.56750067" lon="15.2868596">
<ele>98.3</ele>
<time>2023-06-06T08:47:40Z</time>
<extensions>
<tp1:TrackPointExtension>
<tp1:hr>172</tp1:hr>
</tp1:TrackPointExtension>
</extensions>
</trkpt>
<trkpt lat="58.56752691" lon="15.28646381">
<ele>98.5</ele>
<time>2023-06-06T08:47:45Z</time>
<extensions>
<tp1:TrackPointExtension>
<tp1:hr>172</tp1:hr>
</tp1:TrackPointExtension>
</extensions>
</trkpt>
<trkpt lat="58.56760394" lon="15.2860862">
<ele>98.8</ele>
<time>2023-06-06T08:47:50Z</time>
<extensions>
<tp1:TrackPointExtension>
<tp1:hr>173</tp1:hr>
</tp1:TrackPointExtension>
</extensions>
</trkpt>
<trkpt lat="58.56763168" lon="15.28602418">
<ele>98.8</ele>
<time>2023-06-06T08:47:51Z</time>
<extensions>
<tp1:TrackPointExtension>
<tp1:hr>173</tp1:hr>
</tp1:TrackPointExtension>
</extensions>
</trkpt>
<trkpt lat="58.56768792" lon="15.28593759">
<ele>98.8</ele>
<time>2023-06-06T08:47:53Z</time>
<extensions>
<tp1:TrackPointExtension>
<tp1:hr>173</tp1:hr>
</tp1:TrackPointExtension>
</extensions>
</trkpt>
<trkpt lat="58.56768625" lon="15.28588386">
<ele>98.9</ele>
<time>2023-06-06T08:47:55Z</time>
<extensions>
<tp1:TrackPointExtension>
<tp1:hr>173</tp1:hr>
</tp1:TrackPointExtension>
</extensions>
</trkpt>
<trkpt lat="58.56764317" lon="15.28559418">
<ele>99.1</ele>
<time>2023-06-06T08:47:59Z</time>
<extensions>
<tp1:TrackPointExtension>
<tp1:hr>173</tp1:hr>
</tp1:TrackPointExtension>
</extensions>
</trkpt>
<trkpt lat="58.5676352" lon="15.28529411">
<ele>99.2</ele>
<time>2023-06-06T08:48:03Z</time>
<extensions>
<tp1:TrackPointExtension>
<tp1:hr>173</tp1:hr>
</tp1:TrackPointExtension>
</extensions>
</trkpt>
<trkpt lat="58.56754334" lon="15.28517844">
<ele>99.2</ele>
<time>2023-06-06T08:48:06Z</time>
<extensions>
<tp1:TrackPointExtension>
<tp1:hr>173</tp1:hr>
</tp1:TrackPointExtension>
</extensions>
</trkpt>
<trkpt lat="58.5674498" lon="15.28501667">
<ele>99.3</ele>
<time>2023-06-06T08:48:10Z</time>
<extensions>
<tp1:TrackPointExtension>
<tp1:hr>172</tp1:hr>
</tp1:TrackPointExtension>
</extensions>
</trkpt>
<trkpt lat="58.56745005" lon="15.28501483">
<ele>99.3</ele>
<time>2023-06-06T08:48:11Z</time>
<extensions>
<tp1:TrackPointExtension>
<tp1:hr>172</tp1:hr>
</tp1:TrackPointExtension>
</extensions>
</trkpt>
<trkpt lat="58.56741727" lon="15.28505221">
<ele>99.3</ele>
<time>2023-06-06T08:48:13Z</time>
<extensions>
<tp1:TrackPointExtension>
<tp1:hr>172</tp1:hr>
</tp1:TrackPointExtension>
</extensions>
</trkpt>
<trkpt lat="58.56736447" lon="15.28493168">
<ele>99.5</ele>
<time>2023-06-06T08:48:16Z</time>
<extensions>
<tp1:TrackPointExtension>
<tp1:hr>172</tp1:hr>
</tp1:TrackPointExtension>
</extensions>
</trkpt>
<trkpt lat="58.56722709" lon="15.28473764">
<ele>99.4</ele>
<time>2023-06-06T08:48:20Z</time>
<extensions>
<tp1:TrackPointExtension>
<tp1:hr>171</tp1:hr>
</tp1:TrackPointExtension>
</extensions>
</trkpt>
<trkpt lat="58.56709633" lon="15.28450244">
<ele>99.4</ele>
<time>2023-06-06T08:48:24Z</time>
<extensions>
<tp1:TrackPointExtension>
<tp1:hr>171</tp1:hr>
</tp1:TrackPointExtension>
</extensions>
</trkpt>
<trkpt lat="58.56707068" lon="15.28444494">
<ele>99.5</ele>
<time>2023-06-06T08:48:25Z</time>
<extensions>
<tp1:TrackPointExtension>
<tp1:hr>171</tp1:hr>
</tp1:TrackPointExtension>
</extensions>
</trkpt>
<trkpt lat="58.56701762" lon="15.28434402">
<ele>99.5</ele>
<time>2023-06-06T08:48:28Z</time>
<extensions>
<tp1:TrackPointExtension>
<tp1:hr>171</tp1:hr>
</tp1:TrackPointExtension>
</extensions>
</trkpt>
<trkpt lat="58.56686248" lon="15.28429482">
<ele>99.6</ele>
<time>2023-06-06T08:48:32Z</time>
<extensions>
<tp1:TrackPointExtension>
<tp1:hr>171</tp1:hr>
</tp1:TrackPointExtension>
</extensions>
</trkpt>
<trkpt lat="58.56677388" lon="15.28423556">
<ele>99.6</ele>
<time>2023-06-06T08:48:34Z</time>
<extensions>
<tp1:TrackPointExtension>
<tp1:hr>171</tp1:hr>
</tp1:TrackPointExtension>
</extensions>
</trkpt>
<trkpt lat="58.56669676" lon="15.28415057">
<ele>99.8</ele>
<time>2023-06-06T08:48:36Z</time>
<extensions>
<tp1:TrackPointExtension>
<tp1:hr>171</tp1:hr>
</tp1:TrackPointExtension>
</extensions>
</trkpt>
<trkpt lat="58.56665595" lon="15.28410992">
<ele>99.8</ele>
<time>2023-06-06T08:48:37Z</time>
<extensions>
<tp1:TrackPointExtension>
<tp1:hr>171</tp1:hr>
</tp1:TrackPointExtension>
</extensions>
</trkpt>
<trkpt lat="58.56662225" lon="15.28410371">
<ele>99.8</ele>
<time>2023-06-06T08:48:38Z</time>
<extensions>
<tp1:TrackPointExtension>
<tp1:hr>172</tp1:hr>
</tp1:TrackPointExtension>
</extensions>
</trkpt>
<trkpt lat="58.56656693" lon="15.28412308">
<ele>99.7</ele>
<time>2023-06-06T08:48:40Z</time>
<extensions>
<tp1:TrackPointExtension>
<tp1:hr>172</tp1:hr>
</tp1:TrackPointExtension>
</extensions>
</trkpt>
<trkpt lat="58.56643399" lon="15.28414428">
<ele>99.7</ele>
<time>2023-06-06T08:48:44Z</time>
<extensions>
<tp1:TrackPointExtension>
<tp1:hr>172</tp1:hr>
</tp1:TrackPointExtension>
</extensions>
</trkpt>
<trkpt lat="58.56624959" lon="15.28425777">
<ele>99.6</ele>
<time>2023-06-06T08:48:48Z</time>
<extensions>
<tp1:TrackPointExtension>
<tp1:hr>172</tp1:hr>
</tp1:TrackPointExtension>
</extensions>
</trkpt>
<trkpt lat="58.56603401" lon="15.28440043">
<ele>99.4</ele>
<time>2023-06-06T08:48:52Z</time>
<extensions>
<tp1:TrackPointExtension>
<tp1:hr>173</tp1:hr>
</tp1:TrackPointExtension>
</extensions>
</trkpt>
<trkpt lat="58.56597869" lon="15.28443849">
<ele>99.4</ele>
<time>2023-06-06T08:48:53Z</time>
<extensions>
<tp1:TrackPointExtension>
<tp1:hr>173</tp1:hr>
</tp1:TrackPointExtension>
</extensions>
</trkpt>
<trkpt lat="58.56577375" lon="15.28458257">
<ele>99.3</ele>
<time>2023-06-06T08:48:57Z</time>
<extensions>
<tp1:TrackPointExtension>
<tp1:hr>173</tp1:hr>
</tp1:TrackPointExtension>
</extensions>
</trkpt>
<trkpt lat="58.56569211" lon="15.28465591">
<ele>99.1</ele>
<time>2023-06-06T08:48:59Z</time>
<extensions>
<tp1:TrackPointExtension>
<tp1:hr>173</tp1:hr>
</tp1:TrackPointExtension>
</extensions>
</trkpt>
<trkpt lat="58.56562187" lon="15.28475197">
<ele>98.9</ele>
<time>2023-06-06T08:49:01Z</time>
<extensions>
<tp1:TrackPointExtension>
<tp1:hr>174</tp1:hr>
</tp1:TrackPointExtension>
</extensions>
</trkpt>
<trkpt lat="58.56556957" lon="15.28485943">
<ele>98.6</ele>
<time>2023-06-06T08:49:03Z</time>
<extensions>
<tp1:TrackPointExtension>
<tp1:hr>174</tp1:hr>
</tp1:TrackPointExtension>
</extensions>
</trkpt>
<trkpt lat="58.56555347" lon="15.28489555">
<ele>98.6</ele>
<time>2023-06-06T08:49:04Z</time>
<extensions>
<tp1:TrackPointExtension>
<tp1:hr>174</tp1:hr>
</tp1:TrackPointExtension>
</extensions>
</trkpt>
<trkpt lat="58.5655388" lon="15.28499999">
<ele>98.4</ele>
<time>2023-06-06T08:49:06Z</time>
<extensions>
<tp1:TrackPointExtension>
<tp1:hr>174</tp1:hr>
</tp1:TrackPointExtension>
</extensions>
</trkpt>
<trkpt lat="58.56554945" lon="15.2850849">
<ele>98.4</ele>
<time>2023-06-06T08:49:07Z</time>
<extensions>
<tp1:TrackPointExtension>
<tp1:hr>174</tp1:hr>
</tp1:TrackPointExtension>
</extensions>
</trkpt>
<trkpt lat="58.5655694" lon="15.2851792">
<ele>98.2</ele>
<time>2023-06-06T08:49:08Z</time>
<extensions>
<tp1:TrackPointExtension>
<tp1:hr>174</tp1:hr>
</tp1:TrackPointExtension>
</extensions>
</trkpt>
<trkpt lat="58.5656419" lon="15.28548354">
<ele>98.1</ele>
<time>2023-06-06T08:49:11Z</time>
<extensions>
<tp1:TrackPointExtension>
<tp1:hr>174</tp1:hr>
</tp1:TrackPointExtension>
</extensions>
</trkpt>
<trkpt lat="58.56571441" lon="15.28575218">
<ele>97.9</ele>
<time>2023-06-06T08:49:15Z</time>
<extensions>
<tp1:TrackPointExtension>
<tp1:hr>173</tp1:hr>
</tp1:TrackPointExtension>
</extensions>
</trkpt>
</trkseg>
</trk>
</gpx>

