<?xml version="1.0" encoding="UTF-8" ?>
<gpx xmlns="http://www.topografix.com/GPX/1/1" version="1.1" creator="Attackpoint - http://www.attackpoint.org" xmlns:xsi="http://www.w3.org/2001/XMLSchema-instance" xmlns:tp1="http://www.garmin.com/xmlschemas/TrackPointExtension/v1" xsi:schemaLocation="http://www.topografix.com/GPX/1/1 http://www.topografix.com/GPX/1/1/gpx.xsd http://www.garmin.com/xmlschemas/TrackPointExtension/v1 http://www.garmin.com/xmlschemas/TrackPointExtensionv1.xsd">
<trk>
<trkseg>
<trkpt lat="58.19290185" lon="15.99600054">
<ele>97.7</ele>
<time>2023-05-14T08:01:04Z</time>
<extensions>
<tp1:TrackPointExtension>
<tp1:hr>92</tp1:hr>
</tp1:TrackPointExtension>
</extensions>
</trkpt>
<trkpt lat="58.1929011" lon="15.99600457">
<ele>97.3</ele>
<time>2023-05-14T08:01:05Z</time>
<extensions>
<tp1:TrackPointExtension>
<tp1:hr>92</tp1:hr>
</tp1:TrackPointExtension>
</extensions>
</trkpt>
<trkpt lat="58.1929135" lon="15.99608746">
<ele>97.7</ele>
<time>2023-05-14T08:01:07Z</time>
<extensions>
<tp1:TrackPointExtension>
<tp1:hr>90</tp1:hr>
</tp1:TrackPointExtension>
</extensions>
</trkpt>
<trkpt lat="58.19294401" lon="15.9962396">
<ele>96.9</ele>
<time>2023-05-14T08:01:09Z</time>
<extensions>
<tp1:TrackPointExtension>
<tp1:hr>91</tp1:hr>
</tp1:TrackPointExtension>
</extensions>
</trkpt>
<trkpt lat="58.19296195" lon="15.99632341">
<ele>97.5</ele>
<time>2023-05-14T08:01:10Z</time>
<extensions>
<tp1:TrackPointExtension>
<tp1:hr>88</tp1:hr>
</tp1:TrackPointExtension>
</extensions>
</trkpt>
<trkpt lat="58.19299749" lon="15.99646809">
<ele>97.3</ele>
<time>2023-05-14T08:01:12Z</time>
<extensions>
<tp1:TrackPointExtension>
<tp1:hr>84</tp1:hr>
</tp1:TrackPointExtension>
</extensions>
</trkpt>
<trkpt lat="58.19311509" lon="15.99681485">
<ele>97.5</ele>
<time>2023-05-14T08:01:17Z</time>
<extensions>
<tp1:TrackPointExtension>
<tp1:hr>83</tp1:hr>
</tp1:TrackPointExtension>
</extensions>
</trkpt>
<trkpt lat="58.1931518" lon="15.99688433">
<ele>97.5</ele>
<time>2023-05-14T08:01:18Z</time>
<extensions>
<tp1:TrackPointExtension>
<tp1:hr>82</tp1:hr>
</tp1:TrackPointExtension>
</extensions>
</trkpt>
<trkpt lat="58.19318952" lon="15.99694937">
<ele>97.5</ele>
<time>2023-05-14T08:01:19Z</time>
<extensions>
<tp1:TrackPointExtension>
<tp1:hr>80</tp1:hr>
</tp1:TrackPointExtension>
</extensions>
</trkpt>
<trkpt lat="58.19329295" lon="15.99711249">
<ele>97.7</ele>
<time>2023-05-14T08:01:22Z</time>
<extensions>
<tp1:TrackPointExtension>
<tp1:hr>83</tp1:hr>
</tp1:TrackPointExtension>
</extensions>
</trkpt>
<trkpt lat="58.19336294" lon="15.99724098">
<ele>97.7</ele>
<time>2023-05-14T08:01:24Z</time>
<extensions>
<tp1:TrackPointExtension>
<tp1:hr>84</tp1:hr>
</tp1:TrackPointExtension>
</extensions>
</trkpt>
<trkpt lat="58.19338826" lon="15.99731533">
<ele>97.7</ele>
<time>2023-05-14T08:01:25Z</time>
<extensions>
<tp1:TrackPointExtension>
<tp1:hr>81</tp1:hr>
</tp1:TrackPointExtension>
</extensions>
</trkpt>
<trkpt lat="58.19340318" lon="15.99739362">
<ele>97.5</ele>
<time>2023-05-14T08:01:26Z</time>
<extensions>
<tp1:TrackPointExtension>
<tp1:hr>84</tp1:hr>
</tp1:TrackPointExtension>
</extensions>
</trkpt>
<trkpt lat="58.19343033" lon="15.99756125">
<ele>97.7</ele>
<time>2023-05-14T08:01:28Z</time>
<extensions>
<tp1:TrackPointExtension>
<tp1:hr>83</tp1:hr>
</tp1:TrackPointExtension>
</extensions>
</trkpt>
<trkpt lat="58.19345405" lon="15.99773593">
<ele>97.6</ele>
<time>2023-05-14T08:01:30Z</time>
<extensions>
<tp1:TrackPointExtension>
<tp1:hr>82</tp1:hr>
</tp1:TrackPointExtension>
</extensions>
</trkpt>
<trkpt lat="58.19344198" lon="15.99786895">
<ele>98.4</ele>
<time>2023-05-14T08:01:32Z</time>
<extensions>
<tp1:TrackPointExtension>
<tp1:hr>82</tp1:hr>
</tp1:TrackPointExtension>
</extensions>
</trkpt>
<trkpt lat="58.19344031" lon="15.99791623">
<ele>99.0</ele>
<time>2023-05-14T08:01:33Z</time>
<extensions>
<tp1:TrackPointExtension>
<tp1:hr>82</tp1:hr>
</tp1:TrackPointExtension>
</extensions>
</trkpt>
<trkpt lat="58.19345405" lon="15.99807515">
<ele>99.0</ele>
<time>2023-05-14T08:01:36Z</time>
<extensions>
<tp1:TrackPointExtension>
<tp1:hr>82</tp1:hr>
</tp1:TrackPointExtension>
</extensions>
</trkpt>
<trkpt lat="58.19344391" lon="15.99821018">
<ele>99.0</ele>
<time>2023-05-14T08:01:38Z</time>
<extensions>
<tp1:TrackPointExtension>
<tp1:hr>87</tp1:hr>
</tp1:TrackPointExtension>
</extensions>
</trkpt>
<trkpt lat="58.19343545" lon="15.9982857">
<ele>98.8</ele>
<time>2023-05-14T08:01:39Z</time>
<extensions>
<tp1:TrackPointExtension>
<tp1:hr>92</tp1:hr>
</tp1:TrackPointExtension>
</extensions>
</trkpt>
<trkpt lat="58.19342304" lon="15.99842367">
<ele>98.6</ele>
<time>2023-05-14T08:01:41Z</time>
<extensions>
<tp1:TrackPointExtension>
<tp1:hr>96</tp1:hr>
</tp1:TrackPointExtension>
</extensions>
</trkpt>
<trkpt lat="58.19341843" lon="15.9984696">
<ele>98.8</ele>
<time>2023-05-14T08:01:43Z</time>
<extensions>
<tp1:TrackPointExtension>
<tp1:hr>102</tp1:hr>
</tp1:TrackPointExtension>
</extensions>
</trkpt>
<trkpt lat="58.19341843" lon="15.9984696">
<ele>98.8</ele>
<time>2023-05-14T08:01:44Z</time>
<extensions>
<tp1:TrackPointExtension>
<tp1:hr>102</tp1:hr>
</tp1:TrackPointExtension>
</extensions>
</trkpt>
<trkpt lat="58.19343151" lon="15.99843071">
<ele>98.8</ele>
<time>2023-05-14T08:01:45Z</time>
<extensions>
<tp1:TrackPointExtension>
<tp1:hr>105</tp1:hr>
</tp1:TrackPointExtension>
</extensions>
</trkpt>
<trkpt lat="58.19346788" lon="15.99836256">
<ele>99.0</ele>
<time>2023-05-14T08:01:47Z</time>
<extensions>
<tp1:TrackPointExtension>
<tp1:hr>106</tp1:hr>
</tp1:TrackPointExtension>
</extensions>
</trkpt>
<trkpt lat="58.19350342" lon="15.99836181">
<ele>99.0</ele>
<time>2023-05-14T08:01:48Z</time>
<extensions>
<tp1:TrackPointExtension>
<tp1:hr>108</tp1:hr>
</tp1:TrackPointExtension>
</extensions>
</trkpt>
<trkpt lat="58.19353594" lon="15.99836089">
<ele>99.0</ele>
<time>2023-05-14T08:01:49Z</time>
<extensions>
<tp1:TrackPointExtension>
<tp1:hr>111</tp1:hr>
</tp1:TrackPointExtension>
</extensions>
</trkpt>
<trkpt lat="58.19370107" lon="15.99836198">
<ele>99.8</ele>
<time>2023-05-14T08:01:53Z</time>
<extensions>
<tp1:TrackPointExtension>
<tp1:hr>112</tp1:hr>
</tp1:TrackPointExtension>
</extensions>
</trkpt>
<trkpt lat="58.19376829" lon="15.99834773">
<ele>99.8</ele>
<time>2023-05-14T08:01:55Z</time>
<extensions>
<tp1:TrackPointExtension>
<tp1:hr>114</tp1:hr>
</tp1:TrackPointExtension>
</extensions>
</trkpt>
<trkpt lat="58.19383426" lon="15.99844965">
<ele>100.0</ele>
<time>2023-05-14T08:01:57Z</time>
<extensions>
<tp1:TrackPointExtension>
<tp1:hr>114</tp1:hr>
</tp1:TrackPointExtension>
</extensions>
</trkpt>
<trkpt lat="58.19384666" lon="15.99851243">
<ele>100.2</ele>
<time>2023-05-14T08:01:58Z</time>
<extensions>
<tp1:TrackPointExtension>
<tp1:hr>115</tp1:hr>
</tp1:TrackPointExtension>
</extensions>
</trkpt>
<trkpt lat="58.1938439" lon="15.99856943">
<ele>100.0</ele>
<time>2023-05-14T08:01:59Z</time>
<extensions>
<tp1:TrackPointExtension>
<tp1:hr>118</tp1:hr>
</tp1:TrackPointExtension>
</extensions>
</trkpt>
<trkpt lat="58.1938397" lon="15.99862508">
<ele>100.2</ele>
<time>2023-05-14T08:02:00Z</time>
<extensions>
<tp1:TrackPointExtension>
<tp1:hr>118</tp1:hr>
</tp1:TrackPointExtension>
</extensions>
</trkpt>
<trkpt lat="58.19383208" lon="15.99872148">
<ele>101.2</ele>
<time>2023-05-14T08:02:02Z</time>
<extensions>
<tp1:TrackPointExtension>
<tp1:hr>117</tp1:hr>
</tp1:TrackPointExtension>
</extensions>
</trkpt>
<trkpt lat="58.19383233" lon="15.99881032">
<ele>101.9</ele>
<time>2023-05-14T08:02:04Z</time>
<extensions>
<tp1:TrackPointExtension>
<tp1:hr>118</tp1:hr>
</tp1:TrackPointExtension>
</extensions>
</trkpt>
<trkpt lat="58.19385739" lon="15.99893237">
<ele>102.3</ele>
<time>2023-05-14T08:02:06Z</time>
<extensions>
<tp1:TrackPointExtension>
<tp1:hr>118</tp1:hr>
</tp1:TrackPointExtension>
</extensions>
</trkpt>
<trkpt lat="58.19388463" lon="15.99906321">
<ele>102.3</ele>
<time>2023-05-14T08:02:08Z</time>
<extensions>
<tp1:TrackPointExtension>
<tp1:hr>119</tp1:hr>
</tp1:TrackPointExtension>
</extensions>
</trkpt>
<trkpt lat="58.19389435" lon="15.99911534">
<ele>102.7</ele>
<time>2023-05-14T08:02:09Z</time>
<extensions>
<tp1:TrackPointExtension>
<tp1:hr>122</tp1:hr>
</tp1:TrackPointExtension>
</extensions>
</trkpt>
<trkpt lat="58.19390131" lon="15.99917016">
<ele>103.1</ele>
<time>2023-05-14T08:02:10Z</time>
<extensions>
<tp1:TrackPointExtension>
<tp1:hr>125</tp1:hr>
</tp1:TrackPointExtension>
</extensions>
</trkpt>
<trkpt lat="58.19391279" lon="15.99923001">
<ele>103.3</ele>
<time>2023-05-14T08:02:11Z</time>
<extensions>
<tp1:TrackPointExtension>
<tp1:hr>127</tp1:hr>
</tp1:TrackPointExtension>
</extensions>
</trkpt>
<trkpt lat="58.19391908" lon="15.99928809">
<ele>103.9</ele>
<time>2023-05-14T08:02:12Z</time>
<extensions>
<tp1:TrackPointExtension>
<tp1:hr>130</tp1:hr>
</tp1:TrackPointExtension>
</extensions>
</trkpt>
<trkpt lat="58.19392445" lon="15.99933931">
<ele>104.9</ele>
<time>2023-05-14T08:02:13Z</time>
<extensions>
<tp1:TrackPointExtension>
<tp1:hr>133</tp1:hr>
</tp1:TrackPointExtension>
</extensions>
</trkpt>
<trkpt lat="58.19391523" lon="15.99944115">
<ele>106.1</ele>
<time>2023-05-14T08:02:15Z</time>
<extensions>
<tp1:TrackPointExtension>
<tp1:hr>136</tp1:hr>
</tp1:TrackPointExtension>
</extensions>
</trkpt>
<trkpt lat="58.19389343" lon="15.999545">
<ele>107.3</ele>
<time>2023-05-14T08:02:17Z</time>
<extensions>
<tp1:TrackPointExtension>
<tp1:hr>136</tp1:hr>
</tp1:TrackPointExtension>
</extensions>
</trkpt>
<trkpt lat="58.19376024" lon="15.99973736">
<ele>108.3</ele>
<time>2023-05-14T08:02:22Z</time>
<extensions>
<tp1:TrackPointExtension>
<tp1:hr>137</tp1:hr>
</tp1:TrackPointExtension>
</extensions>
</trkpt>
<trkpt lat="58.19374214" lon="15.99977693">
<ele>108.3</ele>
<time>2023-05-14T08:02:23Z</time>
<extensions>
<tp1:TrackPointExtension>
<tp1:hr>137</tp1:hr>
</tp1:TrackPointExtension>
</extensions>
</trkpt>
<trkpt lat="58.1937356" lon="15.99982261">
<ele>108.3</ele>
<time>2023-05-14T08:02:24Z</time>
<extensions>
<tp1:TrackPointExtension>
<tp1:hr>135</tp1:hr>
</tp1:TrackPointExtension>
</extensions>
</trkpt>
<trkpt lat="58.19375765" lon="15.99992788">
<ele>108.3</ele>
<time>2023-05-14T08:02:26Z</time>
<extensions>
<tp1:TrackPointExtension>
<tp1:hr>134</tp1:hr>
</tp1:TrackPointExtension>
</extensions>
</trkpt>
<trkpt lat="58.19380626" lon="16.00011497">
<ele>108.5</ele>
<time>2023-05-14T08:02:29Z</time>
<extensions>
<tp1:TrackPointExtension>
<tp1:hr>131</tp1:hr>
</tp1:TrackPointExtension>
</extensions>
</trkpt>
<trkpt lat="58.19382965" lon="16.00026668">
<ele>108.5</ele>
<time>2023-05-14T08:02:31Z</time>
<extensions>
<tp1:TrackPointExtension>
<tp1:hr>131</tp1:hr>
</tp1:TrackPointExtension>
</extensions>
</trkpt>
<trkpt lat="58.1938449" lon="16.00038989">
<ele>108.5</ele>
<time>2023-05-14T08:02:33Z</time>
<extensions>
<tp1:TrackPointExtension>
<tp1:hr>134</tp1:hr>
</tp1:TrackPointExtension>
</extensions>
</trkpt>
<trkpt lat="58.19382219" lon="16.00046525">
<ele>108.5</ele>
<time>2023-05-14T08:02:35Z</time>
<extensions>
<tp1:TrackPointExtension>
<tp1:hr>134</tp1:hr>
</tp1:TrackPointExtension>
</extensions>
</trkpt>
<trkpt lat="58.19378774" lon="16.00047296">
<ele>108.4</ele>
<time>2023-05-14T08:02:36Z</time>
<extensions>
<tp1:TrackPointExtension>
<tp1:hr>136</tp1:hr>
</tp1:TrackPointExtension>
</extensions>
</trkpt>
<trkpt lat="58.19362773" lon="16.00039828">
<ele>108.4</ele>
<time>2023-05-14T08:02:40Z</time>
<extensions>
<tp1:TrackPointExtension>
<tp1:hr>139</tp1:hr>
</tp1:TrackPointExtension>
</extensions>
</trkpt>
<trkpt lat="58.19357819" lon="16.00038093">
<ele>108.4</ele>
<time>2023-05-14T08:02:41Z</time>
<extensions>
<tp1:TrackPointExtension>
<tp1:hr>136</tp1:hr>
</tp1:TrackPointExtension>
</extensions>
</trkpt>
<trkpt lat="58.19353661" lon="16.0003785">
<ele>108.4</ele>
<time>2023-05-14T08:02:42Z</time>
<extensions>
<tp1:TrackPointExtension>
<tp1:hr>138</tp1:hr>
</tp1:TrackPointExtension>
</extensions>
</trkpt>
<trkpt lat="58.19346411" lon="16.00042158">
<ele>108.4</ele>
<time>2023-05-14T08:02:44Z</time>
<extensions>
<tp1:TrackPointExtension>
<tp1:hr>136</tp1:hr>
</tp1:TrackPointExtension>
</extensions>
</trkpt>
<trkpt lat="58.19343008" lon="16.00046114">
<ele>108.4</ele>
<time>2023-05-14T08:02:45Z</time>
<extensions>
<tp1:TrackPointExtension>
<tp1:hr>139</tp1:hr>
</tp1:TrackPointExtension>
</extensions>
</trkpt>
<trkpt lat="58.19335422" lon="16.00067496">
<ele>108.4</ele>
<time>2023-05-14T08:02:49Z</time>
<extensions>
<tp1:TrackPointExtension>
<tp1:hr>138</tp1:hr>
</tp1:TrackPointExtension>
</extensions>
</trkpt>
<trkpt lat="58.19332849" lon="16.00072383">
<ele>108.4</ele>
<time>2023-05-14T08:02:51Z</time>
<extensions>
<tp1:TrackPointExtension>
<tp1:hr>141</tp1:hr>
</tp1:TrackPointExtension>
</extensions>
</trkpt>
<trkpt lat="58.19331047" lon="16.00071788">
<ele>108.4</ele>
<time>2023-05-14T08:02:52Z</time>
<extensions>
<tp1:TrackPointExtension>
<tp1:hr>141</tp1:hr>
</tp1:TrackPointExtension>
</extensions>
</trkpt>
<trkpt lat="58.19324182" lon="16.00057924">
<ele>108.4</ele>
<time>2023-05-14T08:02:56Z</time>
<extensions>
<tp1:TrackPointExtension>
<tp1:hr>139</tp1:hr>
</tp1:TrackPointExtension>
</extensions>
</trkpt>
<trkpt lat="58.19322556" lon="16.00045905">
<ele>108.4</ele>
<time>2023-05-14T08:02:58Z</time>
<extensions>
<tp1:TrackPointExtension>
<tp1:hr>136</tp1:hr>
</tp1:TrackPointExtension>
</extensions>
</trkpt>
<trkpt lat="58.19321282" lon="16.00040632">
<ele>108.4</ele>
<time>2023-05-14T08:02:59Z</time>
<extensions>
<tp1:TrackPointExtension>
<tp1:hr>139</tp1:hr>
</tp1:TrackPointExtension>
</extensions>
</trkpt>
<trkpt lat="58.19317301" lon="16.00035444">
<ele>108.4</ele>
<time>2023-05-14T08:03:00Z</time>
<extensions>
<tp1:TrackPointExtension>
<tp1:hr>136</tp1:hr>
</tp1:TrackPointExtension>
</extensions>
</trkpt>
<trkpt lat="58.19316085" lon="16.00030188">
<ele>108.4</ele>
<time>2023-05-14T08:03:02Z</time>
<extensions>
<tp1:TrackPointExtension>
<tp1:hr>135</tp1:hr>
</tp1:TrackPointExtension>
</extensions>
</trkpt>
<trkpt lat="58.19317678" lon="16.0002816">
<ele>108.4</ele>
<time>2023-05-14T08:03:03Z</time>
<extensions>
<tp1:TrackPointExtension>
<tp1:hr>138</tp1:hr>
</tp1:TrackPointExtension>
</extensions>
</trkpt>
<trkpt lat="58.19328357" lon="16.00019904">
<ele>108.4</ele>
<time>2023-05-14T08:03:06Z</time>
<extensions>
<tp1:TrackPointExtension>
<tp1:hr>135</tp1:hr>
</tp1:TrackPointExtension>
</extensions>
</trkpt>
<trkpt lat="58.1933181" lon="16.00016031">
<ele>108.4</ele>
<time>2023-05-14T08:03:07Z</time>
<extensions>
<tp1:TrackPointExtension>
<tp1:hr>137</tp1:hr>
</tp1:TrackPointExtension>
</extensions>
</trkpt>
<trkpt lat="58.19341357" lon="16.00003752">
<ele>108.3</ele>
<time>2023-05-14T08:03:10Z</time>
<extensions>
<tp1:TrackPointExtension>
<tp1:hr>137</tp1:hr>
</tp1:TrackPointExtension>
</extensions>
</trkpt>
<trkpt lat="58.19342539" lon="15.99997541">
<ele>108.3</ele>
<time>2023-05-14T08:03:11Z</time>
<extensions>
<tp1:TrackPointExtension>
<tp1:hr>137</tp1:hr>
</tp1:TrackPointExtension>
</extensions>
</trkpt>
<trkpt lat="58.19346822" lon="15.99969805">
<ele>108.3</ele>
<time>2023-05-14T08:03:15Z</time>
<extensions>
<tp1:TrackPointExtension>
<tp1:hr>133</tp1:hr>
</tp1:TrackPointExtension>
</extensions>
</trkpt>
<trkpt lat="58.19346763" lon="15.99965581">
<ele>108.3</ele>
<time>2023-05-14T08:03:16Z</time>
<extensions>
<tp1:TrackPointExtension>
<tp1:hr>133</tp1:hr>
</tp1:TrackPointExtension>
</extensions>
</trkpt>
<trkpt lat="58.19357559" lon="15.99942388">
<ele>108.1</ele>
<time>2023-05-14T08:03:20Z</time>
<extensions>
<tp1:TrackPointExtension>
<tp1:hr>135</tp1:hr>
</tp1:TrackPointExtension>
</extensions>
</trkpt>
<trkpt lat="58.19372605" lon="15.9992119">
<ele>108.1</ele>
<time>2023-05-14T08:03:24Z</time>
<extensions>
<tp1:TrackPointExtension>
<tp1:hr>134</tp1:hr>
</tp1:TrackPointExtension>
</extensions>
</trkpt>
<trkpt lat="58.19379101" lon="15.99912917">
<ele>107.9</ele>
<time>2023-05-14T08:03:26Z</time>
<extensions>
<tp1:TrackPointExtension>
<tp1:hr>136</tp1:hr>
</tp1:TrackPointExtension>
</extensions>
</trkpt>
<trkpt lat="58.19380525" lon="15.99908777">
<ele>107.9</ele>
<time>2023-05-14T08:03:27Z</time>
<extensions>
<tp1:TrackPointExtension>
<tp1:hr>136</tp1:hr>
</tp1:TrackPointExtension>
</extensions>
</trkpt>
<trkpt lat="58.19380953" lon="15.99895382">
<ele>107.9</ele>
<time>2023-05-14T08:03:29Z</time>
<extensions>
<tp1:TrackPointExtension>
<tp1:hr>138</tp1:hr>
</tp1:TrackPointExtension>
</extensions>
</trkpt>
<trkpt lat="58.19382856" lon="15.99866129">
<ele>107.7</ele>
<time>2023-05-14T08:03:33Z</time>
<extensions>
<tp1:TrackPointExtension>
<tp1:hr>138</tp1:hr>
</tp1:TrackPointExtension>
</extensions>
</trkpt>
<trkpt lat="58.19390978" lon="15.99847974">
<ele>107.5</ele>
<time>2023-05-14T08:03:38Z</time>
<extensions>
<tp1:TrackPointExtension>
<tp1:hr>133</tp1:hr>
</tp1:TrackPointExtension>
</extensions>
</trkpt>
<trkpt lat="58.19410239" lon="15.99840615">
<ele>107.2</ele>
<time>2023-05-14T08:03:42Z</time>
<extensions>
<tp1:TrackPointExtension>
<tp1:hr>134</tp1:hr>
</tp1:TrackPointExtension>
</extensions>
</trkpt>
<trkpt lat="58.19425947" lon="15.99836893">
<ele>107.0</ele>
<time>2023-05-14T08:03:45Z</time>
<extensions>
<tp1:TrackPointExtension>
<tp1:hr>134</tp1:hr>
</tp1:TrackPointExtension>
</extensions>
</trkpt>
<trkpt lat="58.19430222" lon="15.99836759">
<ele>106.8</ele>
<time>2023-05-14T08:03:46Z</time>
<extensions>
<tp1:TrackPointExtension>
<tp1:hr>136</tp1:hr>
</tp1:TrackPointExtension>
</extensions>
</trkpt>
<trkpt lat="58.19434178" lon="15.99836659">
<ele>106.8</ele>
<time>2023-05-14T08:03:47Z</time>
<extensions>
<tp1:TrackPointExtension>
<tp1:hr>137</tp1:hr>
</tp1:TrackPointExtension>
</extensions>
</trkpt>
<trkpt lat="58.19436056" lon="15.99836642">
<ele>106.6</ele>
<time>2023-05-14T08:03:48Z</time>
<extensions>
<tp1:TrackPointExtension>
<tp1:hr>135</tp1:hr>
</tp1:TrackPointExtension>
</extensions>
</trkpt>
<trkpt lat="58.19444069" lon="15.99845334">
<ele>106.4</ele>
<time>2023-05-14T08:03:51Z</time>
<extensions>
<tp1:TrackPointExtension>
<tp1:hr>136</tp1:hr>
</tp1:TrackPointExtension>
</extensions>
</trkpt>
<trkpt lat="58.19460715" lon="15.99857781">
<ele>106.2</ele>
<time>2023-05-14T08:03:55Z</time>
<extensions>
<tp1:TrackPointExtension>
<tp1:hr>138</tp1:hr>
</tp1:TrackPointExtension>
</extensions>
</trkpt>
<trkpt lat="58.19466474" lon="15.99860019">
<ele>106.2</ele>
<time>2023-05-14T08:03:56Z</time>
<extensions>
<tp1:TrackPointExtension>
<tp1:hr>137</tp1:hr>
</tp1:TrackPointExtension>
</extensions>
</trkpt>
<trkpt lat="58.19472031" lon="15.99862542">
<ele>106.2</ele>
<time>2023-05-14T08:03:57Z</time>
<extensions>
<tp1:TrackPointExtension>
<tp1:hr>139</tp1:hr>
</tp1:TrackPointExtension>
</extensions>
</trkpt>
<trkpt lat="58.19490144" lon="15.99872148">
<ele>105.8</ele>
<time>2023-05-14T08:04:01Z</time>
<extensions>
<tp1:TrackPointExtension>
<tp1:hr>139</tp1:hr>
</tp1:TrackPointExtension>
</extensions>
</trkpt>
<trkpt lat="58.19509707" lon="15.99877353">
<ele>105.6</ele>
<time>2023-05-14T08:04:05Z</time>
<extensions>
<tp1:TrackPointExtension>
<tp1:hr>140</tp1:hr>
</tp1:TrackPointExtension>
</extensions>
</trkpt>
<trkpt lat="58.19514887" lon="15.99880865">
<ele>105.6</ele>
<time>2023-05-14T08:04:06Z</time>
<extensions>
<tp1:TrackPointExtension>
<tp1:hr>140</tp1:hr>
</tp1:TrackPointExtension>
</extensions>
</trkpt>
<trkpt lat="58.19533411" lon="15.99886648">
<ele>105.2</ele>
<time>2023-05-14T08:04:10Z</time>
<extensions>
<tp1:TrackPointExtension>
<tp1:hr>141</tp1:hr>
</tp1:TrackPointExtension>
</extensions>
</trkpt>
<trkpt lat="58.19540067" lon="15.99899137">
<ele>105.2</ele>
<time>2023-05-14T08:04:12Z</time>
<extensions>
<tp1:TrackPointExtension>
<tp1:hr>140</tp1:hr>
</tp1:TrackPointExtension>
</extensions>
</trkpt>
<trkpt lat="58.19536756" lon="15.9990886">
<ele>105.2</ele>
<time>2023-05-14T08:04:13Z</time>
<extensions>
<tp1:TrackPointExtension>
<tp1:hr>135</tp1:hr>
</tp1:TrackPointExtension>
</extensions>
</trkpt>
<trkpt lat="58.19534568" lon="15.99918424">
<ele>105.0</ele>
<time>2023-05-14T08:04:14Z</time>
<extensions>
<tp1:TrackPointExtension>
<tp1:hr>136</tp1:hr>
</tp1:TrackPointExtension>
</extensions>
</trkpt>
<trkpt lat="58.1953233" lon="15.99928063">
<ele>105.0</ele>
<time>2023-05-14T08:04:15Z</time>
<extensions>
<tp1:TrackPointExtension>
<tp1:hr>136</tp1:hr>
</tp1:TrackPointExtension>
</extensions>
</trkpt>
<trkpt lat="58.19528818" lon="15.99944668">
<ele>104.9</ele>
<time>2023-05-14T08:04:17Z</time>
<extensions>
<tp1:TrackPointExtension>
<tp1:hr>136</tp1:hr>
</tp1:TrackPointExtension>
</extensions>
</trkpt>
<trkpt lat="58.19524074" lon="15.99960719">
<ele>104.7</ele>
<time>2023-05-14T08:04:19Z</time>
<extensions>
<tp1:TrackPointExtension>
<tp1:hr>135</tp1:hr>
</tp1:TrackPointExtension>
</extensions>
</trkpt>
<trkpt lat="58.19520093" lon="15.99965874">
<ele>104.5</ele>
<time>2023-05-14T08:04:20Z</time>
<extensions>
<tp1:TrackPointExtension>
<tp1:hr>135</tp1:hr>
</tp1:TrackPointExtension>
</extensions>
</trkpt>
<trkpt lat="58.19516245" lon="15.99971197">
<ele>104.5</ele>
<time>2023-05-14T08:04:21Z</time>
<extensions>
<tp1:TrackPointExtension>
<tp1:hr>135</tp1:hr>
</tp1:TrackPointExtension>
</extensions>
</trkpt>
<trkpt lat="58.19513471" lon="15.99977014">
<ele>104.5</ele>
<time>2023-05-14T08:04:22Z</time>
<extensions>
<tp1:TrackPointExtension>
<tp1:hr>135</tp1:hr>
</tp1:TrackPointExtension>
</extensions>
</trkpt>
<trkpt lat="58.19506044" lon="15.99995856">
<ele>104.3</ele>
<time>2023-05-14T08:04:25Z</time>
<extensions>
<tp1:TrackPointExtension>
<tp1:hr>135</tp1:hr>
</tp1:TrackPointExtension>
</extensions>
</trkpt>
<trkpt lat="58.1949866" lon="16.00011539">
<ele>104.1</ele>
<time>2023-05-14T08:04:28Z</time>
<extensions>
<tp1:TrackPointExtension>
<tp1:hr>134</tp1:hr>
</tp1:TrackPointExtension>
</extensions>
</trkpt>
<trkpt lat="58.19490672" lon="16.00021522">
<ele>103.9</ele>
<time>2023-05-14T08:04:31Z</time>
<extensions>
<tp1:TrackPointExtension>
<tp1:hr>134</tp1:hr>
</tp1:TrackPointExtension>
</extensions>
</trkpt>
<trkpt lat="58.19486992" lon="16.0002469">
<ele>103.9</ele>
<time>2023-05-14T08:04:32Z</time>
<extensions>
<tp1:TrackPointExtension>
<tp1:hr>131</tp1:hr>
</tp1:TrackPointExtension>
</extensions>
</trkpt>
<trkpt lat="58.19483698" lon="16.00028512">
<ele>103.9</ele>
<time>2023-05-14T08:04:33Z</time>
<extensions>
<tp1:TrackPointExtension>
<tp1:hr>133</tp1:hr>
</tp1:TrackPointExtension>
</extensions>
</trkpt>
<trkpt lat="58.19477948" lon="16.00040448">
<ele>103.7</ele>
<time>2023-05-14T08:04:36Z</time>
<extensions>
<tp1:TrackPointExtension>
<tp1:hr>132</tp1:hr>
</tp1:TrackPointExtension>
</extensions>
</trkpt>
<trkpt lat="58.19484486" lon="16.00040087">
<ele>103.5</ele>
<time>2023-05-14T08:04:39Z</time>
<extensions>
<tp1:TrackPointExtension>
<tp1:hr>130</tp1:hr>
</tp1:TrackPointExtension>
</extensions>
</trkpt>
<trkpt lat="58.19501929" lon="16.00018973">
<ele>103.1</ele>
<time>2023-05-14T08:04:44Z</time>
<extensions>
<tp1:TrackPointExtension>
<tp1:hr>129</tp1:hr>
</tp1:TrackPointExtension>
</extensions>
</trkpt>
<trkpt lat="58.19512423" lon="16.00001656">
<ele>103.1</ele>
<time>2023-05-14T08:04:47Z</time>
<extensions>
<tp1:TrackPointExtension>
<tp1:hr>129</tp1:hr>
</tp1:TrackPointExtension>
</extensions>
</trkpt>
<trkpt lat="58.19521945" lon="15.99983258">
<ele>102.8</ele>
<time>2023-05-14T08:04:50Z</time>
<extensions>
<tp1:TrackPointExtension>
<tp1:hr>129</tp1:hr>
</tp1:TrackPointExtension>
</extensions>
</trkpt>
<trkpt lat="58.19525851" lon="15.99971029">
<ele>102.6</ele>
<time>2023-05-14T08:04:52Z</time>
<extensions>
<tp1:TrackPointExtension>
<tp1:hr>126</tp1:hr>
</tp1:TrackPointExtension>
</extensions>
</trkpt>
<trkpt lat="58.19528986" lon="15.99955497">
<ele>102.6</ele>
<time>2023-05-14T08:04:54Z</time>
<extensions>
<tp1:TrackPointExtension>
<tp1:hr>129</tp1:hr>
</tp1:TrackPointExtension>
</extensions>
</trkpt>
<trkpt lat="58.19531986" lon="15.99923361">
<ele>102.4</ele>
<time>2023-05-14T08:04:58Z</time>
<extensions>
<tp1:TrackPointExtension>
<tp1:hr>133</tp1:hr>
</tp1:TrackPointExtension>
</extensions>
</trkpt>
<trkpt lat="58.19532598" lon="15.99914401">
<ele>102.2</ele>
<time>2023-05-14T08:04:59Z</time>
<extensions>
<tp1:TrackPointExtension>
<tp1:hr>133</tp1:hr>
</tp1:TrackPointExtension>
</extensions>
</trkpt>
<trkpt lat="58.19535121" lon="15.99899414">
<ele>102.2</ele>
<time>2023-05-14T08:05:01Z</time>
<extensions>
<tp1:TrackPointExtension>
<tp1:hr>130</tp1:hr>
</tp1:TrackPointExtension>
</extensions>
</trkpt>
<trkpt lat="58.19542196" lon="15.99892776">
<ele>102.0</ele>
<time>2023-05-14T08:05:03Z</time>
<extensions>
<tp1:TrackPointExtension>
<tp1:hr>129</tp1:hr>
</tp1:TrackPointExtension>
</extensions>
</trkpt>
<trkpt lat="58.19559387" lon="15.99883874">
<ele>101.8</ele>
<time>2023-05-14T08:05:07Z</time>
<extensions>
<tp1:TrackPointExtension>
<tp1:hr>130</tp1:hr>
</tp1:TrackPointExtension>
</extensions>
</trkpt>
<trkpt lat="58.1956248" lon="15.9988322">
<ele>101.8</ele>
<time>2023-05-14T08:05:08Z</time>
<extensions>
<tp1:TrackPointExtension>
<tp1:hr>135</tp1:hr>
</tp1:TrackPointExtension>
</extensions>
</trkpt>
<trkpt lat="58.19566989" lon="15.9988384">
<ele>101.8</ele>
<time>2023-05-14T08:05:09Z</time>
<extensions>
<tp1:TrackPointExtension>
<tp1:hr>135</tp1:hr>
</tp1:TrackPointExtension>
</extensions>
</trkpt>
<trkpt lat="58.19587315" lon="15.99888492">
<ele>101.6</ele>
<time>2023-05-14T08:05:13Z</time>
<extensions>
<tp1:TrackPointExtension>
<tp1:hr>133</tp1:hr>
</tp1:TrackPointExtension>
</extensions>
</trkpt>
<trkpt lat="58.19591942" lon="15.998898">
<ele>101.4</ele>
<time>2023-05-14T08:05:14Z</time>
<extensions>
<tp1:TrackPointExtension>
<tp1:hr>132</tp1:hr>
</tp1:TrackPointExtension>
</extensions>
</trkpt>
<trkpt lat="58.19612101" lon="15.99895726">
<ele>101.2</ele>
<time>2023-05-14T08:05:18Z</time>
<extensions>
<tp1:TrackPointExtension>
<tp1:hr>131</tp1:hr>
</tp1:TrackPointExtension>
</extensions>
</trkpt>
<trkpt lat="58.1961656" lon="15.9989643">
<ele>101.2</ele>
<time>2023-05-14T08:05:19Z</time>
<extensions>
<tp1:TrackPointExtension>
<tp1:hr>131</tp1:hr>
</tp1:TrackPointExtension>
</extensions>
</trkpt>
<trkpt lat="58.19625671" lon="15.99898978">
<ele>101.0</ele>
<time>2023-05-14T08:05:21Z</time>
<extensions>
<tp1:TrackPointExtension>
<tp1:hr>131</tp1:hr>
</tp1:TrackPointExtension>
</extensions>
</trkpt>
<trkpt lat="58.19637473" lon="15.99902348">
<ele>100.9</ele>
<time>2023-05-14T08:05:24Z</time>
<extensions>
<tp1:TrackPointExtension>
<tp1:hr>131</tp1:hr>
</tp1:TrackPointExtension>
</extensions>
</trkpt>
<trkpt lat="58.19642125" lon="15.99903865">
<ele>100.9</ele>
<time>2023-05-14T08:05:25Z</time>
<extensions>
<tp1:TrackPointExtension>
<tp1:hr>131</tp1:hr>
</tp1:TrackPointExtension>
</extensions>
</trkpt>
<trkpt lat="58.19660833" lon="15.99911526">
<ele>100.7</ele>
<time>2023-05-14T08:05:29Z</time>
<extensions>
<tp1:TrackPointExtension>
<tp1:hr>132</tp1:hr>
</tp1:TrackPointExtension>
</extensions>
</trkpt>
<trkpt lat="58.19668821" lon="15.99915004">
<ele>100.5</ele>
<time>2023-05-14T08:05:31Z</time>
<extensions>
<tp1:TrackPointExtension>
<tp1:hr>132</tp1:hr>
</tp1:TrackPointExtension>
</extensions>
</trkpt>
<trkpt lat="58.19689373" lon="15.9992399">
<ele>100.3</ele>
<time>2023-05-14T08:05:36Z</time>
<extensions>
<tp1:TrackPointExtension>
<tp1:hr>133</tp1:hr>
</tp1:TrackPointExtension>
</extensions>
</trkpt>
<trkpt lat="58.19693087" lon="15.99925859">
<ele>100.3</ele>
<time>2023-05-14T08:05:37Z</time>
<extensions>
<tp1:TrackPointExtension>
<tp1:hr>134</tp1:hr>
</tp1:TrackPointExtension>
</extensions>
</trkpt>
<trkpt lat="58.19705182" lon="15.99931483">
<ele>100.3</ele>
<time>2023-05-14T08:05:40Z</time>
<extensions>
<tp1:TrackPointExtension>
<tp1:hr>133</tp1:hr>
</tp1:TrackPointExtension>
</extensions>
</trkpt>
<trkpt lat="58.19708643" lon="15.99933369">
<ele>100.3</ele>
<time>2023-05-14T08:05:41Z</time>
<extensions>
<tp1:TrackPointExtension>
<tp1:hr>132</tp1:hr>
</tp1:TrackPointExtension>
</extensions>
</trkpt>
<trkpt lat="58.19722365" lon="15.99938767">
<ele>100.3</ele>
<time>2023-05-14T08:05:45Z</time>
<extensions>
<tp1:TrackPointExtension>
<tp1:hr>132</tp1:hr>
</tp1:TrackPointExtension>
</extensions>
</trkpt>
<trkpt lat="58.19736689" lon="15.99952446">
<ele>100.3</ele>
<time>2023-05-14T08:05:49Z</time>
<extensions>
<tp1:TrackPointExtension>
<tp1:hr>133</tp1:hr>
</tp1:TrackPointExtension>
</extensions>
</trkpt>
<trkpt lat="58.19743948" lon="15.9995906">
<ele>100.3</ele>
<time>2023-05-14T08:05:51Z</time>
<extensions>
<tp1:TrackPointExtension>
<tp1:hr>132</tp1:hr>
</tp1:TrackPointExtension>
</extensions>
</trkpt>
<trkpt lat="58.19751651" lon="15.99960334">
<ele>100.3</ele>
<time>2023-05-14T08:05:53Z</time>
<extensions>
<tp1:TrackPointExtension>
<tp1:hr>132</tp1:hr>
</tp1:TrackPointExtension>
</extensions>
</trkpt>
<trkpt lat="58.19757912" lon="15.99962899">
<ele>100.2</ele>
<time>2023-05-14T08:05:56Z</time>
<extensions>
<tp1:TrackPointExtension>
<tp1:hr>132</tp1:hr>
</tp1:TrackPointExtension>
</extensions>
</trkpt>
<trkpt lat="58.19760083" lon="15.9996424">
<ele>100.2</ele>
<time>2023-05-14T08:05:57Z</time>
<extensions>
<tp1:TrackPointExtension>
<tp1:hr>130</tp1:hr>
</tp1:TrackPointExtension>
</extensions>
</trkpt>
<trkpt lat="58.19763059" lon="15.99964885">
<ele>100.2</ele>
<time>2023-05-14T08:05:58Z</time>
<extensions>
<tp1:TrackPointExtension>
<tp1:hr>132</tp1:hr>
</tp1:TrackPointExtension>
</extensions>
</trkpt>
<trkpt lat="58.19775078" lon="15.99960015">
<ele>100.4</ele>
<time>2023-05-14T08:06:02Z</time>
<extensions>
<tp1:TrackPointExtension>
<tp1:hr>131</tp1:hr>
</tp1:TrackPointExtension>
</extensions>
</trkpt>
<trkpt lat="58.19793963" lon="15.99939396">
<ele>100.6</ele>
<time>2023-05-14T08:06:08Z</time>
<extensions>
<tp1:TrackPointExtension>
<tp1:hr>132</tp1:hr>
</tp1:TrackPointExtension>
</extensions>
</trkpt>
<trkpt lat="58.19798782" lon="15.99926094">
<ele>100.8</ele>
<time>2023-05-14T08:06:10Z</time>
<extensions>
<tp1:TrackPointExtension>
<tp1:hr>129</tp1:hr>
</tp1:TrackPointExtension>
</extensions>
</trkpt>
<trkpt lat="58.19803937" lon="15.99915247">
<ele>100.8</ele>
<time>2023-05-14T08:06:12Z</time>
<extensions>
<tp1:TrackPointExtension>
<tp1:hr>130</tp1:hr>
</tp1:TrackPointExtension>
</extensions>
</trkpt>
<trkpt lat="58.19802546" lon="15.99887269">
<ele>101.0</ele>
<time>2023-05-14T08:06:16Z</time>
<extensions>
<tp1:TrackPointExtension>
<tp1:hr>129</tp1:hr>
</tp1:TrackPointExtension>
</extensions>
</trkpt>
<trkpt lat="58.19795354" lon="15.99864269">
<ele>101.2</ele>
<time>2023-05-14T08:06:19Z</time>
<extensions>
<tp1:TrackPointExtension>
<tp1:hr>126</tp1:hr>
</tp1:TrackPointExtension>
</extensions>
</trkpt>
<trkpt lat="58.1978994" lon="15.99844228">
<ele>101.2</ele>
<time>2023-05-14T08:06:22Z</time>
<extensions>
<tp1:TrackPointExtension>
<tp1:hr>128</tp1:hr>
</tp1:TrackPointExtension>
</extensions>
</trkpt>
<trkpt lat="58.19788079" lon="15.9983831">
<ele>101.4</ele>
<time>2023-05-14T08:06:23Z</time>
<extensions>
<tp1:TrackPointExtension>
<tp1:hr>129</tp1:hr>
</tp1:TrackPointExtension>
</extensions>
</trkpt>
<trkpt lat="58.19777031" lon="15.99813575">
<ele>101.4</ele>
<time>2023-05-14T08:06:27Z</time>
<extensions>
<tp1:TrackPointExtension>
<tp1:hr>133</tp1:hr>
</tp1:TrackPointExtension>
</extensions>
</trkpt>
<trkpt lat="58.19765599" lon="15.9978718">
<ele>101.5</ele>
<time>2023-05-14T08:06:31Z</time>
<extensions>
<tp1:TrackPointExtension>
<tp1:hr>132</tp1:hr>
</tp1:TrackPointExtension>
</extensions>
</trkpt>
<trkpt lat="58.19762506" lon="15.9977309">
<ele>101.7</ele>
<time>2023-05-14T08:06:33Z</time>
<extensions>
<tp1:TrackPointExtension>
<tp1:hr>130</tp1:hr>
</tp1:TrackPointExtension>
</extensions>
</trkpt>
<trkpt lat="58.19764953" lon="15.99759101">
<ele>101.9</ele>
<time>2023-05-14T08:06:35Z</time>
<extensions>
<tp1:TrackPointExtension>
<tp1:hr>132</tp1:hr>
</tp1:TrackPointExtension>
</extensions>
</trkpt>
<trkpt lat="58.19767317" lon="15.99753485">
<ele>101.9</ele>
<time>2023-05-14T08:06:36Z</time>
<extensions>
<tp1:TrackPointExtension>
<tp1:hr>129</tp1:hr>
</tp1:TrackPointExtension>
</extensions>
</trkpt>
<trkpt lat="58.19782941" lon="15.99738515">
<ele>101.9</ele>
<time>2023-05-14T08:06:40Z</time>
<extensions>
<tp1:TrackPointExtension>
<tp1:hr>130</tp1:hr>
</tp1:TrackPointExtension>
</extensions>
</trkpt>
<trkpt lat="58.1980154" lon="15.99733561">
<ele>102.1</ele>
<time>2023-05-14T08:06:44Z</time>
<extensions>
<tp1:TrackPointExtension>
<tp1:hr>130</tp1:hr>
</tp1:TrackPointExtension>
</extensions>
</trkpt>
<trkpt lat="58.19809872" lon="15.99734659">
<ele>102.1</ele>
<time>2023-05-14T08:06:46Z</time>
<extensions>
<tp1:TrackPointExtension>
<tp1:hr>130</tp1:hr>
</tp1:TrackPointExtension>
</extensions>
</trkpt>
<trkpt lat="58.1982195" lon="15.9974082">
<ele>102.1</ele>
<time>2023-05-14T08:06:49Z</time>
<extensions>
<tp1:TrackPointExtension>
<tp1:hr>133</tp1:hr>
</tp1:TrackPointExtension>
</extensions>
</trkpt>
<trkpt lat="58.19825747" lon="15.99744257">
<ele>102.3</ele>
<time>2023-05-14T08:06:50Z</time>
<extensions>
<tp1:TrackPointExtension>
<tp1:hr>133</tp1:hr>
</tp1:TrackPointExtension>
</extensions>
</trkpt>
<trkpt lat="58.1982853" lon="15.99746436">
<ele>102.3</ele>
<time>2023-05-14T08:06:51Z</time>
<extensions>
<tp1:TrackPointExtension>
<tp1:hr>133</tp1:hr>
</tp1:TrackPointExtension>
</extensions>
</trkpt>
<trkpt lat="58.19830575" lon="15.99748288">
<ele>102.3</ele>
<time>2023-05-14T08:06:52Z</time>
<extensions>
<tp1:TrackPointExtension>
<tp1:hr>136</tp1:hr>
</tp1:TrackPointExtension>
</extensions>
</trkpt>
<trkpt lat="58.19828773" lon="15.99746838">
<ele>102.3</ele>
<time>2023-05-14T08:06:54Z</time>
<extensions>
<tp1:TrackPointExtension>
<tp1:hr>136</tp1:hr>
</tp1:TrackPointExtension>
</extensions>
</trkpt>
<trkpt lat="58.19822663" lon="15.99738465">
<ele>102.5</ele>
<time>2023-05-14T08:06:57Z</time>
<extensions>
<tp1:TrackPointExtension>
<tp1:hr>139</tp1:hr>
</tp1:TrackPointExtension>
</extensions>
</trkpt>
<trkpt lat="58.19815747" lon="15.99727417">
<ele>102.5</ele>
<time>2023-05-14T08:06:59Z</time>
<extensions>
<tp1:TrackPointExtension>
<tp1:hr>136</tp1:hr>
</tp1:TrackPointExtension>
</extensions>
</trkpt>
<trkpt lat="58.19799746" lon="15.99697301">
<ele>102.6</ele>
<time>2023-05-14T08:07:03Z</time>
<extensions>
<tp1:TrackPointExtension>
<tp1:hr>134</tp1:hr>
</tp1:TrackPointExtension>
</extensions>
</trkpt>
<trkpt lat="58.19797433" lon="15.99690679">
<ele>102.6</ele>
<time>2023-05-14T08:07:04Z</time>
<extensions>
<tp1:TrackPointExtension>
<tp1:hr>134</tp1:hr>
</tp1:TrackPointExtension>
</extensions>
</trkpt>
<trkpt lat="58.19792882" lon="15.99677511">
<ele>102.6</ele>
<time>2023-05-14T08:07:06Z</time>
<extensions>
<tp1:TrackPointExtension>
<tp1:hr>133</tp1:hr>
</tp1:TrackPointExtension>
</extensions>
</trkpt>
<trkpt lat="58.1978548" lon="15.99659733">
<ele>102.8</ele>
<time>2023-05-14T08:07:09Z</time>
<extensions>
<tp1:TrackPointExtension>
<tp1:hr>134</tp1:hr>
</tp1:TrackPointExtension>
</extensions>
</trkpt>
<trkpt lat="58.1977792" lon="15.99648317">
<ele>102.8</ele>
<time>2023-05-14T08:07:12Z</time>
<extensions>
<tp1:TrackPointExtension>
<tp1:hr>138</tp1:hr>
</tp1:TrackPointExtension>
</extensions>
</trkpt>
<trkpt lat="58.1976984" lon="15.99635602">
<ele>103.0</ele>
<time>2023-05-14T08:07:15Z</time>
<extensions>
<tp1:TrackPointExtension>
<tp1:hr>139</tp1:hr>
</tp1:TrackPointExtension>
</extensions>
</trkpt>
<trkpt lat="58.19765506" lon="15.9962515">
<ele>103.2</ele>
<time>2023-05-14T08:07:17Z</time>
<extensions>
<tp1:TrackPointExtension>
<tp1:hr>138</tp1:hr>
</tp1:TrackPointExtension>
</extensions>
</trkpt>
<trkpt lat="58.19759446" lon="15.99610515">
<ele>103.4</ele>
<time>2023-05-14T08:07:20Z</time>
<extensions>
<tp1:TrackPointExtension>
<tp1:hr>137</tp1:hr>
</tp1:TrackPointExtension>
</extensions>
</trkpt>
<trkpt lat="58.19756337" lon="15.99580524">
<ele>103.6</ele>
<time>2023-05-14T08:07:25Z</time>
<extensions>
<tp1:TrackPointExtension>
<tp1:hr>137</tp1:hr>
</tp1:TrackPointExtension>
</extensions>
</trkpt>
<trkpt lat="58.19754501" lon="15.99556837">
<ele>104.0</ele>
<time>2023-05-14T08:07:29Z</time>
<extensions>
<tp1:TrackPointExtension>
<tp1:hr>134</tp1:hr>
</tp1:TrackPointExtension>
</extensions>
</trkpt>
<trkpt lat="58.19754166" lon="15.99550148">
<ele>104.2</ele>
<time>2023-05-14T08:07:30Z</time>
<extensions>
<tp1:TrackPointExtension>
<tp1:hr>133</tp1:hr>
</tp1:TrackPointExtension>
</extensions>
</trkpt>
<trkpt lat="58.1975352" lon="15.99543401">
<ele>104.2</ele>
<time>2023-05-14T08:07:31Z</time>
<extensions>
<tp1:TrackPointExtension>
<tp1:hr>132</tp1:hr>
</tp1:TrackPointExtension>
</extensions>
</trkpt>
<trkpt lat="58.19762832" lon="15.99519152">
<ele>104.5</ele>
<time>2023-05-14T08:07:36Z</time>
<extensions>
<tp1:TrackPointExtension>
<tp1:hr>131</tp1:hr>
</tp1:TrackPointExtension>
</extensions>
</trkpt>
<trkpt lat="58.19764266" lon="15.99490126">
<ele>104.7</ele>
<time>2023-05-14T08:07:41Z</time>
<extensions>
<tp1:TrackPointExtension>
<tp1:hr>131</tp1:hr>
</tp1:TrackPointExtension>
</extensions>
</trkpt>
<trkpt lat="58.19761005" lon="15.99481367">
<ele>104.9</ele>
<time>2023-05-14T08:07:44Z</time>
<extensions>
<tp1:TrackPointExtension>
<tp1:hr>131</tp1:hr>
</tp1:TrackPointExtension>
</extensions>
</trkpt>
<trkpt lat="58.1975875" lon="15.99451636">
<ele>105.1</ele>
<time>2023-05-14T08:07:49Z</time>
<extensions>
<tp1:TrackPointExtension>
<tp1:hr>130</tp1:hr>
</tp1:TrackPointExtension>
</extensions>
</trkpt>
<trkpt lat="58.19758038" lon="15.99443866">
<ele>105.1</ele>
<time>2023-05-14T08:07:50Z</time>
<extensions>
<tp1:TrackPointExtension>
<tp1:hr>135</tp1:hr>
</tp1:TrackPointExtension>
</extensions>
</trkpt>
<trkpt lat="58.19761399" lon="15.9942364">
<ele>105.3</ele>
<time>2023-05-14T08:07:53Z</time>
<extensions>
<tp1:TrackPointExtension>
<tp1:hr>134</tp1:hr>
</tp1:TrackPointExtension>
</extensions>
</trkpt>
<trkpt lat="58.19764006" lon="15.99418737">
<ele>105.3</ele>
<time>2023-05-14T08:07:54Z</time>
<extensions>
<tp1:TrackPointExtension>
<tp1:hr>134</tp1:hr>
</tp1:TrackPointExtension>
</extensions>
</trkpt>
<trkpt lat="58.1977196" lon="15.9941867">
<ele>105.5</ele>
<time>2023-05-14T08:07:56Z</time>
<extensions>
<tp1:TrackPointExtension>
<tp1:hr>133</tp1:hr>
</tp1:TrackPointExtension>
</extensions>
</trkpt>
<trkpt lat="58.19786562" lon="15.9942566">
<ele>105.7</ele>
<time>2023-05-14T08:08:00Z</time>
<extensions>
<tp1:TrackPointExtension>
<tp1:hr>136</tp1:hr>
</tp1:TrackPointExtension>
</extensions>
</trkpt>
<trkpt lat="58.19794206" lon="15.99431042">
<ele>105.7</ele>
<time>2023-05-14T08:08:02Z</time>
<extensions>
<tp1:TrackPointExtension>
<tp1:hr>137</tp1:hr>
</tp1:TrackPointExtension>
</extensions>
</trkpt>
<trkpt lat="58.19805832" lon="15.99443254">
<ele>106.1</ele>
<time>2023-05-14T08:08:06Z</time>
<extensions>
<tp1:TrackPointExtension>
<tp1:hr>133</tp1:hr>
</tp1:TrackPointExtension>
</extensions>
</trkpt>
<trkpt lat="58.1980812" lon="15.99447093">
<ele>106.1</ele>
<time>2023-05-14T08:08:07Z</time>
<extensions>
<tp1:TrackPointExtension>
<tp1:hr>135</tp1:hr>
</tp1:TrackPointExtension>
</extensions>
</trkpt>
<trkpt lat="58.19811556" lon="15.99451519">
<ele>106.0</ele>
<time>2023-05-14T08:08:08Z</time>
<extensions>
<tp1:TrackPointExtension>
<tp1:hr>136</tp1:hr>
</tp1:TrackPointExtension>
</extensions>
</trkpt>
<trkpt lat="58.19825278" lon="15.99472884">
<ele>106.4</ele>
<time>2023-05-14T08:08:13Z</time>
<extensions>
<tp1:TrackPointExtension>
<tp1:hr>137</tp1:hr>
</tp1:TrackPointExtension>
</extensions>
</trkpt>
<trkpt lat="58.19842385" lon="15.99492364">
<ele>106.8</ele>
<time>2023-05-14T08:08:18Z</time>
<extensions>
<tp1:TrackPointExtension>
<tp1:hr>137</tp1:hr>
</tp1:TrackPointExtension>
</extensions>
</trkpt>
<trkpt lat="58.19845193" lon="15.99481769">
<ele>107.0</ele>
<time>2023-05-14T08:08:21Z</time>
<extensions>
<tp1:TrackPointExtension>
<tp1:hr>139</tp1:hr>
</tp1:TrackPointExtension>
</extensions>
</trkpt>
<trkpt lat="58.19843584" lon="15.99478148">
<ele>107.0</ele>
<time>2023-05-14T08:08:22Z</time>
<extensions>
<tp1:TrackPointExtension>
<tp1:hr>139</tp1:hr>
</tp1:TrackPointExtension>
</extensions>
</trkpt>
<trkpt lat="58.19837054" lon="15.9946902">
<ele>107.2</ele>
<time>2023-05-14T08:08:24Z</time>
<extensions>
<tp1:TrackPointExtension>
<tp1:hr>141</tp1:hr>
</tp1:TrackPointExtension>
</extensions>
</trkpt>
<trkpt lat="58.19824808" lon="15.9944053">
<ele>107.6</ele>
<time>2023-05-14T08:08:28Z</time>
<extensions>
<tp1:TrackPointExtension>
<tp1:hr>140</tp1:hr>
</tp1:TrackPointExtension>
</extensions>
</trkpt>
<trkpt lat="58.19823828" lon="15.99434755">
<ele>107.6</ele>
<time>2023-05-14T08:08:29Z</time>
<extensions>
<tp1:TrackPointExtension>
<tp1:hr>140</tp1:hr>
</tp1:TrackPointExtension>
</extensions>
</trkpt>
<trkpt lat="58.19821145" lon="15.99410648">
<ele>108.0</ele>
<time>2023-05-14T08:08:33Z</time>
<extensions>
<tp1:TrackPointExtension>
<tp1:hr>139</tp1:hr>
</tp1:TrackPointExtension>
</extensions>
</trkpt>
<trkpt lat="58.19818656" lon="15.99401521">
<ele>108.2</ele>
<time>2023-05-14T08:08:35Z</time>
<extensions>
<tp1:TrackPointExtension>
<tp1:hr>138</tp1:hr>
</tp1:TrackPointExtension>
</extensions>
</trkpt>
<trkpt lat="58.19818648" lon="15.99395586">
<ele>108.2</ele>
<time>2023-05-14T08:08:36Z</time>
<extensions>
<tp1:TrackPointExtension>
<tp1:hr>139</tp1:hr>
</tp1:TrackPointExtension>
</extensions>
</trkpt>
<trkpt lat="58.19819528" lon="15.99388923">
<ele>108.4</ele>
<time>2023-05-14T08:08:37Z</time>
<extensions>
<tp1:TrackPointExtension>
<tp1:hr>140</tp1:hr>
</tp1:TrackPointExtension>
</extensions>
</trkpt>
<trkpt lat="58.19826853" lon="15.99360608">
<ele>108.8</ele>
<time>2023-05-14T08:08:41Z</time>
<extensions>
<tp1:TrackPointExtension>
<tp1:hr>138</tp1:hr>
</tp1:TrackPointExtension>
</extensions>
</trkpt>
<trkpt lat="58.19832142" lon="15.99334289">
<ele>109.1</ele>
<time>2023-05-14T08:08:46Z</time>
<extensions>
<tp1:TrackPointExtension>
<tp1:hr>137</tp1:hr>
</tp1:TrackPointExtension>
</extensions>
</trkpt>
<trkpt lat="58.19827775" lon="15.99333594">
<ele>109.3</ele>
<time>2023-05-14T08:08:48Z</time>
<extensions>
<tp1:TrackPointExtension>
<tp1:hr>134</tp1:hr>
</tp1:TrackPointExtension>
</extensions>
</trkpt>
<trkpt lat="58.19826082" lon="15.99334273">
<ele>109.3</ele>
<time>2023-05-14T08:08:49Z</time>
<extensions>
<tp1:TrackPointExtension>
<tp1:hr>134</tp1:hr>
</tp1:TrackPointExtension>
</extensions>
</trkpt>
<trkpt lat="58.19825202" lon="15.99334809">
<ele>109.5</ele>
<time>2023-05-14T08:08:50Z</time>
<extensions>
<tp1:TrackPointExtension>
<tp1:hr>135</tp1:hr>
</tp1:TrackPointExtension>
</extensions>
</trkpt>
<trkpt lat="58.19827071" lon="15.9933413">
<ele>109.5</ele>
<time>2023-05-14T08:08:52Z</time>
<extensions>
<tp1:TrackPointExtension>
<tp1:hr>134</tp1:hr>
</tp1:TrackPointExtension>
</extensions>
</trkpt>
<trkpt lat="58.19835772" lon="15.99334834">
<ele>109.7</ele>
<time>2023-05-14T08:08:55Z</time>
<extensions>
<tp1:TrackPointExtension>
<tp1:hr>133</tp1:hr>
</tp1:TrackPointExtension>
</extensions>
</trkpt>
<trkpt lat="58.19838605" lon="15.99338371">
<ele>109.9</ele>
<time>2023-05-14T08:08:56Z</time>
<extensions>
<tp1:TrackPointExtension>
<tp1:hr>133</tp1:hr>
</tp1:TrackPointExtension>
</extensions>
</trkpt>
<trkpt lat="58.19837113" lon="15.99349318">
<ele>109.9</ele>
<time>2023-05-14T08:08:58Z</time>
<extensions>
<tp1:TrackPointExtension>
<tp1:hr>134</tp1:hr>
</tp1:TrackPointExtension>
</extensions>
</trkpt>
<trkpt lat="58.1983231" lon="15.99361849">
<ele>110.1</ele>
<time>2023-05-14T08:09:00Z</time>
<extensions>
<tp1:TrackPointExtension>
<tp1:hr>133</tp1:hr>
</tp1:TrackPointExtension>
</extensions>
</trkpt>
<trkpt lat="58.19823702" lon="15.99391211">
<ele>110.5</ele>
<time>2023-05-14T08:09:04Z</time>
<extensions>
<tp1:TrackPointExtension>
<tp1:hr>133</tp1:hr>
</tp1:TrackPointExtension>
</extensions>
</trkpt>
<trkpt lat="58.19826384" lon="15.99421939">
<ele>110.7</ele>
<time>2023-05-14T08:09:08Z</time>
<extensions>
<tp1:TrackPointExtension>
<tp1:hr>134</tp1:hr>
</tp1:TrackPointExtension>
</extensions>
</trkpt>
<trkpt lat="58.19826711" lon="15.99436205">
<ele>110.9</ele>
<time>2023-05-14T08:09:10Z</time>
<extensions>
<tp1:TrackPointExtension>
<tp1:hr>134</tp1:hr>
</tp1:TrackPointExtension>
</extensions>
</trkpt>
<trkpt lat="58.19828245" lon="15.9945006">
<ele>111.1</ele>
<time>2023-05-14T08:09:12Z</time>
<extensions>
<tp1:TrackPointExtension>
<tp1:hr>132</tp1:hr>
</tp1:TrackPointExtension>
</extensions>
</trkpt>
<trkpt lat="58.19830743" lon="15.99463429">
<ele>111.1</ele>
<time>2023-05-14T08:09:14Z</time>
<extensions>
<tp1:TrackPointExtension>
<tp1:hr>135</tp1:hr>
</tp1:TrackPointExtension>
</extensions>
</trkpt>
<trkpt lat="58.19833383" lon="15.99469548">
<ele>111.0</ele>
<time>2023-05-14T08:09:15Z</time>
<extensions>
<tp1:TrackPointExtension>
<tp1:hr>134</tp1:hr>
</tp1:TrackPointExtension>
</extensions>
</trkpt>
<trkpt lat="58.19835437" lon="15.99473949">
<ele>111.0</ele>
<time>2023-05-14T08:09:16Z</time>
<extensions>
<tp1:TrackPointExtension>
<tp1:hr>135</tp1:hr>
</tp1:TrackPointExtension>
</extensions>
</trkpt>
<trkpt lat="58.19839133" lon="15.99478383">
<ele>111.2</ele>
<time>2023-05-14T08:09:17Z</time>
<extensions>
<tp1:TrackPointExtension>
<tp1:hr>138</tp1:hr>
</tp1:TrackPointExtension>
</extensions>
</trkpt>
<trkpt lat="58.19845143" lon="15.99480269">
<ele>111.2</ele>
<time>2023-05-14T08:09:19Z</time>
<extensions>
<tp1:TrackPointExtension>
<tp1:hr>141</tp1:hr>
</tp1:TrackPointExtension>
</extensions>
</trkpt>
<trkpt lat="58.19859241" lon="15.99491383">
<ele>111.4</ele>
<time>2023-05-14T08:09:23Z</time>
<extensions>
<tp1:TrackPointExtension>
<tp1:hr>143</tp1:hr>
</tp1:TrackPointExtension>
</extensions>
</trkpt>
<trkpt lat="58.19865519" lon="15.9949668">
<ele>111.4</ele>
<time>2023-05-14T08:09:26Z</time>
<extensions>
<tp1:TrackPointExtension>
<tp1:hr>141</tp1:hr>
</tp1:TrackPointExtension>
</extensions>
</trkpt>
<trkpt lat="58.19865963" lon="15.99494928">
<ele>111.4</ele>
<time>2023-05-14T08:09:27Z</time>
<extensions>
<tp1:TrackPointExtension>
<tp1:hr>143</tp1:hr>
</tp1:TrackPointExtension>
</extensions>
</trkpt>
<trkpt lat="58.19862611" lon="15.99475583">
<ele>111.6</ele>
<time>2023-05-14T08:09:31Z</time>
<extensions>
<tp1:TrackPointExtension>
<tp1:hr>145</tp1:hr>
</tp1:TrackPointExtension>
</extensions>
</trkpt>
<trkpt lat="58.19863147" lon="15.99469925">
<ele>111.6</ele>
<time>2023-05-14T08:09:32Z</time>
<extensions>
<tp1:TrackPointExtension>
<tp1:hr>146</tp1:hr>
</tp1:TrackPointExtension>
</extensions>
</trkpt>
<trkpt lat="58.19866592" lon="15.99457545">
<ele>111.6</ele>
<time>2023-05-14T08:09:34Z</time>
<extensions>
<tp1:TrackPointExtension>
<tp1:hr>145</tp1:hr>
</tp1:TrackPointExtension>
</extensions>
</trkpt>
<trkpt lat="58.19871261" lon="15.99445676">
<ele>111.8</ele>
<time>2023-05-14T08:09:36Z</time>
<extensions>
<tp1:TrackPointExtension>
<tp1:hr>141</tp1:hr>
</tp1:TrackPointExtension>
</extensions>
</trkpt>
<trkpt lat="58.19875779" lon="15.99431176">
<ele>111.8</ele>
<time>2023-05-14T08:09:38Z</time>
<extensions>
<tp1:TrackPointExtension>
<tp1:hr>144</tp1:hr>
</tp1:TrackPointExtension>
</extensions>
</trkpt>
<trkpt lat="58.19879961" lon="15.99408813">
<ele>112.0</ele>
<time>2023-05-14T08:09:41Z</time>
<extensions>
<tp1:TrackPointExtension>
<tp1:hr>142</tp1:hr>
</tp1:TrackPointExtension>
</extensions>
</trkpt>
<trkpt lat="58.19888536" lon="15.99376953">
<ele>112.0</ele>
<time>2023-05-14T08:09:46Z</time>
<extensions>
<tp1:TrackPointExtension>
<tp1:hr>142</tp1:hr>
</tp1:TrackPointExtension>
</extensions>
</trkpt>
<trkpt lat="58.19888821" lon="15.99371111">
<ele>112.2</ele>
<time>2023-05-14T08:09:47Z</time>
<extensions>
<tp1:TrackPointExtension>
<tp1:hr>142</tp1:hr>
</tp1:TrackPointExtension>
</extensions>
</trkpt>
<trkpt lat="58.19885083" lon="15.99361296">
<ele>112.1</ele>
<time>2023-05-14T08:09:49Z</time>
<extensions>
<tp1:TrackPointExtension>
<tp1:hr>141</tp1:hr>
</tp1:TrackPointExtension>
</extensions>
</trkpt>
<trkpt lat="58.19882317" lon="15.99352838">
<ele>112.1</ele>
<time>2023-05-14T08:09:51Z</time>
<extensions>
<tp1:TrackPointExtension>
<tp1:hr>144</tp1:hr>
</tp1:TrackPointExtension>
</extensions>
</trkpt>
<trkpt lat="58.19882845" lon="15.99348832">
<ele>112.3</ele>
<time>2023-05-14T08:09:52Z</time>
<extensions>
<tp1:TrackPointExtension>
<tp1:hr>144</tp1:hr>
</tp1:TrackPointExtension>
</extensions>
</trkpt>
<trkpt lat="58.19886834" lon="15.99343283">
<ele>112.3</ele>
<time>2023-05-14T08:09:54Z</time>
<extensions>
<tp1:TrackPointExtension>
<tp1:hr>144</tp1:hr>
</tp1:TrackPointExtension>
</extensions>
</trkpt>
<trkpt lat="58.198895" lon="15.99344758">
<ele>112.5</ele>
<time>2023-05-14T08:09:55Z</time>
<extensions>
<tp1:TrackPointExtension>
<tp1:hr>146</tp1:hr>
</tp1:TrackPointExtension>
</extensions>
</trkpt>
<trkpt lat="58.19898527" lon="15.99352696">
<ele>112.7</ele>
<time>2023-05-14T08:10:00Z</time>
<extensions>
<tp1:TrackPointExtension>
<tp1:hr>146</tp1:hr>
</tp1:TrackPointExtension>
</extensions>
</trkpt>
<trkpt lat="58.19893498" lon="15.99351112">
<ele>112.9</ele>
<time>2023-05-14T08:10:03Z</time>
<extensions>
<tp1:TrackPointExtension>
<tp1:hr>146</tp1:hr>
</tp1:TrackPointExtension>
</extensions>
</trkpt>
<trkpt lat="58.19887958" lon="15.99342822">
<ele>113.1</ele>
<time>2023-05-14T08:10:05Z</time>
<extensions>
<tp1:TrackPointExtension>
<tp1:hr>145</tp1:hr>
</tp1:TrackPointExtension>
</extensions>
</trkpt>
<trkpt lat="58.1988266" lon="15.99338036">
<ele>113.1</ele>
<time>2023-05-14T08:10:07Z</time>
<extensions>
<tp1:TrackPointExtension>
<tp1:hr>143</tp1:hr>
</tp1:TrackPointExtension>
</extensions>
</trkpt>
<trkpt lat="58.19876248" lon="15.99340433">
<ele>113.3</ele>
<time>2023-05-14T08:10:09Z</time>
<extensions>
<tp1:TrackPointExtension>
<tp1:hr>145</tp1:hr>
</tp1:TrackPointExtension>
</extensions>
</trkpt>
<trkpt lat="58.19868285" lon="15.99340525">
<ele>113.3</ele>
<time>2023-05-14T08:10:11Z</time>
<extensions>
<tp1:TrackPointExtension>
<tp1:hr>146</tp1:hr>
</tp1:TrackPointExtension>
</extensions>
</trkpt>
<trkpt lat="58.19864731" lon="15.99342898">
<ele>113.3</ele>
<time>2023-05-14T08:10:12Z</time>
<extensions>
<tp1:TrackPointExtension>
<tp1:hr>147</tp1:hr>
</tp1:TrackPointExtension>
</extensions>
</trkpt>
<trkpt lat="58.19858705" lon="15.99353618">
<ele>113.5</ele>
<time>2023-05-14T08:10:14Z</time>
<extensions>
<tp1:TrackPointExtension>
<tp1:hr>145</tp1:hr>
</tp1:TrackPointExtension>
</extensions>
</trkpt>
<trkpt lat="58.19845277" lon="15.9938132">
<ele>113.7</ele>
<time>2023-05-14T08:10:18Z</time>
<extensions>
<tp1:TrackPointExtension>
<tp1:hr>145</tp1:hr>
</tp1:TrackPointExtension>
</extensions>
</trkpt>
<trkpt lat="58.19843215" lon="15.99389384">
<ele>113.7</ele>
<time>2023-05-14T08:10:19Z</time>
<extensions>
<tp1:TrackPointExtension>
<tp1:hr>147</tp1:hr>
</tp1:TrackPointExtension>
</extensions>
</trkpt>
<trkpt lat="58.19829754" lon="15.9941515">
<ele>113.8</ele>
<time>2023-05-14T08:10:23Z</time>
<extensions>
<tp1:TrackPointExtension>
<tp1:hr>147</tp1:hr>
</tp1:TrackPointExtension>
</extensions>
</trkpt>
<trkpt lat="58.19820802" lon="15.99434939">
<ele>114.0</ele>
<time>2023-05-14T08:10:27Z</time>
<extensions>
<tp1:TrackPointExtension>
<tp1:hr>143</tp1:hr>
</tp1:TrackPointExtension>
</extensions>
</trkpt>
<trkpt lat="58.19816686" lon="15.99437026">
<ele>114.0</ele>
<time>2023-05-14T08:10:28Z</time>
<extensions>
<tp1:TrackPointExtension>
<tp1:hr>145</tp1:hr>
</tp1:TrackPointExtension>
</extensions>
</trkpt>
<trkpt lat="58.19805119" lon="15.99439994">
<ele>114.0</ele>
<time>2023-05-14T08:10:32Z</time>
<extensions>
<tp1:TrackPointExtension>
<tp1:hr>143</tp1:hr>
</tp1:TrackPointExtension>
</extensions>
</trkpt>
<trkpt lat="58.19810752" lon="15.99451477">
<ele>114.0</ele>
<time>2023-05-14T08:10:35Z</time>
<extensions>
<tp1:TrackPointExtension>
<tp1:hr>146</tp1:hr>
</tp1:TrackPointExtension>
</extensions>
</trkpt>
<trkpt lat="58.1982449" lon="15.99461795">
<ele>114.0</ele>
<time>2023-05-14T08:10:39Z</time>
<extensions>
<tp1:TrackPointExtension>
<tp1:hr>148</tp1:hr>
</tp1:TrackPointExtension>
</extensions>
</trkpt>
<trkpt lat="58.19831187" lon="15.99467075">
<ele>114.0</ele>
<time>2023-05-14T08:10:41Z</time>
<extensions>
<tp1:TrackPointExtension>
<tp1:hr>151</tp1:hr>
</tp1:TrackPointExtension>
</extensions>
</trkpt>
<trkpt lat="58.19837624" lon="15.99473613">
<ele>114.2</ele>
<time>2023-05-14T08:10:43Z</time>
<extensions>
<tp1:TrackPointExtension>
<tp1:hr>149</tp1:hr>
</tp1:TrackPointExtension>
</extensions>
</trkpt>
<trkpt lat="58.19842276" lon="15.994915">
<ele>114.2</ele>
<time>2023-05-14T08:10:45Z</time>
<extensions>
<tp1:TrackPointExtension>
<tp1:hr>149</tp1:hr>
</tp1:TrackPointExtension>
</extensions>
</trkpt>
<trkpt lat="58.19841295" lon="15.99497854">
<ele>114.2</ele>
<time>2023-05-14T08:10:46Z</time>
<extensions>
<tp1:TrackPointExtension>
<tp1:hr>150</tp1:hr>
</tp1:TrackPointExtension>
</extensions>
</trkpt>
<trkpt lat="58.19836224" lon="15.99518255">
<ele>114.2</ele>
<time>2023-05-14T08:10:49Z</time>
<extensions>
<tp1:TrackPointExtension>
<tp1:hr>149</tp1:hr>
</tp1:TrackPointExtension>
</extensions>
</trkpt>
<trkpt lat="58.19836065" lon="15.99530309">
<ele>114.2</ele>
<time>2023-05-14T08:10:51Z</time>
<extensions>
<tp1:TrackPointExtension>
<tp1:hr>150</tp1:hr>
</tp1:TrackPointExtension>
</extensions>
</trkpt>
<trkpt lat="58.19836526" lon="15.99542722">
<ele>114.2</ele>
<time>2023-05-14T08:10:53Z</time>
<extensions>
<tp1:TrackPointExtension>
<tp1:hr>146</tp1:hr>
</tp1:TrackPointExtension>
</extensions>
</trkpt>
<trkpt lat="58.19833081" lon="15.99557793">
<ele>114.1</ele>
<time>2023-05-14T08:10:55Z</time>
<extensions>
<tp1:TrackPointExtension>
<tp1:hr>146</tp1:hr>
</tp1:TrackPointExtension>
</extensions>
</trkpt>
<trkpt lat="58.1982599" lon="15.99593248">
<ele>114.1</ele>
<time>2023-05-14T08:11:00Z</time>
<extensions>
<tp1:TrackPointExtension>
<tp1:hr>145</tp1:hr>
</tp1:TrackPointExtension>
</extensions>
</trkpt>
<trkpt lat="58.198248" lon="15.99599853">
<ele>114.1</ele>
<time>2023-05-14T08:11:01Z</time>
<extensions>
<tp1:TrackPointExtension>
<tp1:hr>146</tp1:hr>
</tp1:TrackPointExtension>
</extensions>
</trkpt>
<trkpt lat="58.19823585" lon="15.9962639">
<ele>114.1</ele>
<time>2023-05-14T08:11:05Z</time>
<extensions>
<tp1:TrackPointExtension>
<tp1:hr>144</tp1:hr>
</tp1:TrackPointExtension>
</extensions>
</trkpt>
<trkpt lat="58.19824993" lon="15.99630103">
<ele>114.1</ele>
<time>2023-05-14T08:11:06Z</time>
<extensions>
<tp1:TrackPointExtension>
<tp1:hr>144</tp1:hr>
</tp1:TrackPointExtension>
</extensions>
</trkpt>
<trkpt lat="58.19831723" lon="15.99636968">
<ele>113.9</ele>
<time>2023-05-14T08:11:09Z</time>
<extensions>
<tp1:TrackPointExtension>
<tp1:hr>141</tp1:hr>
</tp1:TrackPointExtension>
</extensions>
</trkpt>
<trkpt lat="58.19834489" lon="15.99638946">
<ele>113.9</ele>
<time>2023-05-14T08:11:10Z</time>
<extensions>
<tp1:TrackPointExtension>
<tp1:hr>141</tp1:hr>
</tp1:TrackPointExtension>
</extensions>
</trkpt>
<trkpt lat="58.19838194" lon="15.99644596">
<ele>113.7</ele>
<time>2023-05-14T08:11:12Z</time>
<extensions>
<tp1:TrackPointExtension>
<tp1:hr>140</tp1:hr>
</tp1:TrackPointExtension>
</extensions>
</trkpt>
<trkpt lat="58.19837021" lon="15.99647194">
<ele>113.7</ele>
<time>2023-05-14T08:11:13Z</time>
<extensions>
<tp1:TrackPointExtension>
<tp1:hr>142</tp1:hr>
</tp1:TrackPointExtension>
</extensions>
</trkpt>
<trkpt lat="58.19831447" lon="15.99653103">
<ele>113.5</ele>
<time>2023-05-14T08:11:15Z</time>
<extensions>
<tp1:TrackPointExtension>
<tp1:hr>146</tp1:hr>
</tp1:TrackPointExtension>
</extensions>
</trkpt>
<trkpt lat="58.19824766" lon="15.99659448">
<ele>113.5</ele>
<time>2023-05-14T08:11:17Z</time>
<extensions>
<tp1:TrackPointExtension>
<tp1:hr>143</tp1:hr>
</tp1:TrackPointExtension>
</extensions>
</trkpt>
<trkpt lat="58.19806871" lon="15.99672549">
<ele>113.3</ele>
<time>2023-05-14T08:11:22Z</time>
<extensions>
<tp1:TrackPointExtension>
<tp1:hr>142</tp1:hr>
</tp1:TrackPointExtension>
</extensions>
</trkpt>
<trkpt lat="58.19791733" lon="15.99681174">
<ele>113.1</ele>
<time>2023-05-14T08:11:26Z</time>
<extensions>
<tp1:TrackPointExtension>
<tp1:hr>144</tp1:hr>
</tp1:TrackPointExtension>
</extensions>
</trkpt>
<trkpt lat="58.19780175" lon="15.99685407">
<ele>112.6</ele>
<time>2023-05-14T08:11:29Z</time>
<extensions>
<tp1:TrackPointExtension>
<tp1:hr>149</tp1:hr>
</tp1:TrackPointExtension>
</extensions>
</trkpt>
<trkpt lat="58.19776235" lon="15.99687411">
<ele>112.6</ele>
<time>2023-05-14T08:11:30Z</time>
<extensions>
<tp1:TrackPointExtension>
<tp1:hr>146</tp1:hr>
</tp1:TrackPointExtension>
</extensions>
</trkpt>
<trkpt lat="58.19768507" lon="15.99691467">
<ele>112.4</ele>
<time>2023-05-14T08:11:32Z</time>
<extensions>
<tp1:TrackPointExtension>
<tp1:hr>149</tp1:hr>
</tp1:TrackPointExtension>
</extensions>
</trkpt>
<trkpt lat="58.19751391" lon="15.99688902">
<ele>112.0</ele>
<time>2023-05-14T08:11:36Z</time>
<extensions>
<tp1:TrackPointExtension>
<tp1:hr>149</tp1:hr>
</tp1:TrackPointExtension>
</extensions>
</trkpt>
<trkpt lat="58.19733085" lon="15.99673664">
<ele>111.6</ele>
<time>2023-05-14T08:11:41Z</time>
<extensions>
<tp1:TrackPointExtension>
<tp1:hr>151</tp1:hr>
</tp1:TrackPointExtension>
</extensions>
</trkpt>
<trkpt lat="58.19729799" lon="15.99670647">
<ele>111.6</ele>
<time>2023-05-14T08:11:42Z</time>
<extensions>
<tp1:TrackPointExtension>
<tp1:hr>150</tp1:hr>
</tp1:TrackPointExtension>
</extensions>
</trkpt>
<trkpt lat="58.19715232" lon="15.99661284">
<ele>111.4</ele>
<time>2023-05-14T08:11:46Z</time>
<extensions>
<tp1:TrackPointExtension>
<tp1:hr>150</tp1:hr>
</tp1:TrackPointExtension>
</extensions>
</trkpt>
<trkpt lat="58.19704209" lon="15.99653774">
<ele>111.2</ele>
<time>2023-05-14T08:11:50Z</time>
<extensions>
<tp1:TrackPointExtension>
<tp1:hr>150</tp1:hr>
</tp1:TrackPointExtension>
</extensions>
</trkpt>
<trkpt lat="58.19711376" lon="15.99645342">
<ele>111.0</ele>
<time>2023-05-14T08:11:53Z</time>
<extensions>
<tp1:TrackPointExtension>
<tp1:hr>148</tp1:hr>
</tp1:TrackPointExtension>
</extensions>
</trkpt>
<trkpt lat="58.19718341" lon="15.99637421">
<ele>110.8</ele>
<time>2023-05-14T08:11:55Z</time>
<extensions>
<tp1:TrackPointExtension>
<tp1:hr>145</tp1:hr>
</tp1:TrackPointExtension>
</extensions>
</trkpt>
<trkpt lat="58.19734317" lon="15.99622593">
<ele>110.8</ele>
<time>2023-05-14T08:11:59Z</time>
<extensions>
<tp1:TrackPointExtension>
<tp1:hr>147</tp1:hr>
</tp1:TrackPointExtension>
</extensions>
</trkpt>
<trkpt lat="58.19739372" lon="15.99601412">
<ele>110.5</ele>
<time>2023-05-14T08:12:02Z</time>
<extensions>
<tp1:TrackPointExtension>
<tp1:hr>145</tp1:hr>
</tp1:TrackPointExtension>
</extensions>
</trkpt>
<trkpt lat="58.19738642" lon="15.9959376">
<ele>110.5</ele>
<time>2023-05-14T08:12:03Z</time>
<extensions>
<tp1:TrackPointExtension>
<tp1:hr>144</tp1:hr>
</tp1:TrackPointExtension>
</extensions>
</trkpt>
<trkpt lat="58.19737192" lon="15.99578949">
<ele>110.5</ele>
<time>2023-05-14T08:12:05Z</time>
<extensions>
<tp1:TrackPointExtension>
<tp1:hr>145</tp1:hr>
</tp1:TrackPointExtension>
</extensions>
</trkpt>
<trkpt lat="58.19735901" lon="15.99571455">
<ele>110.5</ele>
<time>2023-05-14T08:12:06Z</time>
<extensions>
<tp1:TrackPointExtension>
<tp1:hr>145</tp1:hr>
</tp1:TrackPointExtension>
</extensions>
</trkpt>
<trkpt lat="58.19732616" lon="15.99534743">
<ele>110.3</ele>
<time>2023-05-14T08:12:11Z</time>
<extensions>
<tp1:TrackPointExtension>
<tp1:hr>142</tp1:hr>
</tp1:TrackPointExtension>
</extensions>
</trkpt>
<trkpt lat="58.197256" lon="15.99496261">
<ele>110.1</ele>
<time>2023-05-14T08:12:16Z</time>
<extensions>
<tp1:TrackPointExtension>
<tp1:hr>144</tp1:hr>
</tp1:TrackPointExtension>
</extensions>
</trkpt>
<trkpt lat="58.19724435" lon="15.99489338">
<ele>109.9</ele>
<time>2023-05-14T08:12:17Z</time>
<extensions>
<tp1:TrackPointExtension>
<tp1:hr>144</tp1:hr>
</tp1:TrackPointExtension>
</extensions>
</trkpt>
<trkpt lat="58.19722692" lon="15.99461166">
<ele>109.9</ele>
<time>2023-05-14T08:12:21Z</time>
<extensions>
<tp1:TrackPointExtension>
<tp1:hr>145</tp1:hr>
</tp1:TrackPointExtension>
</extensions>
</trkpt>
<trkpt lat="58.19719004" lon="15.99439105">
<ele>109.7</ele>
<time>2023-05-14T08:12:24Z</time>
<extensions>
<tp1:TrackPointExtension>
<tp1:hr>142</tp1:hr>
</tp1:TrackPointExtension>
</extensions>
</trkpt>
<trkpt lat="58.19717336" lon="15.99432777">
<ele>109.7</ele>
<time>2023-05-14T08:12:25Z</time>
<extensions>
<tp1:TrackPointExtension>
<tp1:hr>144</tp1:hr>
</tp1:TrackPointExtension>
</extensions>
</trkpt>
<trkpt lat="58.19714628" lon="15.99426314">
<ele>109.7</ele>
<time>2023-05-14T08:12:26Z</time>
<extensions>
<tp1:TrackPointExtension>
<tp1:hr>148</tp1:hr>
</tp1:TrackPointExtension>
</extensions>
</trkpt>
<trkpt lat="58.19711778" lon="15.99420237">
<ele>109.7</ele>
<time>2023-05-14T08:12:27Z</time>
<extensions>
<tp1:TrackPointExtension>
<tp1:hr>151</tp1:hr>
</tp1:TrackPointExtension>
</extensions>
</trkpt>
<trkpt lat="58.19708669" lon="15.99415602">
<ele>109.7</ele>
<time>2023-05-14T08:12:28Z</time>
<extensions>
<tp1:TrackPointExtension>
<tp1:hr>154</tp1:hr>
</tp1:TrackPointExtension>
</extensions>
</trkpt>
<trkpt lat="58.19705073" lon="15.99411453">
<ele>109.7</ele>
<time>2023-05-14T08:12:29Z</time>
<extensions>
<tp1:TrackPointExtension>
<tp1:hr>155</tp1:hr>
</tp1:TrackPointExtension>
</extensions>
</trkpt>
<trkpt lat="58.19694847" lon="15.99402292">
<ele>109.7</ele>
<time>2023-05-14T08:12:32Z</time>
<extensions>
<tp1:TrackPointExtension>
<tp1:hr>158</tp1:hr>
</tp1:TrackPointExtension>
</extensions>
</trkpt>
<trkpt lat="58.1968333" lon="15.99391948">
<ele>109.4</ele>
<time>2023-05-14T08:12:35Z</time>
<extensions>
<tp1:TrackPointExtension>
<tp1:hr>161</tp1:hr>
</tp1:TrackPointExtension>
</extensions>
</trkpt>
<trkpt lat="58.19664898" lon="15.99367046">
<ele>109.4</ele>
<time>2023-05-14T08:12:40Z</time>
<extensions>
<tp1:TrackPointExtension>
<tp1:hr>161</tp1:hr>
</tp1:TrackPointExtension>
</extensions>
</trkpt>
<trkpt lat="58.19655217" lon="15.99349813">
<ele>109.4</ele>
<time>2023-05-14T08:12:43Z</time>
<extensions>
<tp1:TrackPointExtension>
<tp1:hr>162</tp1:hr>
</tp1:TrackPointExtension>
</extensions>
</trkpt>
<trkpt lat="58.19643768" lon="15.99325731">
<ele>109.4</ele>
<time>2023-05-14T08:12:47Z</time>
<extensions>
<tp1:TrackPointExtension>
<tp1:hr>162</tp1:hr>
</tp1:TrackPointExtension>
</extensions>
</trkpt>
<trkpt lat="58.19640918" lon="15.9932097">
<ele>109.4</ele>
<time>2023-05-14T08:12:48Z</time>
<extensions>
<tp1:TrackPointExtension>
<tp1:hr>161</tp1:hr>
</tp1:TrackPointExtension>
</extensions>
</trkpt>
<trkpt lat="58.19635696" lon="15.99313661">
<ele>109.2</ele>
<time>2023-05-14T08:12:50Z</time>
<extensions>
<tp1:TrackPointExtension>
<tp1:hr>161</tp1:hr>
</tp1:TrackPointExtension>
</extensions>
</trkpt>
<trkpt lat="58.19630365" lon="15.99308909">
<ele>109.2</ele>
<time>2023-05-14T08:12:53Z</time>
<extensions>
<tp1:TrackPointExtension>
<tp1:hr>159</tp1:hr>
</tp1:TrackPointExtension>
</extensions>
</trkpt>
<trkpt lat="58.19614054" lon="15.99304391">
<ele>109.2</ele>
<time>2023-05-14T08:12:57Z</time>
<extensions>
<tp1:TrackPointExtension>
<tp1:hr>158</tp1:hr>
</tp1:TrackPointExtension>
</extensions>
</trkpt>
<trkpt lat="58.19590358" lon="15.99293796">
<ele>109.0</ele>
<time>2023-05-14T08:13:02Z</time>
<extensions>
<tp1:TrackPointExtension>
<tp1:hr>160</tp1:hr>
</tp1:TrackPointExtension>
</extensions>
</trkpt>
<trkpt lat="58.19585941" lon="15.9929238">
<ele>109.0</ele>
<time>2023-05-14T08:13:04Z</time>
<extensions>
<tp1:TrackPointExtension>
<tp1:hr>160</tp1:hr>
</tp1:TrackPointExtension>
</extensions>
</trkpt>
<trkpt lat="58.19571809" lon="15.99289094">
<ele>108.9</ele>
<time>2023-05-14T08:13:07Z</time>
<extensions>
<tp1:TrackPointExtension>
<tp1:hr>157</tp1:hr>
</tp1:TrackPointExtension>
</extensions>
</trkpt>
<trkpt lat="58.19558457" lon="15.99287099">
<ele>108.7</ele>
<time>2023-05-14T08:13:10Z</time>
<extensions>
<tp1:TrackPointExtension>
<tp1:hr>156</tp1:hr>
</tp1:TrackPointExtension>
</extensions>
</trkpt>
<trkpt lat="58.19550569" lon="15.99287242">
<ele>108.7</ele>
<time>2023-05-14T08:13:12Z</time>
<extensions>
<tp1:TrackPointExtension>
<tp1:hr>155</tp1:hr>
</tp1:TrackPointExtension>
</extensions>
</trkpt>
<trkpt lat="58.19544995" lon="15.9929492">
<ele>108.7</ele>
<time>2023-05-14T08:13:14Z</time>
<extensions>
<tp1:TrackPointExtension>
<tp1:hr>157</tp1:hr>
</tp1:TrackPointExtension>
</extensions>
</trkpt>
<trkpt lat="58.1953948" lon="15.99306311">
<ele>108.5</ele>
<time>2023-05-14T08:13:16Z</time>
<extensions>
<tp1:TrackPointExtension>
<tp1:hr>155</tp1:hr>
</tp1:TrackPointExtension>
</extensions>
</trkpt>
<trkpt lat="58.19537594" lon="15.99311926">
<ele>108.5</ele>
<time>2023-05-14T08:13:17Z</time>
<extensions>
<tp1:TrackPointExtension>
<tp1:hr>152</tp1:hr>
</tp1:TrackPointExtension>
</extensions>
</trkpt>
<trkpt lat="58.19535909" lon="15.99317132">
<ele>108.5</ele>
<time>2023-05-14T08:13:18Z</time>
<extensions>
<tp1:TrackPointExtension>
<tp1:hr>152</tp1:hr>
</tp1:TrackPointExtension>
</extensions>
</trkpt>
<trkpt lat="58.19535113" lon="15.99320308">
<ele>108.5</ele>
<time>2023-05-14T08:13:19Z</time>
<extensions>
<tp1:TrackPointExtension>
<tp1:hr>152</tp1:hr>
</tp1:TrackPointExtension>
</extensions>
</trkpt>
<trkpt lat="58.19534794" lon="15.99320727">
<ele>108.3</ele>
<time>2023-05-14T08:13:20Z</time>
<extensions>
<tp1:TrackPointExtension>
<tp1:hr>152</tp1:hr>
</tp1:TrackPointExtension>
</extensions>
</trkpt>
<trkpt lat="58.19536882" lon="15.9931569">
<ele>108.3</ele>
<time>2023-05-14T08:13:22Z</time>
<extensions>
<tp1:TrackPointExtension>
<tp1:hr>155</tp1:hr>
</tp1:TrackPointExtension>
</extensions>
</trkpt>
<trkpt lat="58.19538667" lon="15.99314416">
<ele>108.3</ele>
<time>2023-05-14T08:13:23Z</time>
<extensions>
<tp1:TrackPointExtension>
<tp1:hr>156</tp1:hr>
</tp1:TrackPointExtension>
</extensions>
</trkpt>
<trkpt lat="58.19540611" lon="15.99316637">
<ele>108.1</ele>
<time>2023-05-14T08:13:24Z</time>
<extensions>
<tp1:TrackPointExtension>
<tp1:hr>164</tp1:hr>
</tp1:TrackPointExtension>
</extensions>
</trkpt>
<trkpt lat="58.19544065" lon="15.99320308">
<ele>108.1</ele>
<time>2023-05-14T08:13:25Z</time>
<extensions>
<tp1:TrackPointExtension>
<tp1:hr>165</tp1:hr>
</tp1:TrackPointExtension>
</extensions>
</trkpt>
<trkpt lat="58.19554953" lon="15.99343493">
<ele>107.9</ele>
<time>2023-05-14T08:13:29Z</time>
<extensions>
<tp1:TrackPointExtension>
<tp1:hr>167</tp1:hr>
</tp1:TrackPointExtension>
</extensions>
</trkpt>
<trkpt lat="58.19557124" lon="15.99350709">
<ele>107.9</ele>
<time>2023-05-14T08:13:30Z</time>
<extensions>
<tp1:TrackPointExtension>
<tp1:hr>167</tp1:hr>
</tp1:TrackPointExtension>
</extensions>
</trkpt>
<trkpt lat="58.19562337" lon="15.99375847">
<ele>107.7</ele>
<time>2023-05-14T08:13:33Z</time>
<extensions>
<tp1:TrackPointExtension>
<tp1:hr>168</tp1:hr>
</tp1:TrackPointExtension>
</extensions>
</trkpt>
<trkpt lat="58.19556369" lon="15.99411713">
<ele>107.5</ele>
<time>2023-05-14T08:13:37Z</time>
<extensions>
<tp1:TrackPointExtension>
<tp1:hr>170</tp1:hr>
</tp1:TrackPointExtension>
</extensions>
</trkpt>
<trkpt lat="58.19544903" lon="15.99441611">
<ele>107.2</ele>
<time>2023-05-14T08:13:41Z</time>
<extensions>
<tp1:TrackPointExtension>
<tp1:hr>170</tp1:hr>
</tp1:TrackPointExtension>
</extensions>
</trkpt>
<trkpt lat="58.19541198" lon="15.99444478">
<ele>107.2</ele>
<time>2023-05-14T08:13:42Z</time>
<extensions>
<tp1:TrackPointExtension>
<tp1:hr>170</tp1:hr>
</tp1:TrackPointExtension>
</extensions>
</trkpt>
<trkpt lat="58.19533537" lon="15.99445341">
<ele>107.0</ele>
<time>2023-05-14T08:13:44Z</time>
<extensions>
<tp1:TrackPointExtension>
<tp1:hr>170</tp1:hr>
</tp1:TrackPointExtension>
</extensions>
</trkpt>
<trkpt lat="58.19511409" lon="15.99444813">
<ele>106.4</ele>
<time>2023-05-14T08:13:49Z</time>
<extensions>
<tp1:TrackPointExtension>
<tp1:hr>170</tp1:hr>
</tp1:TrackPointExtension>
</extensions>
</trkpt>
<trkpt lat="58.1949752" lon="15.994468">
<ele>106.0</ele>
<time>2023-05-14T08:13:52Z</time>
<extensions>
<tp1:TrackPointExtension>
<tp1:hr>170</tp1:hr>
</tp1:TrackPointExtension>
</extensions>
</trkpt>
<trkpt lat="58.19488778" lon="15.99449381">
<ele>105.8</ele>
<time>2023-05-14T08:13:54Z</time>
<extensions>
<tp1:TrackPointExtension>
<tp1:hr>170</tp1:hr>
</tp1:TrackPointExtension>
</extensions>
</trkpt>
<trkpt lat="58.19485031" lon="15.99450991">
<ele>105.6</ele>
<time>2023-05-14T08:13:55Z</time>
<extensions>
<tp1:TrackPointExtension>
<tp1:hr>170</tp1:hr>
</tp1:TrackPointExtension>
</extensions>
</trkpt>
<trkpt lat="58.19475903" lon="15.99449582">
<ele>105.4</ele>
<time>2023-05-14T08:13:57Z</time>
<extensions>
<tp1:TrackPointExtension>
<tp1:hr>170</tp1:hr>
</tp1:TrackPointExtension>
</extensions>
</trkpt>
<trkpt lat="58.19471746" lon="15.99449297">
<ele>105.2</ele>
<time>2023-05-14T08:13:58Z</time>
<extensions>
<tp1:TrackPointExtension>
<tp1:hr>170</tp1:hr>
</tp1:TrackPointExtension>
</extensions>
</trkpt>
<trkpt lat="58.1946333" lon="15.99446598">
<ele>105.0</ele>
<time>2023-05-14T08:14:00Z</time>
<extensions>
<tp1:TrackPointExtension>
<tp1:hr>170</tp1:hr>
</tp1:TrackPointExtension>
</extensions>
</trkpt>
<trkpt lat="58.19458921" lon="15.99444855">
<ele>105.0</ele>
<time>2023-05-14T08:14:01Z</time>
<extensions>
<tp1:TrackPointExtension>
<tp1:hr>169</tp1:hr>
</tp1:TrackPointExtension>
</extensions>
</trkpt>
<trkpt lat="58.19451562" lon="15.99445417">
<ele>104.6</ele>
<time>2023-05-14T08:14:03Z</time>
<extensions>
<tp1:TrackPointExtension>
<tp1:hr>171</tp1:hr>
</tp1:TrackPointExtension>
</extensions>
</trkpt>
<trkpt lat="58.19443784" lon="15.99443003">
<ele>104.4</ele>
<time>2023-05-14T08:14:05Z</time>
<extensions>
<tp1:TrackPointExtension>
<tp1:hr>170</tp1:hr>
</tp1:TrackPointExtension>
</extensions>
</trkpt>
<trkpt lat="58.19430943" lon="15.99445559">
<ele>104.2</ele>
<time>2023-05-14T08:14:08Z</time>
<extensions>
<tp1:TrackPointExtension>
<tp1:hr>170</tp1:hr>
</tp1:TrackPointExtension>
</extensions>
</trkpt>
<trkpt lat="58.19427514" lon="15.994468">
<ele>104.0</ele>
<time>2023-05-14T08:14:09Z</time>
<extensions>
<tp1:TrackPointExtension>
<tp1:hr>170</tp1:hr>
</tp1:TrackPointExtension>
</extensions>
</trkpt>
<trkpt lat="58.19423969" lon="15.99448141">
<ele>104.0</ele>
<time>2023-05-14T08:14:10Z</time>
<extensions>
<tp1:TrackPointExtension>
<tp1:hr>169</tp1:hr>
</tp1:TrackPointExtension>
</extensions>
</trkpt>
<trkpt lat="58.19416702" lon="15.9945172">
<ele>103.6</ele>
<time>2023-05-14T08:14:13Z</time>
<extensions>
<tp1:TrackPointExtension>
<tp1:hr>169</tp1:hr>
</tp1:TrackPointExtension>
</extensions>
</trkpt>
<trkpt lat="58.19396887" lon="15.99452625">
<ele>103.1</ele>
<time>2023-05-14T08:14:18Z</time>
<extensions>
<tp1:TrackPointExtension>
<tp1:hr>169</tp1:hr>
</tp1:TrackPointExtension>
</extensions>
</trkpt>
<trkpt lat="58.19393216" lon="15.99453748">
<ele>102.9</ele>
<time>2023-05-14T08:14:19Z</time>
<extensions>
<tp1:TrackPointExtension>
<tp1:hr>169</tp1:hr>
</tp1:TrackPointExtension>
</extensions>
</trkpt>
<trkpt lat="58.19386644" lon="15.99459548">
<ele>102.9</ele>
<time>2023-05-14T08:14:21Z</time>
<extensions>
<tp1:TrackPointExtension>
<tp1:hr>171</tp1:hr>
</tp1:TrackPointExtension>
</extensions>
</trkpt>
<trkpt lat="58.19383618" lon="15.99462097">
<ele>102.7</ele>
<time>2023-05-14T08:14:22Z</time>
<extensions>
<tp1:TrackPointExtension>
<tp1:hr>170</tp1:hr>
</tp1:TrackPointExtension>
</extensions>
</trkpt>
<trkpt lat="58.19381146" lon="15.99461166">
<ele>102.7</ele>
<time>2023-05-14T08:14:23Z</time>
<extensions>
<tp1:TrackPointExtension>
<tp1:hr>169</tp1:hr>
</tp1:TrackPointExtension>
</extensions>
</trkpt>
<trkpt lat="58.19377433" lon="15.99451326">
<ele>102.5</ele>
<time>2023-05-14T08:14:25Z</time>
<extensions>
<tp1:TrackPointExtension>
<tp1:hr>169</tp1:hr>
</tp1:TrackPointExtension>
</extensions>
</trkpt>
<trkpt lat="58.19377206" lon="15.99430572">
<ele>102.3</ele>
<time>2023-05-14T08:14:29Z</time>
<extensions>
<tp1:TrackPointExtension>
<tp1:hr>168</tp1:hr>
</tp1:TrackPointExtension>
</extensions>
</trkpt>
<trkpt lat="58.19376552" lon="15.99428829">
<ele>102.1</ele>
<time>2023-05-14T08:14:30Z</time>
<extensions>
<tp1:TrackPointExtension>
<tp1:hr>168</tp1:hr>
</tp1:TrackPointExtension>
</extensions>
</trkpt>
<trkpt lat="58.19374457" lon="15.99427094">
<ele>102.1</ele>
<time>2023-05-14T08:14:31Z</time>
<extensions>
<tp1:TrackPointExtension>
<tp1:hr>168</tp1:hr>
</tp1:TrackPointExtension>
</extensions>
</trkpt>
<trkpt lat="58.19367165" lon="15.99423749">
<ele>102.1</ele>
<time>2023-05-14T08:14:33Z</time>
<extensions>
<tp1:TrackPointExtension>
<tp1:hr>168</tp1:hr>
</tp1:TrackPointExtension>
</extensions>
</trkpt>
<trkpt lat="58.19348725" lon="15.99421377">
<ele>101.9</ele>
<time>2023-05-14T08:14:37Z</time>
<extensions>
<tp1:TrackPointExtension>
<tp1:hr>166</tp1:hr>
</tp1:TrackPointExtension>
</extensions>
</trkpt>
<trkpt lat="58.19343888" lon="15.99423414">
<ele>101.9</ele>
<time>2023-05-14T08:14:38Z</time>
<extensions>
<tp1:TrackPointExtension>
<tp1:hr>166</tp1:hr>
</tp1:TrackPointExtension>
</extensions>
</trkpt>
<trkpt lat="58.19334702" lon="15.99429952">
<ele>101.7</ele>
<time>2023-05-14T08:14:40Z</time>
<extensions>
<tp1:TrackPointExtension>
<tp1:hr>165</tp1:hr>
</tp1:TrackPointExtension>
</extensions>
</trkpt>
<trkpt lat="58.1932891" lon="15.99437789">
<ele>101.7</ele>
<time>2023-05-14T08:14:42Z</time>
<extensions>
<tp1:TrackPointExtension>
<tp1:hr>164</tp1:hr>
</tp1:TrackPointExtension>
</extensions>
</trkpt>
<trkpt lat="58.19314225" lon="15.9946218">
<ele>101.4</ele>
<time>2023-05-14T08:14:47Z</time>
<extensions>
<tp1:TrackPointExtension>
<tp1:hr>166</tp1:hr>
</tp1:TrackPointExtension>
</extensions>
</trkpt>
<trkpt lat="58.19298961" lon="15.99490386">
<ele>101.2</ele>
<time>2023-05-14T08:14:51Z</time>
<extensions>
<tp1:TrackPointExtension>
<tp1:hr>166</tp1:hr>
</tp1:TrackPointExtension>
</extensions>
</trkpt>
<trkpt lat="58.19295256" lon="15.99498658">
<ele>101.2</ele>
<time>2023-05-14T08:14:52Z</time>
<extensions>
<tp1:TrackPointExtension>
<tp1:hr>169</tp1:hr>
</tp1:TrackPointExtension>
</extensions>
</trkpt>
<trkpt lat="58.19292038" lon="15.99507267">
<ele>101.2</ele>
<time>2023-05-14T08:14:53Z</time>
<extensions>
<tp1:TrackPointExtension>
<tp1:hr>171</tp1:hr>
</tp1:TrackPointExtension>
</extensions>
</trkpt>
<trkpt lat="58.19287537" lon="15.99526051">
<ele>101.2</ele>
<time>2023-05-14T08:14:55Z</time>
<extensions>
<tp1:TrackPointExtension>
<tp1:hr>174</tp1:hr>
</tp1:TrackPointExtension>
</extensions>
</trkpt>
<trkpt lat="58.1928529" lon="15.995374">
<ele>101.0</ele>
<time>2023-05-14T08:14:57Z</time>
<extensions>
<tp1:TrackPointExtension>
<tp1:hr>175</tp1:hr>
</tp1:TrackPointExtension>
</extensions>
</trkpt>
</trkseg>
</trk>
</gpx>

