<?xml version="1.0" encoding="utf-8"?>
<kml xmlns="http://www.opengis.net/kml/2.2">
  <Document>
  <name>Erik Martinsson: Medel-DM (2020-09-11)</name>
    <Folder>
      <GroundOverlay>
        <Icon>
          <href>http://www.lid1.se/erik/doma/map_images/490.jpg</href>
        </Icon>
        <LatLonBox>
          <north>58.612284053342</north>
          <south>58.584997876851</south>
          <east>15.491028214578</east>
          <west>15.449717055472</west>
          <rotation>-5.584773076644</rotation>
        </LatLonBox>
      </GroundOverlay>
    </Folder>
  </Document>
</kml>
